,FIPs,County,State,Zip_Code,Station
0,1001,Autauga County,AL,36091,KMGM
1,1003,Baldwin County,AL,36502,KNSE
2,1005,Barbour County,AL,36017,KTOI
3,1007,Bibb County,AL,35115,KEET
4,1009,Blount County,AL,35063,KBHM
5,1011,Bullock County,AL,36029,KMGM
6,1013,Butler County,AL,36071,KPRN
7,1015,Calhoun County,AL,36205,KANB
8,1017,Chambers County,AL,36854,KLGC
9,1019,Cherokee County,AL,35984,KCHA
10,1021,Chilton County,AL,35115,KEET
11,1023,Choctaw County,AL,36915,KMEI
12,1025,Clarke County,AL,36540,KGZH
13,1027,Clay County,AL,36251,KANB
14,1029,Cleburne County,AL,36264,KANB
15,1031,Coffee County,AL,36323,KTOI
16,1033,Colbert County,AL,35672,KMSL
17,1035,Conecuh County,AL,36502,KNSE
18,1037,Coosa County,AL,35151,KALX
19,1039,Covington County,AL,36476,KGZH
20,1041,Crenshaw County,AL,36323,KTOI
21,1043,Cullman County,AL,35619,KCMD
22,1045,Dale County,AL,36360,KDHN
23,1047,Dallas County,AL,36758,KMGM
24,1049,DeKalb County,AL,35968,KCHA
25,1051,Elmore County,AL,36024,KALX
26,1053,Escambia County,AL,36502,KNSE
27,1055,Etowah County,AL,35901,KGAD
28,1057,Fayette County,AL,35554,KBHM
29,1059,Franklin County,AL,35585,KTUP
30,1061,Geneva County,AL,36305,KDHN
31,1063,Greene County,AL,35480,KTCL
32,1065,Hale County,AL,36744,KTCL
33,1067,Henry County,AL,36317,KTOI
34,1069,Houston County,AL,36320,KMAI
35,1071,Jackson County,AL,35751,KMDQ
36,1073,Jefferson County,AL,35022,KEKY
37,1075,Lamar County,AL,35576,KGTR
38,1077,Lauderdale County,AL,35614,KDCU
39,1079,Lawrence County,AL,35619,KCMD
40,1081,Lee County,AL,36874,KAUO
41,1083,Limestone County,AL,35614,KDCU
42,1085,Lowndes County,AL,36043,KMGM
43,1087,Macon County,AL,36039,KTOI
44,1089,Madison County,AL,35803,KHSV
45,1091,Marengo County,AL,36722,KGZH
46,1093,Marion County,AL,35554,KBHM
47,1095,Marshall County,AL,35175,KHSV
48,1097,Mobile County,AL,36571,KMOB
49,1099,Monroe County,AL,36444,KGZH
50,1101,Montgomery County,AL,36043,KMGM
51,1103,Morgan County,AL,35175,KHSV
52,1105,Perry County,AL,36786,KTCL
53,1107,Pickens County,AL,35576,KGTR
54,1109,Pike County,AL,36082,KTOI
55,1111,Randolph County,AL,36264,KANB
56,1113,Russell County,AL,36874,KAUO
57,1115,St. Clair County,AL,35135,KPLR
58,1117,Shelby County,AL,35022,KEKY
59,1119,Sumter County,AL,36925,KMEI
60,1121,Talladega County,AL,35014,KPLR
61,1123,Tallapoosa County,AL,36251,KANB
62,1125,Tuscaloosa County,AL,35184,KEKY
63,1127,Walker County,AL,35130,KBHM
64,1129,Washington County,AL,36529,KMOB
65,1131,Wilcox County,AL,36722,KGZH
66,1133,Winston County,AL,35541,KCMD
67,2013,Aleutians East Borough,AK,99661,PASD
68,2016,Aleutians West Census Area,AK,99692,PADU
69,2020,Anchorage Municipality,AK,99523,PANC
70,2050,Bethel Census Area,AK,99614,PAKI
71,2060,Bristol Bay Borough,AK,99670,PAKN
72,2068,Denali Borough,AK,99744,PAIN
73,2070,Dillingham Census Area,AK,99628,PADL
74,2090,Fairbanks North Star Borough,AK,99712,PAFA
75,2100,Haines Borough,AK,99827,PAHN
76,2105,Hoonah-Angoon Census Area,AK,99825,PAOH
77,2110,Juneau City and Borough,AK,99801,PAJN
78,2122,Kenai Peninsula Borough,AK,99672,PAEN
79,2130,Ketchikan Gateway Borough,AK,99901,PAKT
80,2150,Kodiak Island Borough,AK,99643,PALB
81,2164,Lake and Peninsula Borough,AK,99625,PAKN
82,2170,Matanuska-Susitna Borough,AK,99654,PANC
83,2180,Nome Census Area,AK,99769,PASA
84,2185,North Slope Borough,AK,99747,PABA
85,2188,Northwest Arctic Borough,AK,99749,PASK
86,2195,Petersburg Census Area,AK,99836,PAFE
87,2198,Prince of Wales-Hyder Census Area,AK,99923,PAKT
88,2220,Sitka City and Borough,AK,99835,PASI
89,2230,Skagway Municipality,AK,99840,PAGY
90,2240,Southeast Fairbanks Census Area,AK,99738,PAEG
91,2261,Valdez-Cordova Census Area,AK,99588,PAVD
92,2275,Wrangell City and Borough,AK,99903,PAKW
93,2282,Yakutat City and Borough,AK,99689,PAYA
94,2290,Yukon-Koyukuk Census Area,AK,99627,PAMC
95,4001,Apache County,AZ,86556,KRQE
96,4003,Cochise County,AZ,85617,KDUG
97,4005,Coconino County,AZ,86002,KFLG
98,4007,Gila County,AZ,85541,KPAN
99,4009,Graham County,AZ,85543,KSAD
100,4011,Greenlee County,AZ,85534,KSVC
101,4012,La Paz County,AZ,85359,KBLH
102,4013,Maricopa County,AZ,85040,KPHX
103,4015,Mohave County,AZ,86442,KIFP
104,4017,Navajo County,AZ,85942,KSOW
105,4019,Pima County,AZ,85730,KDMA
106,4021,Pinal County,AZ,85117,KIWA
107,4023,Santa Cruz County,AZ,85640,KOLS
108,4025,Yavapai County,AZ,86314,KPRC
109,4027,Yuma County,AZ,85364,KNYL
110,5001,Arkansas County,AR,72073,KSGT
111,5003,Ashley County,AR,71663,KLLQ
112,5005,Baxter County,AR,72531,KBPK
113,5007,Benton County,AR,72732,KROG
114,5009,Boone County,AR,72685,KHRO
115,5011,Bradley County,AR,71651,KELD
116,5013,Calhoun County,AR,71701,KCDH
117,5015,Carroll County,AR,72740,KASG
118,5017,Chicot County,AR,71653,KGLH
119,5019,Clark County,AR,71728,KADF
120,5021,Clay County,AR,72430,KTKX
121,5023,Cleburne County,AR,72153,KCCA
122,5025,Cleveland County,AR,72057,KPBF
123,5027,Columbia County,AR,71861,KMNE
124,5029,Conway County,AR,72001,KRUE
125,5031,Craighead County,AR,72421,KJBR
126,5033,Crawford County,AR,72956,KFSM
127,5035,Crittenden County,AR,72327,KAWM
128,5037,Cross County,AR,72396,KAWM
129,5039,Dallas County,AR,71725,KADF
130,5041,Desha County,AR,71662,KLLQ
131,5043,Drew County,AR,71677,KLLQ
132,5045,Faulkner County,AR,72039,KCCA
133,5047,Franklin County,AR,72933,KFSM
134,5049,Fulton County,AR,72542,KARG
135,5051,Garland County,AR,71933,KHOT
136,5053,Grant County,AR,72057,KPBF
137,5055,Greene County,AR,72436,KTKX
138,5057,Hempstead County,AR,71862,KTXK
139,5059,Hot Spring County,AR,71933,KHOT
140,5061,Howard County,AR,71971,KDEQ
141,5063,Independence County,AR,72112,KJBR
142,5065,Izard County,AR,72561,KBVX
143,5067,Jackson County,AR,72112,KJBR
144,5069,Jefferson County,AR,72073,KSGT
145,5071,Johnson County,AR,72830,KRUE
146,5073,Lafayette County,AR,71861,KMNE
147,5075,Lawrence County,AR,72440,KARG
148,5077,Lee County,AR,72366,KCKM
149,5079,Lincoln County,AR,71603,KPBF
150,5081,Little River County,AR,71853,KTXK
151,5083,Logan County,AR,72933,KFSM
152,5085,Lonoke County,AR,72037,KSGT
153,5087,Madison County,AR,72703,KASG
154,5089,Marion County,AR,72661,KBPK
155,5091,Miller County,AR,71834,KTXK
156,5093,Mississippi County,AR,72330,KJBR
157,5095,Monroe County,AR,72021,KSGT
158,5097,Montgomery County,AR,71933,KHOT
159,5099,Nevada County,AR,71858,KTXK
160,5101,Newton County,AR,72628,KHRO
161,5103,Ouachita County,AR,71701,KCDH
162,5105,Perry County,AR,72001,KRUE
163,5107,Phillips County,AR,72366,KCKM
164,5109,Pike County,AR,71971,KDEQ
165,5111,Poinsett County,AR,72421,KJBR
166,5113,Polk County,AR,71944,KDEQ
167,5115,Pope County,AR,72801,KRUE
168,5117,Prairie County,AR,72170,KSGT
169,5119,Pulaski County,AR,72116,KLIT
170,5121,Randolph County,AR,72413,KARG
171,5123,St. Francis County,AR,72021,KSGT
172,5125,Saline County,AR,72019,KLIT
173,5127,Scott County,AR,72944,KRKR
174,5129,Searcy County,AR,72686,KCCA
175,5131,Sebastian County,AR,72903,KFSM
176,5133,Sevier County,AR,71832,KDEQ
177,5135,Sharp County,AR,72542,KARG
178,5137,Stone County,AR,72153,KCCA
179,5139,Union County,AR,71730,KELD
180,5141,Van Buren County,AR,72013,KCCA
181,5143,Washington County,AR,72703,KASG
182,5145,White County,AR,72010,KBVX
183,5147,Woodruff County,AR,72112,KJBR
184,5149,Yell County,AR,72857,KRUE
185,6001,Alameda County,CA,94501,KOAK
186,6003,Alpine County,CA,96120,KRNO
187,6005,Amador County,CA,95666,KSCK
188,6007,Butte County,CA,95917,KOVE
189,6009,Calaveras County,CA,95228,KSCK
190,6011,Colusa County,CA,95645,KSMF
191,6013,Contra Costa County,CA,94509,KOAK
192,6015,Del Norte County,CA,95538,KCEC
193,6017,El Dorado County,CA,95666,KSCK
194,6019,Fresno County,CA,93625,KFAT
195,6021,Glenn County,CA,95951,KOVE
196,6023,Humboldt County,CA,95540,KFOT
197,6025,Imperial County,CA,92243,KIPL
198,6027,Inyo County,CA,93549,KNID
199,6029,Kern County,CA,93304,KBFL
200,6031,Kings County,CA,93239,KVIS
201,6033,Lake County,CA,95457,KUKI
202,6035,Lassen County,CA,96114,KRNO
203,6037,Los Angeles County,CA,90013,KHHR
204,6039,Madera County,CA,93639,KFAT
205,6041,Marin County,CA,94979,KOAK
206,6043,Mariposa County,CA,95369,KMER
207,6045,Mendocino County,CA,95490,KSTS
208,6047,Merced County,CA,95340,KMCE
209,6049,Modoc County,CA,96134,KMFR
210,6051,Mono County,CA,93546,KMMH
211,6053,Monterey County,CA,93426,KSBP
212,6055,Napa County,CA,94574,KSTS
213,6057,Nevada County,CA,96162,KRNO
214,6059,Orange County,CA,90638,KFUL
215,6061,Placer County,CA,95631,KSMF
216,6063,Plumas County,CA,95983,KRNO
217,6065,Riverside County,CA,92373,KSBD
218,6067,Sacramento County,CA,95630,KMHR
219,6069,San Benito County,CA,95004,KWVI
220,6071,San Bernardino County,CA,92344,KSBD
221,6073,San Diego County,CA,91901,MMTJ
222,6075,San Francisco County,CA,94109,KOAK
223,6077,San Joaquin County,CA,95202,KSCK
224,6079,San Luis Obispo County,CA,93420,KSBP
225,6081,San Mateo County,CA,94404,KSFO
226,6083,Santa Barbara County,CA,93105,KSBA
227,6085,Santa Clara County,CA,94550,KLVK
228,6087,Santa Cruz County,CA,95033,KSJC
229,6089,Shasta County,CA,96001,KRDD
230,6091,Sierra County,CA,96118,KRNO
231,6093,Siskiyou County,CA,96134,KMFR
232,6095,Solano County,CA,94590,KAPC
233,6097,Sonoma County,CA,95448,KSTS
234,6099,Stanislaus County,CA,94550,KLVK
235,6101,Sutter County,CA,95645,KSMF
236,6103,Tehama County,CA,96022,KRDD
237,6105,Trinity County,CA,95595,KRDD
238,6107,Tulare County,CA,93247,KPTV
239,6109,Tuolumne County,CA,95311,KSCK
240,6111,Ventura County,CA,91304,KBUR
241,6113,Yolo County,CA,95616,KEDU
242,6115,Yuba County,CA,95977,KSMF
243,8001,Adams County,CO,80229,KBJC
244,8003,Alamosa County,CO,81101,KALS
245,8005,Arapahoe County,CO,80013,KBKF
246,8007,Archuleta County,CO,81137,KDRO
247,8009,Baca County,CO,81029,KLBL
248,8011,Bent County,CO,81057,KLAA
249,8013,Boulder County,CO,80533,KLMO
250,8014,Broomfield County,CO,80038,KDEN
251,8015,Chaffee County,CO,81236,KAEJ
252,8017,Cheyenne County,CO,80825,KITR
253,8019,Clear Creek County,CO,80439,KBJC
254,8021,Conejos County,CO,81120,KALS
255,8023,Costilla County,CO,81120,KALS
256,8025,Crowley County,CO,81039,KPUB
257,8027,Custer County,CO,81252,KALS
258,8029,Delta County,CO,81410,KAJZ
259,8031,Denver County,CO,80110,KAPA
260,8033,Dolores County,CO,81324,KMTJ
261,8035,Douglas County,CO,80104,KAPA
262,8037,Eagle County,CO,81645,KEGE
263,8039,Elbert County,CO,80832,KLIC
264,8041,El Paso County,CO,80903,KCOS
265,8043,Fremont County,CO,81240,KFCS
266,8045,Garfield County,CO,81641,KEEO
267,8047,Gilpin County,CO,80422,KBDU
268,8049,Grand County,CO,80446,KFNL
269,8051,Gunnison County,CO,81225,KASE
270,8053,Hinsdale County,CO,81235,KMTJ
271,8055,Huerfano County,CO,81040,KALS
272,8057,Jackson County,CO,80430,KHDN
273,8059,Jefferson County,CO,80439,KBJC
274,8061,Kiowa County,CO,81045,KLHX
275,8063,Kit Carson County,CO,80834,KITR
276,8065,Lake County,CO,80461,KLXV
277,8067,La Plata County,CO,81326,KDRO
278,8069,Larimer County,CO,80549,KFNL
279,8071,Las Animas County,CO,81039,KPUB
280,8073,Lincoln County,CO,81076,KLHX
281,8075,Logan County,CO,80741,KSTK
282,8077,Mesa County,CO,81523,KGJT
283,8079,Mineral County,CO,81154,KALS
284,8081,Moffat County,CO,81638,KHDN
285,8083,Montezuma County,CO,81335,KFMN
286,8085,Montrose County,CO,81402,KMTJ
287,8087,Morgan County,CO,80701,KFMM
288,8089,Otero County,CO,81039,KPUB
289,8091,Ouray County,CO,81432,KMTJ
290,8093,Park County,CO,80827,KCOS
291,8095,Phillips County,CO,80731,KHEQ
292,8097,Pitkin County,CO,81654,KASE
293,8099,Prowers County,CO,81052,KLAA
294,8101,Pueblo County,CO,81039,KPUB
295,8103,Rio Blanco County,CO,81638,KHDN
296,8105,Rio Grande County,CO,81135,KALS
297,8107,Routt County,CO,81638,KHDN
298,8109,Saguache County,CO,81155,KALS
299,8111,San Juan County,CO,81432,KMTJ
300,8113,San Miguel County,CO,81435,KTEX
301,8115,Sedgwick County,CO,80721,KHEQ
302,8117,Summit County,CO,80443,KEGE
303,8119,Teller County,CO,80813,KFCS
304,8121,Washington County,CO,80741,KSTK
305,8123,Weld County,CO,80642,KDEN
306,8125,Yuma County,CO,80758,KIML
307,9001,Fairfield County,CT,6484,KHVN
308,9003,Hartford County,CT,6040,KBDL
309,9005,Litchfield County,CT,6021,KBDL
310,9007,Middlesex County,CT,6073,KBDL
311,9009,New Haven County,CT,6422,KHVN
312,9011,New London County,CT,6231,KBDL
313,9013,Tolland County,CT,6066,KBDL
314,9015,Windham County,CT,6277,KORH
315,10001,Kent County,DE,19977,KDOV
316,10003,New Castle County,DE,19711,KILG
317,10005,Sussex County,DE,19958,KGED
318,11001,District of Columbia,DC,20001,KDCA
319,12001,Alachua County,FL,32601,KGNV
320,12003,Baker County,FL,32234,KVQQ
321,12005,Bay County,FL,32405,KPAM
322,12007,Bradford County,FL,32091,KGNV
323,12009,Brevard County,FL,32901,KMLB
324,12011,Broward County,FL,33019,KFLL
325,12013,Calhoun County,FL,32420,KMAI
326,12015,Charlotte County,FL,34223,KVNC
327,12017,Citrus County,FL,34449,KCGC
328,12019,Clay County,FL,32050,KVQQ
329,12021,Collier County,FL,34119,KAPF
330,12023,Columbia County,FL,32038,KGNV
331,12027,DeSoto County,FL,34268,KPGD
332,12029,Dixie County,FL,32008,KCTY
333,12031,Duval County,FL,32233,KNRB
334,12033,Escambia County,FL,32506,KNPA
335,12035,Flagler County,FL,32145,KSGJ
336,12037,Franklin County,FL,32320,KAAF
337,12039,Gadsden County,FL,32324,KMAI
338,12041,Gilchrist County,FL,32008,KCTY
339,12043,Glades County,FL,33944,KOBE
340,12045,Gulf County,FL,32456,KPAM
341,12047,Hamilton County,FL,32052,KVLD
342,12049,Hardee County,FL,33841,KBOW
343,12051,Hendry County,FL,33975,KRSW
344,12053,Hernando County,FL,34601,KBKV
345,12055,Highlands County,FL,33843,KBOW
346,12057,Hillsborough County,FL,33511,KVDF
347,12059,Holmes County,FL,32455,KECP
348,12061,Indian River County,FL,32963,KVRB
349,12063,Jackson County,FL,32443,KMAI
350,12065,Jefferson County,FL,32309,KTLH
351,12067,Lafayette County,FL,32008,KCTY
352,12069,Lake County,FL,32195,KSFB
353,12071,Lee County,FL,33907,KFMY
354,12073,Leon County,FL,32305,KTLH
355,12075,Levy County,FL,34449,KCGC
356,12077,Liberty County,FL,32334,KTLH
357,12079,Madison County,FL,32350,KVLD
358,12081,Manatee County,FL,34208,KSRQ
359,12083,Marion County,FL,32195,KSFB
360,12085,Martin County,FL,33478,KSUA
361,12086,Miami-Dade County,FL,33015,KOPF
362,12087,Monroe County,FL,33040,KEYW
363,12089,Nassau County,FL,32046,KJAX
364,12091,Okaloosa County,FL,32547,KVPS
365,12093,Okeechobee County,FL,34972,KOBE
366,12095,Orange County,FL,32710,KORL
367,12097,Osceola County,FL,34746,KISM
368,12099,Palm Beach County,FL,33403,KPBI
369,12101,Pasco County,FL,34653,KBKV
370,12103,Pinellas County,FL,33701,KSPG
371,12105,Polk County,FL,33547,KVDF
372,12107,Putnam County,FL,32131,KSGJ
373,12109,St. Johns County,FL,32131,KSGJ
374,12111,St. Lucie County,FL,34951,KFPR
375,12113,Santa Rosa County,FL,32571,KPNS
376,12115,Sarasota County,FL,34223,KVNC
377,12117,Seminole County,FL,32701,KORL
378,12119,Sumter County,FL,34731,KLEE
379,12121,Suwannee County,FL,32038,KGNV
380,12123,Taylor County,FL,32357,KVLD
381,12125,Union County,FL,32058,KGNV
382,12127,Volusia County,FL,32170,KDAB
383,12129,Wakulla County,FL,32326,KTLH
384,12131,Walton County,FL,32455,KECP
385,12133,Washington County,FL,32428,KECP
386,13001,Appling County,GA,31557,KJES
387,13003,Atkinson County,GA,31552,KAYS
388,13005,Bacon County,GA,31551,KBHC
389,13007,Baker County,GA,39841,KBIJ
390,13009,Baldwin County,GA,31033,KMCN
391,13011,Banks County,GA,30511,KGVL
392,13013,Barrow County,GA,30548,KWDR
393,13015,Bartow County,GA,30123,KVPC
394,13017,Ben Hill County,GA,31001,KDBN
395,13019,Berrien County,GA,31622,KDQH
396,13021,Bibb County,GA,31211,KMCN
397,13023,Bleckley County,GA,31036,KWRB
398,13025,Brantley County,GA,31543,KJES
399,13027,Brooks County,GA,31625,KMGR
400,13029,Bryan County,GA,31302,KSAV
401,13031,Bulloch County,GA,31308,KSAV
402,13033,Burke County,GA,30426,KAGS
403,13035,Butts County,GA,30223,KFFC
404,13037,Calhoun County,GA,39840,KBIJ
405,13039,Camden County,GA,31548,KFHB
406,13043,Candler County,GA,30420,KVDI
407,13045,Carroll County,GA,30179,KCTJ
408,13047,Catoosa County,GA,30707,KCHA
409,13049,Charlton County,GA,31537,KJAX
410,13051,Chatham County,GA,31302,KSAV
411,13053,Chattahoochee County,GA,31905,KLSF
412,13055,Chattooga County,GA,30105,KRMG
413,13057,Cherokee County,GA,30534,KGVL
414,13059,Clarke County,GA,30604,KATL
415,13061,Clay County,GA,39854,KBIJ
416,13063,Clayton County,GA,30236,KATL
417,13065,Clinch County,GA,31642,KDQH
418,13067,Cobb County,GA,30068,KMGE
419,13069,Coffee County,GA,31532,KDQH
420,13071,Colquitt County,GA,31738,KMGR
421,13073,Columbia County,GA,30824,KDNL
422,13075,Cook County,GA,31647,KVAD
423,13077,Coweta County,GA,30271,KATL
424,13079,Crawford County,GA,31016,KOPN
425,13081,Crisp County,GA,31072,KWRB
426,13083,Dade County,GA,30752,KCHA
427,13085,Dawson County,GA,30534,KGVL
428,13087,Decatur County,GA,39834,KTLH
429,13089,DeKalb County,GA,30032,KPDK
430,13091,Dodge County,GA,31011,KDBN
431,13093,Dooly County,GA,31072,KWRB
432,13095,Dougherty County,GA,31791,KABY
433,13097,Douglas County,GA,30134,KFTY
434,13099,Early County,GA,39841,KBIJ
435,13101,Echols County,GA,31636,KVLD
436,13103,Effingham County,GA,31302,KSAV
437,13105,Elbert County,GA,30635,KGSP
438,13107,Emanuel County,GA,30457,KVDI
439,13109,Evans County,GA,30423,KLHW
440,13111,Fannin County,GA,30541,KDNN
441,13113,Fayette County,GA,30269,KFFC
442,13115,Floyd County,GA,30124,KRMG
443,13117,Forsyth County,GA,30534,KGVL
444,13119,Franklin County,GA,30520,KGSP
445,13121,Fulton County,GA,30076,KPDK
446,13123,Gilmer County,GA,30534,KGVL
447,13125,Glascock County,GA,30810,KDNL
448,13127,Glynn County,GA,31543,KJES
449,13129,Gordon County,GA,30701,KRMG
450,13131,Grady County,GA,39834,KTLH
451,13133,Greene County,GA,30677,KAHN
452,13135,Gwinnett County,GA,30043,KLZU
453,13137,Habersham County,GA,30511,KGVL
454,13139,Hall County,GA,30518,KLZU
455,13141,Hancock County,GA,30678,KAGS
456,13143,Haralson County,GA,30179,KCTJ
457,13145,Harris County,GA,31811,KCSG
458,13147,Hart County,GA,30520,KGSP
459,13149,Heard County,GA,30108,KCTJ
460,13151,Henry County,GA,30236,KATL
461,13153,Houston County,GA,31025,KWRB
462,13155,Irwin County,GA,31733,KMGR
463,13157,Jackson County,GA,30548,KWDR
464,13159,Jasper County,GA,30014,KLZU
465,13161,Jeff Davis County,GA,31532,KDQH
466,13163,Jefferson County,GA,30810,KDNL
467,13165,Jenkins County,GA,30442,KJYL
468,13167,Johnson County,GA,31002,KDBN
469,13169,Jones County,GA,31211,KMCN
470,13171,Lamar County,GA,31016,KOPN
471,13173,Lanier County,GA,31605,KVAD
472,13175,Laurens County,GA,31002,KDBN
473,13177,Lee County,GA,31787,KABY
474,13179,Liberty County,GA,31316,KLHW
475,13181,Lincoln County,GA,30817,KDNL
476,13183,Long County,GA,31316,KLHW
477,13185,Lowndes County,GA,31636,KVLD
478,13187,Lumpkin County,GA,30534,KGVL
479,13189,McDuffie County,GA,30824,KDNL
480,13191,McIntosh County,GA,31319,KBQK
481,13193,Macon County,GA,31711,KLSF
482,13195,Madison County,GA,30565,KAHN
483,13197,Marion County,GA,31801,KLSF
484,13199,Meriwether County,GA,30241,KLGC
485,13201,Miller County,GA,39841,KBIJ
486,13205,Mitchell County,GA,31744,KMGR
487,13207,Monroe County,GA,31016,KOPN
488,13209,Montgomery County,GA,30457,KVDI
489,13211,Morgan County,GA,30625,KATL
490,13213,Murray County,GA,30711,KDNN
491,13215,Muscogee County,GA,31801,KLSF
492,13217,Newton County,GA,30014,KLZU
493,13219,Oconee County,GA,30638,KAHN
494,13221,Oglethorpe County,GA,30630,KAHN
495,13223,Paulding County,GA,30134,KFTY
496,13225,Peach County,GA,31076,KMCN
497,13227,Pickens County,GA,30534,KGVL
498,13229,Pierce County,GA,31551,KBHC
499,13231,Pike County,GA,30206,KOPN
500,13233,Polk County,GA,30124,KRMG
501,13235,Pulaski County,GA,31036,KWRB
502,13237,Putnam County,GA,30625,KATL
503,13239,Quitman County,GA,39854,KBIJ
504,13241,Rabun County,GA,30568,KAVL
505,13243,Randolph County,GA,39840,KBIJ
506,13245,Richmond County,GA,30912,KDNL
507,13247,Rockdale County,GA,30016,KATL
508,13249,Schley County,GA,31711,KLSF
509,13251,Screven County,GA,30424,KSAV
510,13253,Seminole County,GA,39825,KMAI
511,13255,Spalding County,GA,30223,KFFC
512,13257,Stephens County,GA,30598,KAJR
513,13259,Stewart County,GA,39854,KBIJ
514,13261,Sumter County,GA,31711,KLSF
515,13263,Talbot County,GA,31801,KLSF
516,13265,Taliaferro County,GA,30673,KIIY
517,13267,Tattnall County,GA,30420,KVDI
518,13269,Taylor County,GA,31076,KMCN
519,13271,Telfair County,GA,31037,KVDI
520,13273,Terrell County,GA,31721,KABY
521,13275,Thomas County,GA,31738,KMGR
522,13277,Tift County,GA,31733,KMGR
523,13279,Toombs County,GA,30436,KVDI
524,13281,Towns County,GA,30582,KRHP
525,13283,Treutlen County,GA,30457,KVDI
526,13285,Troup County,GA,30241,KLGC
527,13287,Turner County,GA,31714,KABY
528,13289,Twiggs County,GA,31031,KMCN
529,13291,Union County,GA,30514,KRHP
530,13293,Upson County,GA,31016,KOPN
531,13295,Walker County,GA,30752,KCHA
532,13297,Walton County,GA,30014,KLZU
533,13299,Ware County,GA,31552,KAYS
534,13301,Warren County,GA,30824,KDNL
535,13303,Washington County,GA,31096,KDBN
536,13305,Wayne County,GA,31543,KJES
537,13307,Webster County,GA,31825,KLSF
538,13309,Wheeler County,GA,30411,KVDI
539,13311,White County,GA,30527,KGVL
540,13313,Whitfield County,GA,30722,KDNN
541,13315,Wilcox County,GA,31072,KWRB
542,13317,Wilkes County,GA,30817,KDNL
543,13319,Wilkinson County,GA,31021,KDBN
544,13321,Worth County,GA,31791,KABY
545,15001,Hawaii County,HI,96740,PHKO
546,15003,Honolulu County,HI,96792,PHHI
547,15005,Kalawao County,HI,96742,PHMK
548,15007,Kauai County,HI,96754,PHLI
549,15009,Maui County,HI,96748,PHMK
550,16001,Ada County,ID,83642,KBOI
551,16003,Adams County,ID,83638,KMYL
552,16005,Bannock County,ID,83205,KPIH
553,16007,Bear Lake County,ID,83238,KPIH
554,16009,Benewah County,ID,83830,KPUW
555,16011,Bingham County,ID,83236,KIDA
556,16013,Blaine County,ID,83354,KSUN
557,16015,Boise County,ID,83637,KBOI
558,16017,Bonner County,ID,83822,KGEG
559,16019,Bonneville County,ID,83442,KIDA
560,16021,Boundary County,ID,83805,CYXC
561,16023,Butte County,ID,83244,KIDA
562,16025,Camas County,ID,83322,KSUN
563,16027,Canyon County,ID,83686,KEUL
564,16029,Caribou County,ID,83217,KPIH
565,16031,Cassia County,ID,83318,KBYI
566,16033,Clark County,ID,83423,KIDA
567,16035,Clearwater County,ID,83544,KPUW
568,16037,Custer County,ID,83253,KSUN
569,16039,Elmore County,ID,83648,KMUO
570,16041,Franklin County,ID,83237,KOGD
571,16043,Fremont County,ID,83425,KIDA
572,16045,Gem County,ID,83629,KBOI
573,16047,Gooding County,ID,83330,KJER
574,16049,Idaho County,ID,83549,KLWS
575,16051,Jefferson County,ID,83434,KIDA
576,16053,Jerome County,ID,83325,KTWF
577,16055,Kootenai County,ID,83810,KCOE
578,16057,Latah County,ID,83844,KPUW
579,16059,Lemhi County,ID,83253,KSUN
580,16061,Lewis County,ID,83555,KLWS
581,16063,Lincoln County,ID,83330,KJER
582,16065,Madison County,ID,83434,KIDA
583,16067,Minidoka County,ID,83343,KPIH
584,16069,Nez Perce County,ID,83555,KLWS
585,16071,Oneida County,ID,83252,KPIH
586,16073,Owyhee County,ID,83639,KEUL
587,16075,Payette County,ID,83619,KONO
588,16077,Power County,ID,83204,KPIH
589,16079,Shoshone County,ID,83830,KPUW
590,16081,Teton County,ID,83424,KDIJ
591,16083,Twin Falls County,ID,83303,KJER
592,16085,Valley County,ID,83638,KMYL
593,16087,Washington County,ID,83632,KBOI
594,17001,Adams County,IL,62301,KUIN
595,17003,Alexander County,IL,62914,KPAH
596,17005,Bond County,IL,62249,KALN
597,17007,Boone County,IL,61114,KRFD
598,17009,Brown County,IL,62375,KUIN
599,17011,Bureau County,IL,61560,KPIA
600,17013,Calhoun County,IL,62047,KSET
601,17015,Carroll County,IL,61053,KFEP
602,17017,Cass County,IL,62627,KIJX
603,17019,Champaign County,IL,61864,KCMI
604,17021,Christian County,IL,62545,KSPI
605,17023,Clark County,IL,62478,KRSV
606,17025,Clay County,IL,62448,KOLY
607,17027,Clinton County,IL,62249,KALN
608,17029,Coles County,IL,62447,KMTO
609,17031,Cook County,IL,60067,KPWK
610,17033,Crawford County,IL,62466,KAJG
611,17035,Cumberland County,IL,62447,KMTO
612,17037,DeKalb County,IL,60152,KDKB
613,17039,De Witt County,IL,61735,KBMI
614,17041,Douglas County,IL,61872,KCMI
615,17043,DuPage County,IL,60517,KLOT
616,17045,Edgar County,IL,61933,KPRG
617,17047,Edwards County,IL,62815,KAJG
618,17049,Effingham County,IL,62479,KLWV
619,17051,Fayette County,IL,62011,KTAZ
620,17053,Ford County,IL,60921,KPNT
621,17055,Franklin County,IL,62822,KMWA
622,17057,Fulton County,IL,61531,KPIA
623,17059,Gallatin County,IL,62821,KCUL
624,17061,Greene County,IL,62027,KSET
625,17063,Grundy County,IL,60424,KMDW
626,17065,Hamilton County,IL,62828,KMVN
627,17067,Hancock County,IL,62379,KEOK
628,17069,Hardin County,IL,62947,KHSB
629,17071,Henderson County,IL,61418,KBRL
630,17073,Henry County,IL,61254,KMLI
631,17075,Iroquois County,IL,60912,KIKK
632,17077,Jackson County,IL,62272,KSAR
633,17079,Jasper County,IL,62448,KOLY
634,17081,Jefferson County,IL,62864,KMVN
635,17083,Jersey County,IL,62035,KALN
636,17085,Jo Daviess County,IL,61085,KFEP
637,17087,Johnson County,IL,62972,KMWA
638,17089,Kane County,IL,60136,KDPA
639,17091,Kankakee County,IL,60424,KMDW
640,17093,Kendall County,IL,60544,KLOT
641,17095,Knox County,IL,61412,KGBG
642,17097,Lake County,IL,60051,KUGN
643,17099,LaSalle County,IL,61360,KMDW
644,17101,Lawrence County,IL,62439,KLWV
645,17103,Lee County,IL,60553,KRPJ
646,17105,Livingston County,IL,60921,KPNT
647,17107,Logan County,IL,62634,KAAA
648,17109,McDonough County,IL,61440,KMQB
649,17111,McHenry County,IL,60051,KUGN
650,17113,McLean County,IL,61723,KAAA
651,17115,Macon County,IL,62573,KDEC
652,17117,Macoupin County,IL,62069,KALN
653,17119,Madison County,IL,62035,KALN
654,17121,Marion County,IL,62885,KSLO
655,17123,Marshall County,IL,61523,KPIA
656,17125,Mason County,IL,61546,KPIA
657,17127,Massac County,IL,62960,KPAH
658,17129,Menard County,IL,62625,KSPI
659,17131,Mercer County,IL,61412,KGBG
660,17133,Monroe County,IL,62278,KSAR
661,17135,Montgomery County,IL,62069,KALN
662,17137,Morgan County,IL,62621,KPPQ
663,17139,Moultrie County,IL,61937,KDEC
664,17141,Ogle County,IL,61047,KFEP
665,17143,Peoria County,IL,61523,KPIA
666,17145,Perry County,IL,62268,KSAR
667,17147,Piatt County,IL,61936,KDEC
668,17149,Pike County,IL,62314,KPPQ
669,17151,Pope County,IL,62960,KPAH
670,17153,Pulaski County,IL,62956,KPAH
671,17155,Putnam County,IL,61560,KPIA
672,17157,Randolph County,IL,62278,KSAR
673,17159,Richland County,IL,62448,KOLY
674,17161,Rock Island County,IL,61282,KMLI
675,17163,St. Clair County,IL,62223,KCPS
676,17165,Saline County,IL,62972,KMWA
677,17167,Sangamon County,IL,62545,KSPI
678,17169,Schuyler County,IL,62624,KSPI
679,17171,Scott County,IL,62621,KPPQ
680,17173,Shelby County,IL,62465,KDEC
681,17175,Stark County,IL,61449,KGBG
682,17177,Stephenson County,IL,61047,KFEP
683,17179,Tazewell County,IL,61546,KPIA
684,17181,Union County,IL,62952,KCGI
685,17183,Vermilion County,IL,61841,KDNV
686,17185,Wabash County,IL,62410,KAJG
687,17187,Warren County,IL,61412,KGBG
688,17189,Washington County,IL,62268,KSAR
689,17191,Wayne County,IL,62837,KFWC
690,17193,White County,IL,62821,KCUL
691,17195,Whiteside County,IL,61254,KMLI
692,17197,Will County,IL,60403,KLOT
693,17199,Williamson County,IL,62918,KMWA
694,17201,Winnebago County,IL,61047,KFEP
695,17203,Woodford County,IL,61744,KBMI
696,18001,Adams County,IN,46780,KFWA
697,18003,Allen County,IN,46725,KFWA
698,18005,Bartholomew County,IN,47274,KBAK
699,18007,Benton County,IN,47944,KLAF
700,18009,Blackford County,IN,47359,KMZZ
701,18011,Boone County,IN,46147,KCFJ
702,18013,Brown County,IN,47274,KBAK
703,18015,Carroll County,IN,46915,KGGP
704,18017,Cass County,IN,46998,KGGP
705,18019,Clark County,IN,47119,KLOU
706,18021,Clay County,IN,47802,KHUF
707,18023,Clinton County,IN,46039,KOKK
708,18025,Crawford County,IN,47175,KHNB
709,18027,Daviess County,IN,47553,KDCY
710,18029,Dearborn County,IN,47001,KCVG
711,18031,Decatur County,IN,46156,KGEZ
712,18033,DeKalb County,IN,46747,KGWB
713,18035,Delaware County,IN,46012,KMIE
714,18037,Dubois County,IN,47523,KHNB
715,18039,Elkhart County,IN,46514,KEKM
716,18041,Fayette County,IN,47331,KGEZ
717,18043,Floyd County,IN,47164,KSDF
718,18045,Fountain County,IN,47958,KLAF
719,18047,Franklin County,IN,47060,KCVG
720,18049,Fulton County,IN,46910,KRCR
721,18051,Gibson County,IN,47633,KEVV
722,18053,Grant County,IN,46933,KMZZ
723,18055,Greene County,IN,47441,KDCY
724,18057,Hamilton County,IN,46268,KEYE
725,18059,Hancock County,IN,46229,KMQJ
726,18061,Harrison County,IN,47164,KSDF
727,18063,Hendricks County,IN,46158,KIND
728,18065,Henry County,IN,46056,KMQJ
729,18067,Howard County,IN,46902,KOKK
730,18069,Huntington County,IN,46725,KFWA
731,18071,Jackson County,IN,47229,KIMS
732,18073,Jasper County,IN,46380,KVPZ
733,18075,Jay County,IN,47390,KMIE
734,18077,Jefferson County,IN,47224,KCVG
735,18079,Jennings County,IN,47229,KIMS
736,18081,Johnson County,IN,46106,KIND
737,18083,Knox County,IN,47596,KDCY
738,18085,Kosciusko County,IN,46504,KASW
739,18087,LaGrange County,IN,46746,KIRS
740,18089,Lake County,IN,46311,KIGQ
741,18091,LaPorte County,IN,46391,KVPZ
742,18093,Lawrence County,IN,47108,KBMG
743,18095,Madison County,IN,46040,KMQJ
744,18097,Marion County,IN,46201,KIND
745,18099,Marshall County,IN,46504,KASW
746,18101,Martin County,IN,47633,KEVV
747,18103,Miami County,IN,46910,KRCR
748,18105,Monroe County,IN,47408,KBMG
749,18107,Montgomery County,IN,47990,KCFJ
750,18109,Morgan County,IN,46158,KIND
751,18111,Newton County,IN,46310,KVPZ
752,18113,Noble County,IN,46725,KFWA
753,18115,Ohio County,IN,47001,KCVG
754,18117,Orange County,IN,47108,KBMG
755,18119,Owen County,IN,46166,KIND
756,18121,Parke County,IN,46135,KHUF
757,18123,Perry County,IN,47588,KHNB
758,18125,Pike County,IN,47660,KHNB
759,18127,Porter County,IN,46301,KVPZ
760,18129,Posey County,IN,47620,KEHR
761,18131,Pulaski County,IN,47960,KMCX
762,18133,Putnam County,IN,47840,KHUF
763,18135,Randolph County,IN,47355,KMIE
764,18137,Ripley County,IN,47224,KCVG
765,18139,Rush County,IN,46156,KGEZ
766,18141,St. Joseph County,IN,46613,KSBN
767,18143,Scott County,IN,47141,KLOU
768,18145,Shelby County,IN,47240,KBAK
769,18147,Spencer County,IN,47523,KHNB
770,18149,Starke County,IN,46374,KOXI
771,18151,Steuben County,IN,46737,KOEB
772,18153,Sullivan County,IN,47850,KHUF
773,18155,Switzerland County,IN,47224,KCVG
774,18157,Tippecanoe County,IN,47901,KLAF
775,18159,Tipton County,IN,46902,KOKK
776,18161,Union County,IN,47331,KGEZ
777,18163,Vanderburgh County,IN,47633,KEVV
778,18165,Vermillion County,IN,47854,KPRG
779,18167,Vigo County,IN,47802,KHUF
780,18169,Wabash County,IN,46919,KMZZ
781,18171,Warren County,IN,47991,KDNV
782,18173,Warrick County,IN,47660,KHNB
783,18175,Washington County,IN,47108,KBMG
784,18177,Wayne County,IN,47346,KMIE
785,18179,Wells County,IN,46798,KFWA
786,18181,White County,IN,47950,KMCX
787,18183,Whitley County,IN,46725,KFWA
788,19001,Adair County,IA,50002,KADU
789,19003,Adams County,IA,50857,KICL
790,19005,Allamakee County,IA,52170,KPDC
791,19007,Appanoose County,IA,52574,KCNC
792,19009,Audubon County,IA,50117,KADU
793,19011,Benton County,IA,50651,KVTI
794,19013,Black Hawk County,IA,50701,KALO
795,19015,Boone County,IA,50220,KPRO
796,19017,Bremer County,IA,50622,KALO
797,19019,Buchanan County,IA,50651,KVTI
798,19021,Buena Vista County,IA,50568,KSLB
799,19023,Butler County,IA,50433,KMCW
800,19025,Calhoun County,IA,50579,KCIN
801,19027,Carroll County,IA,51466,KCIN
802,19029,Cass County,IA,51532,KRDK
803,19031,Cedar County,IA,52253,KCID
804,19033,Cerro Gordo County,IA,50458,KMCW
805,19035,Cherokee County,IA,51047,KCKP
806,19037,Chickasaw County,IA,52132,KDEH
807,19039,Clarke County,IA,50222,KDSM
808,19041,Clay County,IA,51047,KCKP
809,19043,Clayton County,IA,52035,KPDC
810,19045,Clinton County,IA,52069,KCWI
811,19047,Crawford County,IA,51006,KDNS
812,19049,Dallas County,IA,50063,KPRO
813,19051,Davis County,IA,52560,KFFL
814,19053,Decatur County,IA,50108,KLWD
815,19055,Delaware County,IA,52065,KMXO
816,19057,Des Moines County,IA,52640,KMPZ
817,19059,Dickinson County,IA,51347,KSPW
818,19061,Dubuque County,IA,52033,KMXO
819,19063,Emmet County,IA,51365,KEST
820,19065,Fayette County,IA,50655,KOLZ
821,19067,Floyd County,IA,50458,KMCW
822,19069,Franklin County,IA,50071,KCAV
823,19071,Fremont County,IA,51647,KSDA
824,19073,Greene County,IA,50220,KPRO
825,19075,Grundy County,IA,50638,KMIW
826,19077,Guthrie County,IA,50002,KADU
827,19079,Hamilton County,IA,50236,KAMW
828,19081,Hancock County,IA,50447,KCAV
829,19083,Hardin County,IA,50206,KIFA
830,19085,Harrison County,IA,51550,KTQE
831,19087,Henry County,IA,52656,KFSW
832,19089,Howard County,IA,50628,KCCY
833,19091,Humboldt County,IA,50519,KAXA
834,19093,Ida County,IA,51006,KDNS
835,19095,Iowa County,IA,52361,KCID
836,19097,Jackson County,IA,52069,KCWI
837,19099,Jasper County,IA,50170,KTNU
838,19101,Jefferson County,IA,52641,KMPZ
839,19103,Johnson County,IA,52240,KIOW
840,19105,Jones County,IA,52033,KMXO
841,19107,Keokuk County,IA,50268,KOTM
842,19109,Kossuth County,IA,50480,KAXA
843,19111,Lee County,IA,52656,KFSW
844,19113,Linn County,IA,52213,KVTI
845,19115,Louisa County,IA,52659,KMPZ
846,19117,Lucas County,IA,50060,KCNC
847,19119,Lyon County,IA,51201,KSHL
848,19121,Madison County,IA,50222,KDSM
849,19123,Mahaska County,IA,50268,KOTM
850,19125,Marion County,IA,50170,KTNU
851,19127,Marshall County,IA,50206,KIFA
852,19129,Mills County,IA,51551,KRDK
853,19131,Mitchell County,IA,50458,KMCW
854,19133,Monona County,IA,51572,KDNS
855,19135,Monroe County,IA,52553,KOOA
856,19137,Montgomery County,IA,50857,KICL
857,19139,Muscatine County,IA,52720,KMUT
858,19141,O'Brien County,IA,51201,KSHL
859,19143,Osceola County,IA,51201,KSHL
860,19145,Page County,IA,51647,KSDA
861,19147,Palo Alto County,IA,50546,KAXA
862,19149,Plymouth County,IA,51109,KSUX
863,19151,Pocahontas County,IA,50568,KSLB
864,19153,Polk County,IA,50109,KIKV
865,19155,Pottawattamie County,IA,51525,KRDK
866,19157,Poweshiek County,IA,52339,KGGI
867,19159,Ringgold County,IA,50861,KCSQ
868,19161,Sac County,IA,50568,KSLB
869,19163,Scott County,IA,52748,KDVN
870,19165,Shelby County,IA,51578,KDNS
871,19167,Sioux County,IA,51201,KSHL
872,19169,Story County,IA,50201,KAMW
873,19171,Tama County,IA,50638,KMIW
874,19173,Taylor County,IA,50857,KICL
875,19175,Union County,IA,50861,KCSQ
876,19177,Van Buren County,IA,52570,KFFL
877,19179,Wapello County,IA,52553,KOOA
878,19181,Warren County,IA,50125,KDSM
879,19183,Washington County,IA,52247,KIOW
880,19185,Wayne County,IA,50060,KCNC
881,19187,Webster County,IA,50530,KEBS
882,19189,Winnebago County,IA,50465,KFXY
883,19191,Winneshiek County,IA,52132,KDEH
884,19193,Woodbury County,IA,51006,KDNS
885,19195,Worth County,IA,50440,KMCW
886,19197,Wright County,IA,50071,KCAV
887,20001,Allen County,KS,66749,KFOE
888,20003,Anderson County,KS,66014,KIXD
889,20005,Atchison County,KS,66058,KTOP
890,20007,Barber County,KS,67104,KICT
891,20009,Barton County,KS,67665,KRSL
892,20011,Bourbon County,KS,66738,KIXD
893,20013,Brown County,KS,66094,KFNB
894,20015,Butler County,KS,67042,KEQA
895,20017,Chase County,KS,66869,KEMP
896,20019,Chautauqua County,KS,67344,KIDP
897,20021,Cherokee County,KS,67336,KCFV
898,20023,Cheyenne County,KS,67741,KGLD
899,20025,Clark County,KS,67834,KDDC
900,20027,Clay County,KS,67410,KSLN
901,20029,Cloud County,KS,66935,KCNK
902,20031,Coffey County,KS,66783,KFOE
903,20033,Comanche County,KS,67029,KGCK
904,20035,Cowley County,KS,67005,KWLD
905,20037,Crawford County,KS,66712,KJLN
906,20039,Decatur County,KS,67749,KMCK
907,20041,Dickinson County,KS,66441,KMHK
908,20043,Doniphan County,KS,66094,KFNB
909,20045,Douglas County,KS,66049,KLWC
910,20047,Edwards County,KS,67054,KPTT
911,20049,Elk County,KS,67344,KIDP
912,20051,Ellis County,KS,67640,KRSL
913,20053,Ellsworth County,KS,67423,KSLN
914,20055,Finney County,KS,67851,KGCK
915,20057,Ford County,KS,67834,KDDC
916,20059,Franklin County,KS,66033,KOWI
917,20061,Geary County,KS,66441,KMHK
918,20063,Gove County,KS,67748,KGLD
919,20065,Graham County,KS,67625,KHLC
920,20067,Grant County,KS,67855,KEHA
921,20069,Gray County,KS,67844,KDDC
922,20071,Greeley County,KS,67879,KLAA
923,20073,Greenwood County,KS,66870,KEMP
924,20075,Hamilton County,KS,67857,KGCK
925,20077,Harper County,KS,67009,KICT
926,20079,Harvey County,KS,67117,KEWK
927,20081,Haskell County,KS,67880,KLBL
928,20083,Hodgeman County,KS,67854,KDDC
929,20085,Jackson County,KS,66058,KTOP
930,20087,Jefferson County,KS,66086,KLWC
931,20089,Jewell County,KS,66939,KCNK
932,20091,Johnson County,KS,66083,KIXD
933,20093,Kearny County,KS,67838,KGCK
934,20095,Kingman County,KS,67025,KICT
935,20097,Kiowa County,KS,67054,KPTT
936,20099,Labette County,KS,67336,KCFV
937,20101,Lane County,KS,67839,KGCK
938,20103,Leavenworth County,KS,66086,KLWC
939,20105,Lincoln County,KS,67455,KSLN
940,20107,Linn County,KS,66014,KIXD
941,20109,Logan County,KS,67748,KGLD
942,20111,Lyon County,KS,66868,KEMP
943,20113,McPherson County,KS,67448,KSLN
944,20115,Marion County,KS,66869,KEMP
945,20117,Marshall County,KS,66406,KMYZ
946,20119,Meade County,KS,67869,KLBL
947,20121,Miami County,KS,66083,KIXD
948,20123,Mitchell County,KS,67485,KRSL
949,20125,Montgomery County,KS,67344,KIDP
950,20127,Morris County,KS,66873,KEMP
951,20129,Morton County,KS,67954,KEHA
952,20131,Nemaha County,KS,66521,KMYZ
953,20133,Neosho County,KS,67341,KPPF
954,20135,Ness County,KS,67518,KGCK
955,20137,Norton County,KS,67629,KHLC
956,20139,Osage County,KS,66414,KFOE
957,20141,Osborne County,KS,67473,KRSL
958,20143,Ottawa County,KS,66901,KCNK
959,20145,Pawnee County,KS,67575,KGBD
960,20147,Phillips County,KS,67644,KHLC
961,20149,Pottawatomie County,KS,66547,KMHK
962,20151,Pratt County,KS,67035,KPTT
963,20153,Rawlins County,KS,67749,KMCK
964,20155,Reno County,KS,67025,KICT
965,20157,Republic County,KS,66935,KCNK
966,20159,Rice County,KS,67573,KHUT
967,20161,Riley County,KS,66442,KMHK
968,20163,Rooks County,KS,67659,KHLC
969,20165,Rush County,KS,67575,KGBD
970,20167,Russell County,KS,67665,KRSL
971,20169,Saline County,KS,67448,KSLN
972,20171,Scott County,KS,67851,KGCK
973,20173,Sedgwick County,KS,67025,KICT
974,20175,Seward County,KS,67951,KLBL
975,20177,Shawnee County,KS,66414,KFOE
976,20179,Sheridan County,KS,67757,KHLC
977,20181,Sherman County,KS,67732,KGLD
978,20183,Smith County,KS,66967,KHDE
979,20185,Stafford County,KS,67526,KGBD
980,20187,Stanton County,KS,67855,KEHA
981,20189,Stevens County,KS,67951,KLBL
982,20191,Sumner County,KS,67026,KICT
983,20193,Thomas County,KS,67748,KGLD
984,20195,Trego County,KS,67656,KHLC
985,20197,Wabaunsee County,KS,66431,KFOE
986,20199,Wallace County,KS,67861,KGCK
987,20201,Washington County,KS,66943,KMYZ
988,20203,Wichita County,KS,67861,KGCK
989,20205,Wilson County,KS,66736,KCNU
990,20207,Woodson County,KS,66749,KFOE
991,20209,Wyandotte County,KS,66115,KMKC
992,21001,Adair County,KY,42129,KGLW
993,21003,Allen County,KY,42133,KGLW
994,21005,Anderson County,KY,40046,KFFT
995,21007,Ballard County,KY,42024,KPAH
996,21009,Barren County,KY,42133,KGLW
997,21011,Bath County,KY,40358,KSYM
998,21013,Bell County,KY,40958,KTRI
999,21015,Boone County,KY,41048,KCVG
1000,21017,Bourbon County,KY,40311,KLEX
1001,21019,Boyd County,KY,41102,KHTS
1002,21021,Boyle County,KY,40468,KDVK
1003,21023,Bracken County,KY,41043,KCVG
1004,21025,Breathitt County,KY,41339,KJKL
1005,21027,Breckinridge County,KY,40146,KFTK
1006,21029,Bullitt County,KY,40229,KSDF
1007,21031,Butler County,KY,42101,KBWG
1008,21033,Caldwell County,KY,42211,KHOP
1009,21035,Calloway County,KY,42048,KPAH
1010,21037,Campbell County,KY,41074,KLUK
1011,21039,Carlisle County,KY,42039,KPAH
1012,21041,Carroll County,KY,40075,KFFT
1013,21043,Carter County,KY,41121,KHTS
1014,21045,Casey County,KY,40437,KDVK
1015,21047,Christian County,KY,42215,KHOP
1016,21049,Clark County,KY,40353,KIOB
1017,21051,Clay County,KY,40914,KTRI
1018,21053,Clinton County,KY,42602,KSME
1019,21055,Crittenden County,KY,42038,KHOP
1020,21057,Cumberland County,KY,42129,KGLW
1021,21059,Daviess County,KY,42348,KOWB
1022,21061,Edmonson County,KY,42101,KBWG
1023,21063,Elliott County,KY,41171,KSYM
1024,21065,Estill County,KY,40312,KIOB
1025,21067,Fayette County,KY,40503,KLEX
1026,21069,Fleming County,KY,41056,KFGX
1027,21071,Floyd County,KY,41642,KPBX
1028,21073,Franklin County,KY,40621,KLEX
1029,21075,Fulton County,KY,42041,KPAH
1030,21077,Gallatin County,KY,41045,KCVG
1031,21079,Garrard County,KY,40403,KDVK
1032,21081,Grant County,KY,41097,KCVG
1033,21083,Graves County,KY,42054,KPAH
1034,21085,Grayson County,KY,42726,KGLW
1035,21087,Green County,KY,42716,KFTK
1036,21089,Greenup County,KY,41102,KHTS
1037,21091,Hancock County,KY,42348,KOWB
1038,21093,Hardin County,KY,40051,KFTK
1039,21095,Harlan County,KY,40927,KTRI
1040,21097,Harrison County,KY,40311,KLEX
1041,21099,Hart County,KY,42729,KGLW
1042,21101,Henderson County,KY,42419,KEHR
1043,21103,Henry County,KY,40019,KFFT
1044,21105,Hickman County,KY,42041,KPAH
1045,21107,Hopkins County,KY,42445,KHOP
1046,21109,Jackson County,KY,40481,KLOZ
1047,21111,Jefferson County,KY,40269,KSDF
1048,21113,Jessamine County,KY,40383,KLEX
1049,21115,Johnson County,KY,41255,KHTS
1050,21117,Kenton County,KY,41017,KCVG
1051,21119,Knott County,KY,41339,KJKL
1052,21121,Knox County,KY,40903,KTYS
1053,21123,Larue County,KY,40051,KFTK
1054,21125,Laurel County,KY,40740,KLOZ
1055,21127,Lawrence County,KY,41124,KSJS
1056,21129,Lee County,KY,41339,KJKL
1057,21131,Leslie County,KY,40858,KTRI
1058,21133,Letcher County,KY,41833,KLNP
1059,21135,Lewis County,KY,41056,KFGX
1060,21137,Lincoln County,KY,40437,KDVK
1061,21139,Livingston County,KY,42081,KPAH
1062,21141,Logan County,KY,42265,KBWG
1063,21143,Lyon County,KY,42038,KHOP
1064,21145,McCracken County,KY,42001,KPAH
1065,21147,McCreary County,KY,40769,KBYL
1066,21149,McLean County,KY,42352,KOWB
1067,21151,Madison County,KY,40403,KDVK
1068,21153,Magoffin County,KY,41464,KJKL
1069,21155,Marion County,KY,40037,KFTK
1070,21157,Marshall County,KY,42048,KPAH
1071,21159,Martin County,KY,41267,KSJS
1072,21161,Mason County,KY,41044,KFGX
1073,21163,Meade County,KY,40146,KFTK
1074,21165,Menifee County,KY,40346,KIOB
1075,21167,Mercer County,KY,40468,KDVK
1076,21169,Metcalfe County,KY,42166,KGLW
1077,21171,Monroe County,KY,42140,KGLW
1078,21173,Montgomery County,KY,40353,KIOB
1079,21175,Morgan County,KY,41421,KSYM
1080,21177,Muhlenberg County,KY,42367,KOWB
1081,21179,Nelson County,KY,40051,KFTK
1082,21181,Nicholas County,KY,40311,KLEX
1083,21183,Ohio County,KY,42354,KOWB
1084,21185,Oldham County,KY,40241,KLOU
1085,21187,Owen County,KY,41046,KCVG
1086,21189,Owsley County,KY,41311,KJKL
1087,21191,Pendleton County,KY,41097,KCVG
1088,21193,Perry County,KY,41339,KJKL
1089,21195,Pike County,KY,41519,KPBX
1090,21197,Powell County,KY,40376,KIOB
1091,21199,Pulaski County,KY,40409,KDVK
1092,21201,Robertson County,KY,41031,KLEX
1093,21203,Rockcastle County,KY,40403,KDVK
1094,21205,Rowan County,KY,40317,KSYM
1095,21207,Russell County,KY,42642,KSME
1096,21209,Scott County,KY,40370,KFFT
1097,21211,Shelby County,KY,40019,KFFT
1098,21213,Simpson County,KY,42104,KBWG
1099,21215,Spencer County,KY,40046,KFFT
1100,21217,Taylor County,KY,42716,KFTK
1101,21219,Todd County,KY,42265,KBWG
1102,21221,Trigg County,KY,42038,KHOP
1103,21223,Trimble County,KY,40006,KLOU
1104,21225,Union County,KY,42459,KEHR
1105,21227,Warren County,KY,42101,KBWG
1106,21229,Washington County,KY,40468,KDVK
1107,21231,Wayne County,KY,42642,KSME
1108,21233,Webster County,KY,42437,KEHR
1109,21235,Whitley County,KY,40769,KBYL
1110,21237,Wolfe County,KY,41311,KJKL
1111,21239,Woodford County,KY,40383,KLEX
1112,22001,Acadia Parish,LA,70543,KLFT
1113,22003,Allen Parish,LA,70640,KLCH
1114,22005,Ascension Parish,LA,70346,KBTR
1115,22007,Assumption Parish,LA,70346,KBTR
1116,22009,Avoyelles Parish,LA,71362,KESF
1117,22011,Beauregard Parish,LA,70653,KDRI
1118,22013,Bienville Parish,LA,71070,KIER
1119,22015,Bossier Parish,LA,71006,KDTN
1120,22017,Caddo Parish,LA,71103,KDTN
1121,22019,Calcasieu Parish,LA,70605,KLCH
1122,22021,Caldwell Parish,LA,71465,KESF
1123,22023,Cameron Parish,LA,70630,KLCH
1124,22025,Catahoula Parish,LA,71340,KMLU
1125,22027,Claiborne Parish,LA,71256,KELD
1126,22029,Concordia Parish,LA,71373,KAEX
1127,22031,De Soto Parish,LA,71063,KIER
1128,22033,East Baton Rouge Parish,LA,70805,KBTR
1129,22035,East Carroll Parish,LA,71254,KTVR
1130,22037,East Feliciana Parish,LA,70748,KHZR
1131,22039,Evangeline Parish,LA,70580,KACP
1132,22041,Franklin Parish,LA,71269,KMLU
1133,22043,Grant Parish,LA,71360,KESF
1134,22045,Iberia Parish,LA,70560,KARA
1135,22047,Iberville Parish,LA,70346,KBTR
1136,22049,Jackson Parish,LA,71238,KRSN
1137,22051,Jefferson Parish,LA,70058,KNBG
1138,22053,Jefferson Davis Parish,LA,70591,KLCH
1139,22055,Lafayette Parish,LA,70517,KLFT
1140,22057,Lafourche Parish,LA,70374,KHUM
1141,22059,La Salle Parish,LA,71479,KESF
1142,22061,Lincoln Parish,LA,71275,KRSN
1143,22063,Livingston Parish,LA,70706,KBTR
1144,22065,Madison Parish,LA,71233,KTVR
1145,22067,Morehouse Parish,LA,71280,KMLU
1146,22069,Natchitoches Parish,LA,71070,KIER
1147,22071,Orleans Parish,LA,70121,KMSY
1148,22073,Ouachita Parish,LA,71202,KMLU
1149,22075,Plaquemines Parish,LA,70041,KMSY
1150,22077,Pointe Coupee Parish,LA,70749,KHZR
1151,22079,Rapides Parish,LA,71438,KAEX
1152,22081,Red River Parish,LA,71115,KSHV
1153,22083,Richland Parish,LA,71269,KMLU
1154,22085,Sabine Parish,LA,71429,KIER
1155,22087,St. Bernard Parish,LA,70092,KNBG
1156,22089,St. Charles Parish,LA,70087,KMSY
1157,22091,St. Helena Parish,LA,70706,KBTR
1158,22093,St. James Parish,LA,70346,KBTR
1159,22095,St. John the Baptist Parish,LA,70084,KMSY
1160,22097,St. Landry Parish,LA,71362,KESF
1161,22099,St. Martin Parish,LA,70517,KLFT
1162,22101,St. Mary Parish,LA,70540,KPTN
1163,22103,St. Tammany Parish,LA,70420,KASD
1164,22105,Tangipahoa Parish,LA,70454,KHDC
1165,22107,Tensas Parish,LA,71334,KAEX
1166,22109,Terrebonne Parish,LA,70360,KHUM
1167,22111,Union Parish,LA,71280,KMLU
1168,22113,Vermilion Parish,LA,70560,KARA
1169,22115,Vernon Parish,LA,71429,KIER
1170,22117,Washington Parish,LA,70444,KMCB
1171,22119,Webster Parish,LA,71075,KMNE
1172,22121,West Baton Rouge Parish,LA,70773,KHZR
1173,22123,West Carroll Parish,LA,71263,KBQP
1174,22125,West Feliciana Parish,LA,70748,KHZR
1175,22127,Winn Parish,LA,71070,KIER
1176,23001,Androscoggin County,ME,4212,KAUG
1177,23003,Aroostook County,ME,4487,KHUL
1178,23005,Cumberland County,ME,4062,KPWM
1179,23007,Franklin County,ME,4984,KAUG
1180,23009,Hancock County,ME,4616,KBHB
1181,23011,Kennebec County,ME,4345,KAUG
1182,23013,Knox County,ME,4856,KRKD
1183,23015,Lincoln County,ME,4539,KRKD
1184,23017,Oxford County,ME,4220,KAUG
1185,23019,Penobscot County,ME,4487,KHUL
1186,23021,Piscataquis County,ME,4426,KBGR
1187,23023,Sagadahoc County,ME,4345,KAUG
1188,23025,Somerset County,ME,4942,KBGR
1189,23027,Waldo County,ME,4438,KBGR
1190,23029,Washington County,ME,4619,CYFC
1191,23031,York County,ME,3901,KPSM
1192,24001,Allegany County,MD,21529,KCBE
1193,24003,Anne Arundel County,MD,20779,KADW
1194,24005,Baltimore County,MD,21043,KBWI
1195,24009,Calvert County,MD,20678,KDCA
1196,24011,Caroline County,MD,21636,KDOV
1197,24013,Carroll County,MD,21757,KFDK
1198,24015,Cecil County,MD,21914,KILG
1199,24017,Charles County,MD,20693,KNYG
1200,24019,Dorchester County,MD,21613,KNHK
1201,24021,Frederick County,MD,20842,KFDK
1202,24023,Garrett County,MD,21531,KMGW
1203,24025,Harford County,MD,21014,KMTN
1204,24027,Howard County,MD,21043,KBWI
1205,24029,Kent County,MD,21645,KMTN
1206,24031,Montgomery County,MD,20815,KCGS
1207,24033,Prince George's County,MD,20705,KCGS
1208,24035,Queen Anne's County,MD,21619,KBWI
1209,24037,St. Mary's County,MD,20634,KDCA
1210,24039,Somerset County,MD,21817,KWAL
1211,24041,Talbot County,MD,21601,KBWI
1212,24043,Washington County,MD,21783,KHGR
1213,24045,Wicomico County,MD,21802,KSBY
1214,24047,Worcester County,MD,21872,KOXB
1215,24510,Baltimore city,MD,21202,KBWI
1216,25001,Barnstable County,MA,2642,KHYA
1217,25003,Berkshire County,MA,1026,KBDL
1218,25005,Bristol County,MA,2762,KPVD
1219,25007,Dukes County,MA,2535,KMVY
1220,25009,Essex County,MA,1810,KBOS
1221,25011,Franklin County,MA,1376,KORH
1222,25013,Hampden County,MA,1085,KBDL
1223,25015,Hampshire County,MA,1026,KBDL
1224,25017,Middlesex County,MA,1462,KORH
1225,25019,Nantucket County,MA,2584,KACK
1226,25021,Norfolk County,MA,2026,KBOS
1227,25023,Plymouth County,MA,2738,KEWB
1228,25025,Suffolk County,MA,2026,KBOS
1229,25027,Worcester County,MA,1436,KORH
1230,26001,Alcona County,MI,48728,KAPN
1231,26003,Alger County,MI,49891,KSAW
1232,26005,Allegan County,MI,49080,KAZO
1233,26007,Alpena County,MI,49744,KAPN
1234,26009,Antrim County,MI,49729,KCVX
1235,26011,Arenac County,MI,48650,KIKW
1236,26013,Baraga County,MI,49946,KCMX
1237,26015,Barry County,MI,48849,KGRR
1238,26017,Bay County,MI,48642,KIKW
1239,26019,Benzie County,MI,49617,KTVC
1240,26021,Berrien County,MI,49120,KSBN
1241,26023,Branch County,MI,49040,KIRS
1242,26025,Calhoun County,MI,49224,KRMY
1243,26027,Cass County,MI,49031,KEKM
1244,26029,Charlevoix County,MI,49729,KCVX
1245,26031,Cheboygan County,MI,49769,KPLN
1246,26033,Chippewa County,MI,49783,CYAM
1247,26035,Clare County,MI,48632,KMOP
1248,26037,Clinton County,MI,48840,KLAN
1249,26039,Crawford County,MI,48653,KHTL
1250,26041,Delta County,MI,49837,KESC
1251,26043,Dickinson County,MI,49801,KIMT
1252,26045,Eaton County,MI,48849,KGRR
1253,26047,Emmet County,MI,49769,KPLN
1254,26049,Genesee County,MI,48462,KPTK
1255,26051,Gladwin County,MI,48624,KHTL
1256,26053,Gogebic County,MI,49938,KIWD
1257,26055,Grand Traverse County,MI,49686,KTVC
1258,26057,Gratiot County,MI,48811,KAMN
1259,26059,Hillsdale County,MI,49262,KJYM
1260,26061,Houghton County,MI,49931,KCMX
1261,26063,Huron County,MI,48413,KBAX
1262,26065,Ingham County,MI,49285,KTEW
1263,26067,Ionia County,MI,48849,KGRR
1264,26069,Iosco County,MI,48750,KOSC
1265,26071,Iron County,MI,49967,KLNL
1266,26073,Isabella County,MI,48632,KMOP
1267,26075,Jackson County,MI,49224,KRMY
1268,26077,Kalamazoo County,MI,49004,KAZO
1269,26079,Kalkaska County,MI,49690,KTVC
1270,26081,Kent County,MI,49323,KGRR
1271,26083,Keweenaw County,MI,49901,KCMX
1272,26085,Lake County,MI,49677,KRQB
1273,26087,Lapeer County,MI,48014,CYZR
1274,26089,Leelanau County,MI,49650,KTVC
1275,26091,Lenawee County,MI,49267,KDUH
1276,26093,Livingston County,MI,48137,KOZW
1277,26095,Luce County,MI,49853,KERY
1278,26097,Mackinac County,MI,49762,KERY
1279,26099,Macomb County,MI,48021,KDET
1280,26101,Manistee County,MI,49638,KCAD
1281,26103,Marquette County,MI,49814,KSAW
1282,26105,Mason County,MI,49449,KLDM
1283,26107,Mecosta County,MI,49310,KMOP
1284,26109,Menominee County,MI,49847,KIMT
1285,26111,Midland County,MI,48642,KIKW
1286,26113,Missaukee County,MI,49651,KCAD
1287,26115,Monroe County,MI,49267,KDUH
1288,26117,Montcalm County,MI,48888,KAMN
1289,26119,Montmorency County,MI,49709,KGLR
1290,26121,Muskegon County,MI,49437,KMKG
1291,26123,Newaygo County,MI,49329,KRQB
1292,26125,Oakland County,MI,48178,KYIP
1293,26127,Oceana County,MI,49437,KMKG
1294,26129,Ogemaw County,MI,48624,KHTL
1295,26131,Ontonagon County,MI,49948,KCMX
1296,26133,Osceola County,MI,48632,KMOP
1297,26135,Oscoda County,MI,48728,KAPN
1298,26137,Otsego County,MI,49797,KMCD
1299,26139,Ottawa County,MI,49323,KGRR
1300,26141,Presque Isle County,MI,49759,KSLH
1301,26143,Roscommon County,MI,48629,KHTL
1302,26145,Saginaw County,MI,48420,KFNT
1303,26147,St. Clair County,MI,48022,KPHN
1304,26149,St. Joseph County,MI,49040,KIRS
1305,26151,Sanilac County,MI,48427,KBAX
1306,26153,Schoolcraft County,MI,49817,KISQ
1307,26155,Shiawassee County,MI,48476,KRNP
1308,26157,Tuscola County,MI,48420,KFNT
1309,26159,Van Buren County,MI,49043,KLWA
1310,26161,Washtenaw County,MI,48137,KOZW
1311,26163,Wayne County,MI,48124,KDTW
1312,26165,Wexford County,MI,49618,KCAD
1313,27001,Aitkin County,MN,55798,KCOQ
1314,27003,Anoka County,MN,55014,KANE
1315,27005,Becker County,MN,56570,KPKD
1316,27007,Beltrami County,MN,56678,KBJI
1317,27009,Benton County,MN,56379,KSTC
1318,27011,Big Stone County,MN,56219,KABR
1319,27013,Blue Earth County,MN,56090,KJYG
1320,27015,Brown County,MN,55333,KRWF
1321,27017,Carlton County,MN,55798,KCOQ
1322,27019,Carver County,MN,55331,KFCM
1323,27021,Cass County,MN,56636,KGPZ
1324,27023,Chippewa County,MN,56295,KMVE
1325,27025,Chisago County,MN,55069,KROS
1326,27027,Clay County,MN,56584,KFSE
1327,27029,Clearwater County,MN,56678,KBJI
1328,27031,Cook County,MN,55612,CYQT
1329,27033,Cottonwood County,MN,56180,KMML
1330,27035,Crow Wing County,MN,56364,KLXL
1331,27037,Dakota County,MN,55306,KLVN
1332,27039,Dodge County,MN,55944,KTOB
1333,27041,Douglas County,MN,56343,KAXN
1334,27043,Faribault County,MN,56098,KFRM
1335,27045,Fillmore County,MN,55975,KFKA
1336,27047,Freeborn County,MN,56016,KAEL
1337,27049,Goodhue County,MN,55992,KSYN
1338,27051,Grant County,MN,56531,KFAR
1339,27053,Hennepin County,MN,55107,KSTP
1340,27055,Houston County,MN,55931,KDEH
1341,27057,Hubbard County,MN,56678,KBJI
1342,27059,Isanti County,MN,56353,KPNM
1343,27061,Itasca County,MN,55771,KORB
1344,27063,Jackson County,MN,56159,KMWM
1345,27065,Kanabec County,MN,56353,KPNM
1346,27067,Kandiyohi County,MN,56312,KPEX
1347,27069,Kittson County,MN,56755,KHCO
1348,27071,Koochiching County,MN,55771,KORB
1349,27073,Lac qui Parle County,MN,56223,KGDB
1350,27075,Lake County,MN,55614,KDLH
1351,27077,Lake of the Woods County,MN,56711,KRRT
1352,27079,Le Sueur County,MN,56096,KACQ
1353,27081,Lincoln County,MN,56264,KMML
1354,27083,Lyon County,MN,56264,KMML
1355,27085,McLeod County,MN,55312,KHCD
1356,27087,Mahnomen County,MN,56651,KFSE
1357,27089,Marshall County,MN,56727,KTVF
1358,27091,Martin County,MN,56098,KFRM
1359,27093,Meeker County,MN,55353,KMGG
1360,27095,Mille Lacs County,MN,56353,KPNM
1361,27097,Morrison County,MN,56353,KPNM
1362,27099,Mower County,MN,55926,KAUM
1363,27101,Murray County,MN,56180,KMML
1364,27103,Nicollet County,MN,56054,KULM
1365,27105,Nobles County,MN,56158,KLYV
1366,27107,Norman County,MN,56584,KFSE
1367,27109,Olmsted County,MN,55906,KRST
1368,27111,Otter Tail County,MN,56527,KADC
1369,27113,Pennington County,MN,56748,KTVF
1370,27115,Pine County,MN,55063,KROS
1371,27117,Pipestone County,MN,56170,KPQN
1372,27119,Polk County,MN,56721,KGFK
1373,27121,Pope County,MN,56226,KBBB
1374,27123,Ramsey County,MN,55106,KSTP
1375,27125,Red Lake County,MN,56742,KTVF
1376,27127,Redwood County,MN,56180,KMML
1377,27129,Renville County,MN,55310,KOVL
1378,27131,Rice County,MN,56096,KACQ
1379,27133,Rock County,MN,56158,KLYV
1380,27135,Roseau County,MN,56726,KROX
1381,27137,St. Louis County,MN,55765,KHIB
1382,27139,Scott County,MN,55337,KMSP
1383,27141,Sherburne County,MN,56379,KSTC
1384,27143,Sibley County,MN,55312,KHCD
1385,27145,Stearns County,MN,55353,KMGG
1386,27147,Steele County,MN,55060,KOWA
1387,27149,Stevens County,MN,56323,KMOX
1388,27151,Swift County,MN,56226,KBBB
1389,27153,Todd County,MN,56481,KSAZ
1390,27155,Traverse County,MN,56219,KABR
1391,27157,Wabasha County,MN,55906,KRST
1392,27159,Wadena County,MN,56481,KSAZ
1393,27161,Waseca County,MN,56096,KACQ
1394,27163,Washington County,MN,55071,KSGS
1395,27165,Watonwan County,MN,56159,KMWM
1396,27167,Wilkin County,MN,56565,KFAR
1397,27169,Winona County,MN,55952,KONA
1398,27171,Wright County,MN,55363,KCFE
1399,27173,Yellow Medicine County,MN,56264,KMML
1400,28001,Adams County,MS,39121,KBTR
1401,28003,Alcorn County,MS,38846,KCRX
1402,28005,Amite County,MS,39638,KMCB
1403,28007,Attala County,MS,39051,KMBO
1404,28009,Benton County,MS,38635,KUOX
1405,28011,Bolivar County,MS,38769,KRNV
1406,28013,Calhoun County,MS,38951,KUOX
1407,28015,Carroll County,MS,38954,KGWO
1408,28017,Chickasaw County,MS,38868,KTUP
1409,28019,Choctaw County,MS,39752,KSTF
1410,28021,Claiborne County,MS,39144,KVKS
1411,28023,Clarke County,MS,39363,KMEI
1412,28025,Clay County,MS,39741,KSTF
1413,28027,Coahoma County,MS,38626,KUTA
1414,28029,Copiah County,MS,39191,KMCB
1415,28031,Covington County,MS,39119,KPIB
1416,28033,DeSoto County,MS,38686,KMEM
1417,28035,Forrest County,MS,39403,KHBG
1418,28037,Franklin County,MS,39647,KMCB
1419,28039,George County,MS,39456,KHBG
1420,28041,Greene County,MS,39456,KHBG
1421,28043,Grenada County,MS,38925,KGTR
1422,28045,Hancock County,MS,39556,KGPT
1423,28047,Harrison County,MS,39560,KGPT
1424,28049,Hinds County,MS,39066,KVKS
1425,28051,Holmes County,MS,38954,KGWO
1426,28053,Humphreys County,MS,38753,KGLH
1427,28055,Issaquena County,MS,39159,KTVR
1428,28057,Itawamba County,MS,38849,KTUP
1429,28059,Jackson County,MS,39553,KPQL
1430,28061,Jasper County,MS,39443,KLUL
1431,28063,Jefferson County,MS,39069,KHEZ
1432,28065,Jefferson Davis County,MS,39119,KPIB
1433,28067,Jones County,MS,39443,KLUL
1434,28069,Kemper County,MS,39320,KNMM
1435,28071,Lafayette County,MS,38619,KUOX
1436,28073,Lamar County,MS,39401,KHBG
1437,28075,Lauderdale County,MS,39320,KNMM
1438,28077,Lawrence County,MS,39191,KMCB
1439,28079,Leake County,MS,39051,KMBO
1440,28081,Lee County,MS,38849,KTUP
1441,28083,Leflore County,MS,38954,KGWO
1442,28085,Lincoln County,MS,39647,KMCB
1443,28087,Lowndes County,MS,39705,KCBM
1444,28089,Madison County,MS,39051,KMBO
1445,28091,Marion County,MS,39667,KMCB
1446,28093,Marshall County,MS,38635,KUOX
1447,28095,Monroe County,MS,38848,KTUP
1448,28097,Montgomery County,MS,39747,KGTR
1449,28099,Neshoba County,MS,39051,KMBO
1450,28101,Newton County,MS,39365,KMEI
1451,28103,Noxubee County,MS,39361,KNMM
1452,28105,Oktibbeha County,MS,39752,KSTF
1453,28107,Panola County,MS,38927,KUOX
1454,28109,Pearl River County,MS,39426,KBXA
1455,28111,Perry County,MS,39456,KHBG
1456,28113,Pike County,MS,39652,KMCB
1457,28115,Pontotoc County,MS,38868,KTUP
1458,28117,Prentiss County,MS,38873,KCRX
1459,28119,Quitman County,MS,38646,KCKM
1460,28121,Rankin County,MS,39218,KJAN
1461,28123,Scott County,MS,39365,KMEI
1462,28125,Sharkey County,MS,38721,KGLH
1463,28127,Simpson County,MS,39082,KJAN
1464,28129,Smith County,MS,39116,KLUL
1465,28131,Stone County,MS,39561,KGPT
1466,28133,Sunflower County,MS,38753,KGLH
1467,28135,Tallahatchie County,MS,38927,KUOX
1468,28137,Tate County,MS,38635,KUOX
1469,28139,Tippah County,MS,38674,KCRX
1470,28141,Tishomingo County,MS,38852,KCRX
1471,28143,Tunica County,MS,38626,KUTA
1472,28145,Union County,MS,38849,KTUP
1473,28147,Walthall County,MS,39652,KMCB
1474,28149,Warren County,MS,39181,KJAN
1475,28151,Washington County,MS,38721,KGLH
1476,28153,Wayne County,MS,39443,KLUL
1477,28155,Webster County,MS,39752,KSTF
1478,28157,Wilkinson County,MS,39638,KMCB
1479,28159,Winston County,MS,39350,KNMM
1480,28161,Yalobusha County,MS,38927,KUOX
1481,28163,Yazoo County,MS,39162,KHKS
1482,29001,Adair County,MO,63501,KIRK
1483,29003,Andrew County,MO,64455,KSTJ
1484,29005,Atchison County,MO,64491,KSDA
1485,29007,Audrain County,MO,65231,KCOU
1486,29009,Barry County,MO,65656,KBBG
1487,29011,Barton County,MO,64855,KJLN
1488,29013,Bates County,MO,64780,KDMO
1489,29015,Benton County,MO,65338,KDMO
1490,29017,Bollinger County,MO,63787,KPOF
1491,29019,Boone County,MO,65202,KCOU
1492,29021,Buchanan County,MO,64439,KMCI
1493,29023,Butler County,MO,63962,KPOF
1494,29025,Caldwell County,MO,64465,KGPH
1495,29027,Callaway County,MO,65202,KCOU
1496,29029,Camden County,MO,65536,KAIZ
1497,29031,Cape Girardeau County,MO,63732,KMDH
1498,29033,Carroll County,MO,64643,KIRK
1499,29035,Carter County,MO,63965,KPOF
1500,29037,Cass County,MO,64078,KOJC
1501,29039,Cedar County,MO,65601,KSGF
1502,29041,Chariton County,MO,64676,KIRK
1503,29043,Christian County,MO,65714,KSGF
1504,29045,Clark County,MO,63445,KEOK
1505,29047,Clay County,MO,64116,KMKC
1506,29049,Clinton County,MO,64465,KGPH
1507,29051,Cole County,MO,65105,KCOU
1508,29053,Cooper County,MO,65233,KVER
1509,29055,Crawford County,MO,65559,KVIH
1510,29057,Dade County,MO,65601,KSGF
1511,29059,Dallas County,MO,65536,KAIZ
1512,29061,Daviess County,MO,64689,KMCI
1513,29063,DeKalb County,MO,64422,KSTJ
1514,29065,Dent County,MO,63638,KFAM
1515,29067,Douglas County,MO,65720,KSGF
1516,29069,Dunklin County,MO,63857,KTKX
1517,29071,Franklin County,MO,63055,KFYG
1518,29073,Gasconade County,MO,65559,KVIH
1519,29075,Gentry County,MO,64441,KLWD
1520,29077,Greene County,MO,65890,KSGF
1521,29079,Grundy County,MO,64641,KIRK
1522,29081,Harrison County,MO,64458,KLWD
1523,29083,Henry County,MO,64740,KGLY
1524,29085,Hickory County,MO,65668,KAIZ
1525,29087,Holt County,MO,64466,KFNB
1526,29089,Howard County,MO,65279,KCOU
1527,29091,Howell County,MO,65793,KUNO
1528,29093,Iron County,MO,63624,KFAM
1529,29095,Jackson County,MO,64137,KLXT
1530,29097,Jasper County,MO,64855,KJLN
1531,29099,Jefferson County,MO,63051,KSUS
1532,29101,Johnson County,MO,64076,KMCI
1533,29103,Knox County,MO,63530,KIRK
1534,29105,Laclede County,MO,65536,KAIZ
1535,29107,Lafayette County,MO,64076,KMCI
1536,29109,Lawrence County,MO,64873,KHFJ
1537,29111,Lewis County,MO,63447,KIRK
1538,29113,Lincoln County,MO,63381,KFYG
1539,29115,Linn County,MO,64653,KIRK
1540,29117,Livingston County,MO,64643,KIRK
1541,29119,McDonald County,MO,64850,KHFJ
1542,29121,Macon County,MO,63552,KIRK
1543,29123,Madison County,MO,63620,KFAM
1544,29125,Maries County,MO,65559,KVIH
1545,29127,Marion County,MO,63456,KHAE
1546,29129,Mercer County,MO,64673,KLWD
1547,29131,Miller County,MO,65452,KAIZ
1548,29133,Mississippi County,MO,63845,KCGI
1549,29135,Moniteau County,MO,65011,KAIZ
1550,29137,Monroe County,MO,65260,KIRK
1551,29139,Montgomery County,MO,63381,KFYG
1552,29141,Morgan County,MO,65011,KAIZ
1553,29143,New Madrid County,MO,63867,KCGI
1554,29145,Newton County,MO,64850,KHFJ
1555,29147,Nodaway County,MO,64461,KSDA
1556,29149,Oregon County,MO,65606,KUNO
1557,29151,Osage County,MO,65035,KVIH
1558,29153,Ozark County,MO,65626,KUNO
1559,29155,Pemiscot County,MO,63857,KTKX
1560,29157,Perry County,MO,63746,KMDH
1561,29159,Pettis County,MO,65340,KDMO
1562,29161,Phelps County,MO,65559,KVIH
1563,29163,Pike County,MO,63339,KHAE
1564,29165,Platte County,MO,64439,KMCI
1565,29167,Polk County,MO,65622,KSGF
1566,29169,Pulaski County,MO,65473,KVIH
1567,29171,Putnam County,MO,63560,KIRK
1568,29173,Ralls County,MO,63456,KHAE
1569,29175,Randolph County,MO,65260,KIRK
1570,29177,Ray County,MO,64671,KGPH
1571,29179,Reynolds County,MO,63638,KFAM
1572,29181,Ripley County,MO,63955,KPOF
1573,29183,St. Charles County,MO,63385,KSUS
1574,29185,St. Clair County,MO,64780,KDMO
1575,29186,Ste. Genevieve County,MO,63627,KFAM
1576,29187,St. Francois County,MO,63624,KFAM
1577,29189,St. Louis County,MO,63074,KSTL
1578,29195,Saline County,MO,65340,KDMO
1579,29197,Schuyler County,MO,63535,KIRK
1580,29199,Scotland County,MO,63543,KEOK
1581,29201,Scott County,MO,63735,KCGI
1582,29203,Shannon County,MO,65438,KUNO
1583,29205,Shelby County,MO,63450,KIRK
1584,29207,Stoddard County,MO,63735,KCGI
1585,29209,Stone County,MO,65714,KSGF
1586,29211,Sullivan County,MO,64641,KIRK
1587,29213,Taney County,MO,65615,KBBG
1588,29215,Texas County,MO,65793,KUNO
1589,29217,Vernon County,MO,64767,KJLN
1590,29219,Warren County,MO,63381,KFYG
1591,29221,Washington County,MO,63624,KFAM
1592,29223,Wayne County,MO,63638,KFAM
1593,29225,Webster County,MO,65706,KSGF
1594,29227,Worth County,MO,64486,KLWD
1595,29229,Wright County,MO,65470,KAIZ
1596,29510,St. Louis city,MO,63105,KSTL
1597,30001,Beaverhead County,MT,59739,KWYS
1598,30003,Big Horn County,MT,59101,KBIL
1599,30005,Blaine County,MT,59526,KGGW
1600,30007,Broadwater County,MT,59635,KHLN
1601,30009,Carbon County,MT,59008,KCOD
1602,30011,Carter County,MT,59311,KGCC
1603,30013,Cascade County,MT,59405,KGFA
1604,30015,Chouteau County,MT,59460,KGTF
1605,30017,Custer County,MT,59301,KMLS
1606,30019,Daniels County,MT,59253,KOLF
1607,30021,Dawson County,MT,59339,KSDY
1608,30023,Deer Lodge County,MT,59701,KBTM
1609,30025,Fallon County,MT,59344,KBHK
1610,30027,Fergus County,MT,59462,KGTF
1611,30029,Flathead County,MT,59917,KJDN
1612,30031,Gallatin County,MT,59086,KLVM
1613,30033,Garfield County,MT,59337,KJDN
1614,30035,Glacier County,MT,59417,KGPI
1615,30037,Golden Valley County,MT,59072,KRPX
1616,30039,Granite County,MT,59858,KMSO
1617,30041,Hill County,MT,59520,KGTF
1618,30043,Jefferson County,MT,59635,KHLN
1619,30045,Judith Basin County,MT,59462,KGTF
1620,30047,Lake County,MT,59931,KGPI
1621,30049,Lewis and Clark County,MT,59635,KHLN
1622,30051,Liberty County,MT,59545,KHLN
1623,30053,Lincoln County,MT,59917,KHLN
1624,30055,McCone County,MT,59315,KGDV
1625,30057,Madison County,MT,59721,KBZN
1626,30059,Meagher County,MT,59086,KLVM
1627,30061,Mineral County,MT,59830,KMSO
1628,30063,Missoula County,MT,59801,KMSO
1629,30065,Musselshell County,MT,59072,KRPX
1630,30067,Park County,MT,59047,KLVM
1631,30069,Petroleum County,MT,59084,KBIL
1632,30071,Phillips County,MT,59538,KGGW
1633,30073,Pondera County,MT,59425,KGTF
1634,30075,Powder River County,MT,59314,KGCC
1635,30077,Powell County,MT,59854,KMSO
1636,30079,Prairie County,MT,59339,KSDY
1637,30081,Ravalli County,MT,59840,KMSO
1638,30083,Richland County,MT,59221,KSDY
1639,30085,Roosevelt County,MT,59212,KSDY
1640,30087,Rosebud County,MT,59323,KMLS
1641,30089,Sanders County,MT,59821,KMSO
1642,30091,Sheridan County,MT,59252,KOLF
1643,30093,Silver Bow County,MT,59701,KBTM
1644,30095,Stillwater County,MT,59011,KLVM
1645,30097,Sweet Grass County,MT,59011,KLVM
1646,30099,Teton County,MT,59422,KGTF
1647,30101,Toole County,MT,59466,KGTF
1648,30103,Treasure County,MT,59038,KRPX
1649,30105,Valley County,MT,59248,KGGW
1650,30107,Wheatland County,MT,59078,KRPX
1651,30109,Wibaux County,MT,59353,KSDY
1652,30111,Yellowstone County,MT,59101,KBIL
1653,31001,Adams County,NE,68955,KHSI
1654,31003,Antelope County,NE,68781,KOFK
1655,31005,Arthur County,NE,69121,KOGA
1656,31007,Banner County,NE,69156,KIBM
1657,31009,Blaine County,NE,68833,KTIF
1658,31011,Boone County,NE,68781,KOFK
1659,31013,Box Butte County,NE,69301,KAIA
1660,31015,Boyd County,NE,68746,KONL
1661,31017,Brown County,NE,68714,KANW
1662,31019,Buffalo County,NE,68847,KEAR
1663,31021,Burt County,NE,68029,KTQE
1664,31023,Butler County,NE,68036,KOLU
1665,31025,Cass County,NE,68349,KPMV
1666,31027,Cedar County,NE,68745,KLCG
1667,31029,Chase County,NE,69027,KIML
1668,31031,Cherry County,NE,69343,KIEN
1669,31033,Cheyenne County,NE,69156,KIBM
1670,31035,Clay County,NE,68436,KHJH
1671,31037,Colfax County,NE,68601,KOLU
1672,31039,Cuming County,NE,68047,KLCG
1673,31041,Custer County,NE,68825,KBBW
1674,31043,Dakota County,NE,68030,KSUX
1675,31045,Dawes County,NE,69348,KAIA
1676,31047,Dawson County,NE,69029,KLXN
1677,31049,Deuel County,NE,69129,KSNY
1678,31051,Dixon County,NE,68745,KLCG
1679,31053,Dodge County,NE,68063,KTQE
1680,31055,Douglas County,NE,68118,KMLE
1681,31057,Dundy County,NE,69037,KIML
1682,31059,Fillmore County,NE,68436,KHJH
1683,31061,Franklin County,NE,68972,KHDE
1684,31063,Frontier County,NE,69029,KLXN
1685,31065,Furnas County,NE,68922,KHDE
1686,31067,Gage County,NE,68309,KBIE
1687,31069,Garden County,NE,69129,KSNY
1688,31071,Garfield County,NE,68725,KONL
1689,31073,Gosper County,NE,68922,KHDE
1690,31075,Grant County,NE,69350,KAIA
1691,31077,Greeley County,NE,68835,KODX
1692,31079,Hall County,NE,68955,KHSI
1693,31081,Hamilton County,NE,68654,KJYR
1694,31083,Harlan County,NE,68977,KHDE
1695,31085,Hayes County,NE,69038,KMCK
1696,31087,Hitchcock County,NE,69038,KMCK
1697,31089,Holt County,NE,68766,KONL
1698,31091,Hooker County,NE,69152,KTIF
1699,31093,Howard County,NE,68873,KGRI
1700,31095,Jefferson County,NE,68352,KHJH
1701,31097,Johnson County,NE,68301,KBIE
1702,31099,Kearney County,NE,68847,KEAR
1703,31101,Keith County,NE,69121,KOGA
1704,31103,Keya Paha County,NE,68753,KANW
1705,31105,Kimball County,NE,69156,KIBM
1706,31107,Knox County,NE,68760,KYKN
1707,31109,Lancaster County,NE,68503,KLNK
1708,31111,Lincoln County,NE,69029,KLXN
1709,31113,Logan County,NE,69120,KBBW
1710,31115,Loup County,NE,68879,KODX
1711,31117,McPherson County,NE,69101,KLBF
1712,31119,Madison County,NE,68702,KOFK
1713,31121,Merrick County,NE,68826,KAUH
1714,31123,Morrill County,NE,69301,KAIA
1715,31125,Nance County,NE,68864,KGRI
1716,31127,Nemaha County,NE,68305,KAFK
1717,31129,Nuckolls County,NE,68957,KHSI
1718,31131,Otoe County,NE,68410,KAFK
1719,31133,Pawnee County,NE,68458,KBIE
1720,31135,Perkins County,NE,69169,KIML
1721,31137,Phelps County,NE,68845,KEAR
1722,31139,Pierce County,NE,68781,KOFK
1723,31141,Platte County,NE,68601,KOLU
1724,31143,Polk County,NE,68601,KOLU
1725,31145,Red Willow County,NE,69024,KMCK
1726,31147,Richardson County,NE,68431,KFNB
1727,31149,Rock County,NE,68759,KANW
1728,31151,Saline County,NE,68464,KBIE
1729,31153,Sarpy County,NE,68059,KMLE
1730,31155,Saunders County,NE,68050,KAHQ
1731,31157,Scotts Bluff County,NE,69358,KTOR
1732,31159,Seward County,NE,68428,KLNK
1733,31161,Sheridan County,NE,69343,KIEN
1734,31163,Sherman County,NE,68844,KEAR
1735,31165,Sioux County,NE,69358,KTOR
1736,31167,Stanton County,NE,68779,KOFK
1737,31169,Thayer County,NE,68943,KHJH
1738,31171,Thomas County,NE,69166,KTIF
1739,31173,Thurston County,NE,68039,KSUX
1740,31175,Valley County,NE,68815,KODX
1741,31177,Washington County,NE,68029,KTQE
1742,31179,Wayne County,NE,68745,KLCG
1743,31181,Webster County,NE,68957,KHSI
1744,31183,Wheeler County,NE,68665,KODX
1745,31185,York County,NE,68654,KJYR
1746,32001,Churchill County,NV,89407,KRNO
1747,32003,Clark County,NV,89014,KLAS
1748,32005,Douglas County,NV,89444,KRNO
1749,32007,Elko County,NV,89821,KEKO
1750,32009,Esmeralda County,NV,89013,KMMH
1751,32011,Eureka County,NV,89821,KEKO
1752,32013,Humboldt County,NV,89426,KWMC
1753,32015,Lander County,NV,89820,KWMC
1754,32017,Lincoln County,NV,89042,KSGU
1755,32019,Lyon County,NV,89444,KRNO
1756,32021,Mineral County,NV,89415,KHTH
1757,32023,Nye County,NV,89041,KVGT
1758,32027,Pershing County,NV,89445,KWMC
1759,32029,Storey County,NV,89434,KRNO
1760,32031,Washoe County,NV,89431,KRNO
1761,32033,White Pine County,NV,89318,KELY
1762,32510,Carson City,NV,89705,KRNO
1763,33001,Belknap County,NH,3253,KLEB
1764,33003,Carroll County,NH,3838,KPWM
1765,33005,Cheshire County,NH,3431,KMHT
1766,33007,Coos County,NH,3593,KPWM
1767,33009,Grafton County,NH,3245,KLEB
1768,33011,Hillsborough County,NH,3033,KMHT
1769,33013,Merrimack County,NH,3303,KMHT
1770,33015,Rockingham County,NH,3044,KPSM
1771,33017,Strafford County,NH,3825,KPSM
1772,33019,Sullivan County,NH,3748,KLEB
1773,34001,Atlantic County,NJ,8225,KACY
1774,34003,Bergen County,NJ,7010,KTEB
1775,34005,Burlington County,NJ,8036,KTTN
1776,34007,Camden County,NJ,8012,KPHL
1777,34009,Cape May County,NJ,8223,KACY
1778,34011,Cumberland County,NJ,8353,KILG
1779,34013,Essex County,NJ,7040,KEWR
1780,34015,Gloucester County,NJ,8012,KPHL
1781,34017,Hudson County,NJ,7303,KEWR
1782,34019,Hunterdon County,NJ,8833,KTTN
1783,34021,Mercer County,NJ,8512,KCGZ
1784,34023,Middlesex County,NJ,8902,KTTN
1785,34025,Monmouth County,NJ,7727,KTTN
1786,34027,Morris County,NJ,7927,KEWR
1787,34029,Ocean County,NJ,8734,KACY
1788,34031,Passaic County,NJ,7013,KTEB
1789,34033,Salem County,NJ,8079,KILG
1790,34035,Somerset County,NJ,7060,KEWR
1791,34037,Sussex County,NJ,7871,KTEB
1792,34039,Union County,NJ,7036,KEWR
1793,34041,Warren County,NJ,7880,KABE
1794,35001,Bernalillo County,NM,87110,KABQ
1795,35003,Catron County,NM,87827,KGNT
1796,35005,Chaves County,NM,88253,KATS
1797,35006,Cibola County,NM,87020,KGNT
1798,35007,Colfax County,NM,87747,KRTN
1799,35009,Curry County,NM,88124,KCVS
1800,35011,De Baca County,NM,88119,KCVS
1801,35013,Dona Ana County,NM,88081,KELP
1802,35015,Eddy County,NM,88210,KATS
1803,35017,Grant County,NM,88043,KSVC
1804,35019,Guadalupe County,NM,88431,KTCC
1805,35021,Harding County,NM,87746,KTCC
1806,35023,Hidalgo County,NM,88056,KDUG
1807,35025,Lea County,NM,88267,KHOB
1808,35027,Lincoln County,NM,88348,KSRR
1809,35028,Los Alamos County,NM,87547,KLAM
1810,35029,Luna County,NM,88030,KDMN
1811,35031,McKinley County,NM,87020,KGNT
1812,35033,Mora County,NM,87713,KAXX
1813,35035,Otero County,NM,88081,KELP
1814,35037,Quay County,NM,88124,KCVS
1815,35039,Rio Arriba County,NM,87528,KDRO
1816,35041,Roosevelt County,NM,88115,KCVS
1817,35043,Sandoval County,NM,87041,KSAF
1818,35045,San Juan County,NM,87402,KFMN
1819,35047,San Miguel County,NM,87565,KLVS
1820,35049,Santa Fe County,NM,87035,KABQ
1821,35051,Sierra County,NM,87901,KTCS
1822,35053,Socorro County,NM,87823,KONM
1823,35055,Taos County,NM,87514,KSKX
1824,35057,Torrance County,NM,87035,KABQ
1825,35059,Union County,NM,88414,KRTN
1826,35061,Valencia County,NM,87031,KABQ
1827,36001,Albany County,NY,12087,KALB
1828,36003,Allegany County,NY,14717,KELZ
1829,36005,Bronx County,NY,10459,KLGA
1830,36007,Broome County,NY,13746,KBGM
1831,36009,Cattaraugus County,NY,14738,KJHW
1832,36011,Cayuga County,NY,13074,KFZY
1833,36013,Chautauqua County,NY,14048,KDKK
1834,36015,Chemung County,NY,14824,KELM
1835,36017,Chenango County,NY,13746,KBGM
1836,36019,Clinton County,NY,12981,KPBG
1837,36021,Columbia County,NY,12037,KPSF
1838,36023,Cortland County,NY,13053,KITH
1839,36025,Delaware County,NY,12455,KMSV
1840,36027,Dutchess County,NY,12533,KPOU
1841,36029,Erie County,NY,14052,KBUF
1842,36031,Essex County,NY,12883,KRUT
1843,36033,Franklin County,NY,12916,KMSS
1844,36035,Fulton County,NY,12095,KALB
1845,36037,Genesee County,NY,14036,KBUF
1846,36039,Greene County,NY,12413,KALB
1847,36041,Hamilton County,NY,13353,KRME
1848,36043,Herkimer County,NY,13329,KRME
1849,36045,Jefferson County,NY,13145,KART
1850,36047,Kings County,NY,11202,KLGA
1851,36049,Lewis County,NY,13473,KRME
1852,36051,Livingston County,NY,14525,KROC
1853,36053,Madison County,NY,13035,KSYR
1854,36055,Monroe County,NY,14464,KROC
1855,36057,Montgomery County,NY,12095,KALB
1856,36059,Nassau County,NY,11001,KJFK
1857,36061,New York County,NY,10025,KNYC
1858,36063,Niagara County,NY,14109,KIAG
1859,36065,Oneida County,NY,13483,KRME
1860,36067,Onondaga County,NY,13035,KSYR
1861,36069,Ontario County,NY,14512,KDSV
1862,36071,Orange County,NY,10924,KMGJ
1863,36073,Orleans County,NY,14464,KROC
1864,36075,Oswego County,NY,13036,KFZY
1865,36077,Otsego County,NY,12155,KRME
1866,36079,Putnam County,NY,12533,KPOU
1867,36081,Queens County,NY,11001,KJFK
1868,36083,Rensselaer County,NY,12169,KPSF
1869,36085,Richmond County,NY,10301,KEWR
1870,36087,Rockland County,NY,10901,KTEB
1871,36089,St. Lawrence County,NY,13676,KMSS
1872,36091,Saratoga County,NY,12828,KGFL
1873,36093,Schenectady County,NY,12305,KALB
1874,36095,Schoharie County,NY,12175,KALB
1875,36097,Schuyler County,NY,14824,KELM
1876,36099,Seneca County,NY,14433,KPEO
1877,36101,Steuben County,NY,14823,KELM
1878,36103,Suffolk County,NY,11729,KFRG
1879,36105,Sullivan County,NY,12566,KMGJ
1880,36107,Tioga County,NY,13850,KBGM
1881,36109,Tompkins County,NY,13053,KITH
1882,36111,Ulster County,NY,12455,KMSV
1883,36113,Warren County,NY,12856,KGFL
1884,36115,Washington County,NY,12828,KGFL
1885,36117,Wayne County,NY,13143,KFZY
1886,36119,Westchester County,NY,10511,KHPN
1887,36121,Wyoming County,NY,14052,KBUF
1888,36123,Yates County,NY,14857,KPEO
1889,37001,Alamance County,NC,27201,KJKL
1890,37003,Alexander County,NC,28636,KSVH
1891,37005,Alleghany County,NC,28644,KGEV
1892,37007,Anson County,NC,28007,KAFP
1893,37009,Ashe County,NC,28644,KGEV
1894,37011,Avery County,NC,28622,KEHO
1895,37013,Beaufort County,NC,27806,KOCW
1896,37015,Bertie County,NC,27957,KEDE
1897,37017,Bladen County,NC,28320,KEYF
1898,37019,Brunswick County,NC,28422,KSUT
1899,37021,Buncombe County,NC,28701,KAVL
1900,37023,Burke County,NC,28602,KHKY
1901,37025,Cabarrus County,NC,28026,KJQF
1902,37027,Caldwell County,NC,28624,KEHO
1903,37029,Camden County,NC,27973,KONX
1904,37031,Carteret County,NC,28511,KMRH
1905,37033,Caswell County,NC,27315,KDAN
1906,37035,Catawba County,NC,28602,KHKY
1907,37037,Chatham County,NC,27349,KSCR
1908,37039,Cherokee County,NC,28901,KRHP
1909,37041,Chowan County,NC,27946,KEDE
1910,37043,Clay County,NC,28734,KAVL
1911,37045,Cleveland County,NC,28073,KEHO
1912,37047,Columbus County,NC,28320,KEYF
1913,37049,Craven County,NC,28530,KISO
1914,37051,Cumberland County,NC,28307,KPOB
1915,37053,Currituck County,NC,27973,KONX
1916,37055,Dare County,NC,27949,KMQI
1917,37057,Davidson County,NC,27360,KEXX
1918,37059,Davie County,NC,27014,KRUQ
1919,37061,Duplin County,NC,28458,KDPL
1920,37063,Durham County,NC,27704,KRDU
1921,37065,Edgecombe County,NC,27809,KRWI
1922,37067,Forsyth County,NC,27009,KINT
1923,37069,Franklin County,NC,27525,KHNZ
1924,37071,Gaston County,NC,28092,KIPJ
1925,37073,Gates County,NC,27938,KSFQ
1926,37075,Graham County,NC,28702,KTYS
1927,37077,Granville County,NC,27525,KHNZ
1928,37079,Greene County,NC,28530,KISO
1929,37081,Guilford County,NC,27407,KGSO
1930,37083,Halifax County,NC,27886,KETC
1931,37085,Harnett County,NC,28326,KPOB
1932,37087,Haywood County,NC,28715,KAVL
1933,37089,Henderson County,NC,28766,KAVL
1934,37091,Hertford County,NC,27897,KASJ
1935,37093,Hoke County,NC,28371,KFAY
1936,37095,Hyde County,NC,27860,KOCW
1937,37097,Iredell County,NC,28677,KSVH
1938,37099,Jackson County,NC,28719,KAVL
1939,37101,Johnston County,NC,27542,KJNX
1940,37103,Jones County,NC,28501,KISO
1941,37105,Lee County,NC,28326,KPOB
1942,37107,Lenoir County,NC,28530,KISO
1943,37109,Lincoln County,NC,28092,KIPJ
1944,37111,McDowell County,NC,28167,KEHO
1945,37113,Macon County,NC,28713,KTYS
1946,37115,Madison County,NC,28701,KAVL
1947,37117,Martin County,NC,27861,KPGV
1948,37119,Mecklenburg County,NC,28031,KJQF
1949,37121,Mitchell County,NC,28714,KAVL
1950,37123,Montgomery County,NC,28338,KHFF
1951,37125,Moore County,NC,28326,KPOB
1952,37127,Nash County,NC,27809,KRWI
1953,37129,New Hanover County,NC,28409,KILM
1954,37131,Northampton County,NC,27831,KIXA
1955,37133,Onslow County,NC,28541,KOAJ
1956,37135,Orange County,NC,27278,KRDU
1957,37137,Pamlico County,NC,28560,KEWN
1958,37139,Pasquotank County,NC,27906,KECG
1959,37141,Pender County,NC,28445,KNCA
1960,37143,Perquimans County,NC,27985,KEDE
1961,37145,Person County,NC,27343,KDAN
1962,37147,Pitt County,NC,27886,KETC
1963,37149,Polk County,NC,28139,KEHO
1964,37151,Randolph County,NC,27360,KEXX
1965,37153,Richmond County,NC,28338,KHFF
1966,37155,Robeson County,NC,28359,KFAY
1967,37157,Rockingham County,NC,27048,KSIF
1968,37159,Rowan County,NC,28147,KRUQ
1969,37161,Rutherford County,NC,28167,KEHO
1970,37163,Sampson County,NC,28334,KHRJ
1971,37165,Scotland County,NC,28352,KMEB
1972,37167,Stanly County,NC,28009,KVUJ
1973,37169,Stokes County,NC,27009,KINT
1974,37171,Surry County,NC,27043,KMWK
1975,37173,Swain County,NC,28713,KTYS
1976,37175,Transylvania County,NC,28708,KAVL
1977,37177,Tyrrell County,NC,27826,KHSE
1978,37179,Union County,NC,28108,KEQY
1979,37181,Vance County,NC,27537,KHNZ
1980,37183,Wake County,NC,27512,KRDU
1981,37185,Warren County,NC,27537,KHNZ
1982,37187,Washington County,NC,27860,KOCW
1983,37189,Watauga County,NC,28622,KJNX
1984,37191,Wayne County,NC,27542,KJNX
1985,37193,Wilkes County,NC,28635,KUKF
1986,37195,Wilson County,NC,27542,KJNX
1987,37197,Yadkin County,NC,27011,KMWK
1988,37199,Yancey County,NC,28714,KAVL
1989,38001,Adams County,ND,58639,KHEI
1990,38003,Barnes County,ND,58479,KJMS
1991,38005,Benson County,ND,58374,KDVL
1992,38007,Billings County,ND,58622,KDIK
1993,38009,Bottineau County,ND,58750,KMOT
1994,38011,Bowman County,ND,58643,KDIK
1995,38013,Burke County,ND,58737,KMOT
1996,38015,Burleigh County,ND,58504,KBIS
1997,38017,Cass County,ND,58103,KFAR
1998,38019,Cavalier County,ND,58239,KDVL
1999,38021,Dickey County,ND,58040,KFAR
2000,38023,Divide County,ND,58845,KFAR
2001,38025,Dunn County,ND,58601,KDIK
2002,38027,Eddy County,ND,58374,KDVL
2003,38029,Emmons County,ND,58504,KBIS
2004,38031,Foster County,ND,58443,KJMS
2005,38033,Golden Valley County,ND,58632,KDIK
2006,38035,Grand Forks County,ND,58261,KGFK
2007,38037,Grant County,ND,58638,KHZE
2008,38039,Griggs County,ND,58212,KGFK
2009,38041,Hettinger County,ND,58647,KDIK
2010,38043,Kidder County,ND,58488,KBIS
2011,38045,LaMoure County,ND,58472,KJMS
2012,38047,Logan County,ND,58440,KJMS
2013,38049,McHenry County,ND,58768,KMOT
2014,38051,McIntosh County,ND,58440,KJMS
2015,38053,McKenzie County,ND,58757,KJMS
2016,38055,McLean County,ND,58779,KMOT
2017,38057,Mercer County,ND,58638,KHZE
2018,38059,Morton County,ND,58638,KHZE
2019,38061,Mountrail County,ND,58771,KMOT
2020,38063,Nelson County,ND,58259,KDVL
2021,38065,Oliver County,ND,58530,KHZE
2022,38067,Pembina County,ND,58282,KDVL
2023,38069,Pierce County,ND,58384,KMOT
2024,38071,Ramsey County,ND,58327,KDVL
2025,38073,Ransom County,ND,58057,KBWP
2026,38075,Renville County,ND,58750,KMOT
2027,38077,Richland County,ND,58041,KBWP
2028,38079,Rolette County,ND,58367,KDVL
2029,38081,Sargent County,ND,58040,KFAR
2030,38083,Sheridan County,ND,58444,KBIS
2031,38085,Sioux County,ND,58529,KBIS
2032,38087,Slope County,ND,58643,KDIK
2033,38089,Stark County,ND,58601,KDIK
2034,38091,Steele County,ND,58274,KGFK
2035,38093,Stutsman County,ND,58401,KJMS
2036,38095,Towner County,ND,58367,KDVL
2037,38097,Traill County,ND,58045,KFAR
2038,38099,Walsh County,ND,58259,KDVL
2039,38101,Ward County,ND,58779,KMOT
2040,38103,Wells County,ND,58374,KDVL
2041,38105,Williams County,ND,58801,KDVL
2042,39001,Adams County,OH,45660,KFGX
2043,39003,Allen County,OH,45801,KAOH
2044,39005,Ashland County,OH,44843,KMFD
2045,39007,Ashtabula County,OH,44048,KHZY
2046,39009,Athens County,OH,45701,KUNI
2047,39011,Auglaize County,OH,45801,KAOH
2048,39013,Belmont County,OH,43906,KHLG
2049,39015,Brown County,OH,45119,KCVG
2050,39017,Butler County,OH,45005,KMGY
2051,39019,Carroll County,OH,44657,KCAK
2052,39021,Champaign County,OH,43047,KMRT
2053,39023,Clark County,OH,45501,KFFO
2054,39025,Clermont County,OH,45153,KCVG
2055,39027,Clinton County,OH,45177,KILN
2056,39029,Columbiana County,OH,44657,KCAK
2057,39031,Coshocton County,OH,43845,KPHD
2058,39033,Crawford County,OH,44827,KMFD
2059,39035,Cuyahoga County,OH,44026,KBKL
2060,39037,Darke County,OH,45358,KVES
2061,39039,Defiance County,OH,43506,KDFI
2062,39041,Delaware County,OH,43035,KOSU
2063,39043,Erie County,OH,44824,KLPR
2064,39045,Fairfield County,OH,43076,KVTA
2065,39047,Fayette County,OH,43145,KLCK
2066,39049,Franklin County,OH,43064,KMRT
2067,39051,Fulton County,OH,43533,KADG
2068,39053,Gallia County,OH,45623,KHTS
2069,39055,Geauga County,OH,44026,KBKL
2070,39057,Greene County,OH,45440,KMGY
2071,39059,Guernsey County,OH,43772,KZZV
2072,39061,Hamilton County,OH,45013,KHAO
2073,39063,Hancock County,OH,45810,KAOH
2074,39065,Hardin County,OH,45810,KAOH
2075,39067,Harrison County,OH,44695,KPHD
2076,39069,Henry County,OH,43527,KDFI
2077,39071,Highland County,OH,45660,KFGX
2078,39073,Hocking County,OH,45654,KUNI
2079,39075,Holmes County,OH,44660,KBJJ
2080,39077,Huron County,OH,44847,KLPR
2081,39079,Jackson County,OH,45601,KLCK
2082,39081,Jefferson County,OH,43917,KHLG
2083,39083,Knox County,OH,43080,KVTA
2084,39085,Lake County,OH,44041,KHZY
2085,39087,Lawrence County,OH,45623,KHTS
2086,39089,Licking County,OH,43076,KVTA
2087,39091,Logan County,OH,43331,KEDJ
2088,39093,Lorain County,OH,44275,KLPR
2089,39095,Lucas County,OH,43612,KDUH
2090,39097,Madison County,OH,43064,KMRT
2091,39099,Mahoning County,OH,44512,KYNG
2092,39101,Marion County,OH,45843,KFDY
2093,39103,Medina County,OH,44275,KLPR
2094,39105,Meigs County,OH,45723,KUNI
2095,39107,Mercer County,OH,45865,KVES
2096,39109,Miami County,OH,45371,KDAY
2097,39111,Monroe County,OH,43793,KPKB
2098,39113,Montgomery County,OH,45005,KMGY
2099,39115,Morgan County,OH,43787,KPKB
2100,39117,Morrow County,OH,43050,KVTA
2101,39119,Muskingum County,OH,43746,KZZV
2102,39121,Noble County,OH,43772,KZZV
2103,39123,Ottawa County,OH,43416,KTDZ
2104,39125,Paulding County,OH,45832,KFWA
2105,39127,Perry County,OH,43076,KVTA
2106,39129,Pickaway County,OH,43137,KLCK
2107,39131,Pike County,OH,45660,KFGX
2108,39133,Portage County,OH,44272,KAKR
2109,39135,Preble County,OH,45003,KHAO
2110,39137,Putnam County,OH,45830,KAOH
2111,39139,Richland County,OH,44827,KMFD
2112,39141,Ross County,OH,45601,KLCK
2113,39143,Sandusky County,OH,44824,KLPR
2114,39145,Scioto County,OH,45660,KFGX
2115,39147,Seneca County,OH,44853,KFDY
2116,39149,Shelby County,OH,45865,KVES
2117,39151,Stark County,OH,44216,KCAK
2118,39153,Summit County,OH,44304,KAKR
2119,39155,Trumbull County,OH,44410,KYNG
2120,39157,Tuscarawas County,OH,44622,KPHD
2121,39159,Union County,OH,43064,KMRT
2122,39161,Van Wert County,OH,45832,KFWA
2123,39163,Vinton County,OH,45654,KUNI
2124,39165,Warren County,OH,45005,KMGY
2125,39167,Washington County,OH,43787,KPKB
2126,39169,Wayne County,OH,44216,KCAK
2127,39171,Williams County,OH,43506,KDFI
2128,39173,Wood County,OH,43460,KTDZ
2129,39175,Wyandot County,OH,45843,KFDY
2130,40001,Adair County,OK,74964,KSLG
2131,40003,Alfalfa County,OK,73716,KAVK
2132,40005,Atoka County,OK,74553,KMLC
2133,40007,Beaver County,OK,73950,KLBL
2134,40009,Beckham County,OK,73644,KCSM
2135,40011,Blaine County,OK,73763,KJWG
2136,40013,Bryan County,OK,74702,KDUA
2137,40015,Caddo County,OK,73017,KCHK
2138,40017,Canadian County,OK,73014,KRCE
2139,40019,Carter County,OK,73443,KLAW
2140,40021,Cherokee County,OK,74359,KTQH
2141,40023,Choctaw County,OK,74735,KPRX
2142,40025,Cimarron County,OK,73947,KEHA
2143,40027,Cleveland County,OK,73129,KOKC
2144,40029,Coal County,OK,74534,KAQR
2145,40031,Comanche County,OK,73017,KCHK
2146,40033,Cotton County,OK,73531,KSPS
2147,40035,Craig County,OK,74349,KGMJ
2148,40037,Creek County,OK,74010,KRVS
2149,40039,Custer County,OK,73096,KOJA
2150,40041,Delaware County,OK,74964,KSLG
2151,40043,Dewey County,OK,73859,KWWR
2152,40045,Ellis County,OK,73840,KWWR
2153,40047,Garfield County,OK,73761,KWDG
2154,40049,Garvin County,OK,73098,KPVJ
2155,40051,Grady County,OK,73010,KOUN
2156,40053,Grant County,OK,73761,KWDG
2157,40055,Greer County,OK,73547,KAXS
2158,40057,Harmon County,OK,73554,KAXS
2159,40059,Harper County,OK,73851,KWWR
2160,40061,Haskell County,OK,74462,KJSV
2161,40063,Hughes County,OK,74570,KMLC
2162,40065,Jackson County,OK,73532,KAXS
2163,40067,Jefferson County,OK,73520,KDUC
2164,40069,Johnston County,OK,74748,KDUA
2165,40071,Kay County,OK,74653,KPNC
2166,40073,Kingfisher County,OK,73750,KRCE
2167,40075,Kiowa County,OK,73651,KHBR
2168,40077,Latimer County,OK,74547,KMLC
2169,40079,Le Flore County,OK,74956,KRKR
2170,40081,Lincoln County,OK,74834,KCQB
2171,40083,Logan County,OK,73073,KSWO
2172,40085,Love County,OK,73430,KDFW
2173,40087,McClain County,OK,73010,KOUN
2174,40089,McCurtain County,OK,74957,KMEZ
2175,40091,McIntosh County,OK,74428,KMKO
2176,40093,Major County,OK,73760,KWDG
2177,40095,Marshall County,OK,73447,KADM
2178,40097,Mayes County,OK,74036,KGCM
2179,40099,Murray County,OK,73098,KPVJ
2180,40101,Muskogee County,OK,74403,KMKO
2181,40103,Noble County,OK,73073,KSWO
2182,40105,Nowata County,OK,74027,KBVO
2183,40107,Okfuskee County,OK,74010,KRVS
2184,40109,Oklahoma County,OK,73012,KPWA
2185,40111,Okmulgee County,OK,74421,KOKM
2186,40113,Osage County,OK,74103,KTUL
2187,40115,Ottawa County,OK,74370,KGMJ
2188,40117,Pawnee County,OK,74045,KCUH
2189,40119,Payne County,OK,74045,KCUH
2190,40121,Pittsburg County,OK,74442,KMLC
2191,40123,Pontotoc County,OK,74572,KADH
2192,40125,Pottawatomie County,OK,74801,KSNL
2193,40127,Pushmataha County,OK,74735,KPRX
2194,40129,Roger Mills County,OK,73660,KHHF
2195,40131,Rogers County,OK,74036,KGCM
2196,40133,Seminole County,OK,74849,KADH
2197,40135,Sequoyah County,OK,74955,KJSV
2198,40137,Stephens County,OK,73529,KDUC
2199,40139,Texas County,OK,73951,KLBL
2200,40141,Tillman County,OK,73570,KFDR
2201,40143,Tulsa County,OK,74066,KRVS
2202,40145,Wagoner County,OK,74403,KMKO
2203,40147,Washington County,OK,74029,KBVO
2204,40149,Washita County,OK,73632,KCSM
2205,40151,Woods County,OK,73716,KAVK
2206,40153,Woodward County,OK,73841,KWWR
2207,41001,Baker County,OR,97883,KPDT
2208,41003,Benton County,OR,97330,KCVO
2209,41005,Clackamas County,OR,97140,KPDX
2210,41007,Clatsop County,OR,97146,KAST
2211,41009,Columbia County,OR,97053,KSPB
2212,41011,Coos County,OR,97466,KOTH
2213,41013,Crook County,OR,97753,KRDM
2214,41015,Curry County,OR,97406,KOTH
2215,41017,Deschutes County,OR,97709,KRDM
2216,41019,Douglas County,OR,97473,KOTH
2217,41021,Gilliam County,OR,97843,KPSC
2218,41023,Grant County,OR,97865,KPDT
2219,41025,Harney County,OR,97710,KREO
2220,41027,Hood River County,OR,97044,KPDX
2221,41029,Jackson County,OR,97526,KMFR
2222,41031,Jefferson County,OR,97761,KRDM
2223,41033,Josephine County,OR,97526,KMFR
2224,41035,Klamath County,OR,97603,KLMT
2225,41037,Lake County,OR,97640,KRDM
2226,41039,Lane County,OR,97413,KEUG
2227,41041,Lincoln County,OR,97394,KEUG
2228,41043,Linn County,OR,97346,KSLE
2229,41045,Malheur County,OR,97906,KONO
2230,41047,Marion County,OR,97137,KMMV
2231,41049,Morrow County,OR,97843,KPSC
2232,41051,Multnomah County,OR,97205,KPDX
2233,41053,Polk County,OR,97338,KSLE
2234,41055,Sherman County,OR,97039,KYKM
2235,41057,Tillamook County,OR,97112,KSLE
2236,41059,Umatilla County,OR,97875,KHRI
2237,41061,Union County,OR,97883,KPDT
2238,41063,Wallowa County,OR,97857,KALW
2239,41065,Wasco County,OR,97021,KPDX
2240,41067,Washington County,OR,97005,KHIO
2241,41069,Wheeler County,OR,97750,KRDM
2242,41071,Yamhill County,OR,97114,KMMV
2243,42001,Adams County,PA,17320,KHGR
2244,42003,Allegheny County,PA,15034,KAGC
2245,42005,Armstrong County,PA,15690,KBTP
2246,42007,Beaver County,PA,15061,KBVI
2247,42009,Bedford County,PA,16655,KAOO
2248,42011,Berks County,PA,18092,KUKT
2249,42013,Blair County,PA,16637,KAOO
2250,42015,Bradford County,PA,18616,KIPT
2251,42017,Bucks County,PA,18930,KUKT
2252,42019,Butler County,PA,16001,KBTP
2253,42021,Cambria County,PA,15906,KJST
2254,42023,Cameron County,PA,15832,KFIG
2255,42025,Carbon County,PA,18211,KABE
2256,42027,Centre County,PA,16820,KUNV
2257,42029,Chester County,PA,19355,KPTW
2258,42031,Clarion County,PA,16028,KBTP
2259,42033,Clearfield County,PA,15801,KDUJ
2260,42035,Clinton County,PA,17764,KUNV
2261,42037,Columbia County,PA,17814,KIPT
2262,42039,Crawford County,PA,16134,KGKJ
2263,42041,Cumberland County,PA,17007,KCXY
2264,42043,Dauphin County,PA,17033,KMDT
2265,42045,Delaware County,PA,19064,KPHL
2266,42047,Elk County,PA,15821,KFIG
2267,42049,Erie County,PA,16435,KGKJ
2268,42051,Fayette County,PA,15442,KAGC
2269,42053,Forest County,PA,15828,KDUJ
2270,42055,Franklin County,PA,17214,KHGR
2271,42057,Fulton County,PA,17211,KHGR
2272,42059,Greene County,PA,15334,KMGW
2273,42061,Huntingdon County,PA,16647,KAOO
2274,42063,Indiana County,PA,15734,KIDI
2275,42065,Jefferson County,PA,15801,KDUJ
2276,42067,Juniata County,PA,17059,KUNV
2277,42069,Lackawanna County,PA,18446,KAVP
2278,42071,Lancaster County,PA,17033,KMDT
2279,42073,Lawrence County,PA,16051,KBTP
2280,42075,Lebanon County,PA,17033,KMDT
2281,42077,Lehigh County,PA,18032,KABE
2282,42079,Luzerne County,PA,18644,KAVP
2283,42081,Lycoming County,PA,17754,KIPT
2284,42083,McKean County,PA,16749,KBFD
2285,42085,Mercer County,PA,16127,KUCP
2286,42087,Mifflin County,PA,17059,KUNV
2287,42089,Monroe County,PA,18301,KMPO
2288,42091,Montgomery County,PA,19006,KPNE
2289,42093,Montour County,PA,17756,KIPT
2290,42095,Northampton County,PA,18014,KABE
2291,42097,Northumberland County,PA,17867,KSEG
2292,42099,Perry County,PA,17074,KCXY
2293,42101,Philadelphia County,PA,19006,KPNE
2294,42103,Pike County,PA,18337,KFWN
2295,42105,Potter County,PA,16941,KBFD
2296,42107,Schuylkill County,PA,17959,KRDG
2297,42109,Snyder County,PA,17843,KSEG
2298,42111,Somerset County,PA,15501,KLBE
2299,42113,Sullivan County,PA,18629,KAVP
2300,42115,Susquehanna County,PA,18446,KAVP
2301,42117,Tioga County,PA,16912,KIPT
2302,42119,Union County,PA,17870,KSEG
2303,42121,Venango County,PA,16127,KUCP
2304,42123,Warren County,PA,16313,KBFD
2305,42125,Washington County,PA,15301,KAFJ
2306,42127,Wayne County,PA,18405,KMSV
2307,42129,Westmoreland County,PA,15501,KLBE
2308,42131,Wyoming County,PA,18446,KAVP
2309,42133,York County,PA,17403,KTHV
2310,44001,Bristol County,RI,2806,KPVD
2311,44003,Kent County,RI,2887,KPVD
2312,44005,Newport County,RI,2801,KEWB
2313,44007,Providence County,RI,2828,KPVD
2314,44009,Washington County,RI,2808,KWST
2315,45001,Abbeville County,SC,29627,KAND
2316,45003,Aiken County,SC,29801,KDNL
2317,45005,Allendale County,SC,29827,KJYL
2318,45007,Anderson County,SC,29627,KAND
2319,45009,Bamberg County,SC,29817,KOGB
2320,45011,Barnwell County,SC,29817,KOGB
2321,45013,Beaufort County,SC,29915,KSVN
2322,45015,Berkeley County,SC,29431,KMKS
2323,45017,Calhoun County,SC,29118,KOGB
2324,45019,Charleston County,SC,29455,KJZI
2325,45021,Cherokee County,SC,29702,KEHO
2326,45023,Chester County,SC,29714,KLKR
2327,45025,Chesterfield County,SC,29720,KUZA
2328,45027,Clarendon County,SC,29111,KCKI
2329,45029,Colleton County,SC,29474,KRBW
2330,45031,Darlington County,SC,29501,KFLO
2331,45033,Dillon County,SC,29574,KMAO
2332,45035,Dorchester County,SC,29437,KRBW
2333,45037,Edgefield County,SC,29841,KDNL
2334,45039,Fairfield County,SC,29065,KCAE
2335,45041,Florence County,SC,29162,KFLO
2336,45043,Georgetown County,SC,29585,KGGE
2337,45045,Greenville County,SC,29609,KGMU
2338,45047,Greenwood County,SC,29649,KGRD
2339,45049,Hampton County,SC,29922,KJYL
2340,45051,Horry County,SC,29569,KCRE
2341,45053,Jasper County,SC,29922,KJYL
2342,45055,Kershaw County,SC,29010,KSSC
2343,45057,Lancaster County,SC,29720,KUZA
2344,45059,Laurens County,SC,29325,KLUX
2345,45061,Lee County,SC,29010,KSSC
2346,45063,Lexington County,SC,29054,KCAE
2347,45065,McCormick County,SC,29620,KGRD
2348,45067,Marion County,SC,29574,KMAO
2349,45069,Marlboro County,SC,29570,KMEB
2350,45071,Newberry County,SC,29145,KCAE
2351,45073,Oconee County,SC,29676,KCEU
2352,45075,Orangeburg County,SC,29118,KOGB
2353,45077,Pickens County,SC,29671,KLQK
2354,45079,Richland County,SC,29202,KCUB
2355,45081,Saluda County,SC,29129,KDNL
2356,45083,Spartanburg County,SC,29306,KSPA
2357,45085,Sumter County,SC,29168,KSSC
2358,45087,Union County,SC,29031,KDCM
2359,45089,Williamsburg County,SC,29111,KCKI
2360,45091,York County,SC,29702,KEHO
2361,46003,Aurora County,SD,57369,KPIR
2362,46005,Beadle County,SD,57312,KHON
2363,46007,Bennett County,SD,57574,KVTN
2364,46009,Bon Homme County,SD,57063,KYKN
2365,46011,Brookings County,SD,57234,KATY
2366,46013,Brown County,SD,57451,KABR
2367,46015,Brule County,SD,57370,KPIR
2368,46017,Buffalo County,SD,57370,KPIR
2369,46019,Butte County,SD,57760,KRAP
2370,46021,Campbell County,SD,57437,KMBG
2371,46023,Charles Mix County,SD,57313,KMHE
2372,46025,Clark County,SD,57434,KABR
2373,46027,Clay County,SD,57069,KYKN
2374,46029,Codington County,SD,57235,KATY
2375,46031,Corson County,SD,57642,KBIS
2376,46033,Custer County,SD,57738,KCUT
2377,46035,Davison County,SD,57328,KMHE
2378,46037,Day County,SD,57235,KATY
2379,46039,Deuel County,SD,57234,KATY
2380,46041,Dewey County,SD,57652,KMBG
2381,46043,Douglas County,SD,57344,KMHE
2382,46045,Edmunds County,SD,57451,KABR
2383,46047,Fall River County,SD,57722,KCUT
2384,46049,Faulk County,SD,57460,KABR
2385,46051,Grant County,SD,57252,KVVV
2386,46053,Gregory County,SD,57529,KICR
2387,46055,Haakon County,SD,57552,KPHP
2388,46057,Hamlin County,SD,57234,KATY
2389,46059,Hand County,SD,57476,KHON
2390,46061,Hanson County,SD,57319,KMHE
2391,46063,Harding County,SD,57760,KRAP
2392,46065,Hughes County,SD,57501,KPIR
2393,46067,Hutchinson County,SD,57319,KMHE
2394,46069,Hyde County,SD,57540,KPIR
2395,46071,Jackson County,SD,57577,KPHP
2396,46073,Jerauld County,SD,57312,KHON
2397,46075,Jones County,SD,57531,KPIR
2398,46077,Kingsbury County,SD,57231,KHON
2399,46079,Lake County,SD,57048,KMDS
2400,46081,Lawrence County,SD,57779,KRAP
2401,46083,Lincoln County,SD,57032,KFSD
2402,46085,Lyman County,SD,57576,KPIR
2403,46087,McCook County,SD,57048,KMDS
2404,46089,McPherson County,SD,57428,KMBG
2405,46091,Marshall County,SD,57247,KABR
2406,46093,Meade County,SD,57787,KRAP
2407,46095,Mellette County,SD,57579,KVTN
2408,46097,Miner County,SD,57058,KMDS
2409,46099,Minnehaha County,SD,57048,KMDS
2410,46101,Moody County,SD,57017,KMDS
2411,46103,Pennington County,SD,57703,KRAP
2412,46105,Perkins County,SD,57640,KHEI
2413,46107,Potter County,SD,57450,KMBG
2414,46109,Roberts County,SD,57252,KVVV
2415,46111,Sanborn County,SD,57312,KHON
2416,46115,Spink County,SD,57460,KABR
2417,46117,Stanley County,SD,57532,KPIR
2418,46119,Sully County,SD,57442,KMBG
2419,46121,Todd County,SD,57580,KICR
2420,46123,Tripp County,SD,57580,KICR
2421,46125,Turner County,SD,57053,KFSD
2422,46127,Union County,SD,57025,KLRJ
2423,46129,Walworth County,SD,57428,KMBG
2424,46135,Yankton County,SD,57070,KYKN
2425,46137,Ziebach County,SD,57623,KPIR
2426,47001,Anderson County,TN,37938,KTYS
2427,47003,Bedford County,TN,37060,KSYI
2428,47005,Benton County,TN,38318,KPHT
2429,47007,Bledsoe County,TN,37379,KCHA
2430,47009,Blount County,TN,37865,KTYS
2431,47011,Bradley County,TN,37353,KCHA
2432,47013,Campbell County,TN,37756,KTYS
2433,47015,Cannon County,TN,37118,KMQY
2434,47017,Carroll County,TN,38220,KPHT
2435,47019,Carter County,TN,37658,KTRI
2436,47021,Cheatham County,TN,37062,KJWN
2437,47023,Chester County,TN,38371,KMKL
2438,47025,Claiborne County,TN,37851,KTYS
2439,47027,Clay County,TN,38551,KSRB
2440,47029,Cocke County,TN,37722,KTYS
2441,47031,Coffee County,TN,37355,KTHA
2442,47033,Crockett County,TN,38006,KMKL
2443,47035,Cumberland County,TN,37381,KCSV
2444,47037,Davidson County,TN,37211,KBNA
2445,47039,Decatur County,TN,38371,KMKL
2446,47041,DeKalb County,TN,37166,KRNC
2447,47043,Dickson County,TN,37052,KCKV
2448,47045,Dyer County,TN,38024,KDYR
2449,47047,Fayette County,TN,38017,KMEM
2450,47049,Fentress County,TN,38589,KCSV
2451,47051,Franklin County,TN,37352,KBGF
2452,47053,Gibson County,TN,38220,KPHT
2453,47055,Giles County,TN,38474,KMRC
2454,47057,Grainger County,TN,37848,KTYS
2455,47059,Greene County,TN,37711,KTRI
2456,47061,Grundy County,TN,37365,KRNC
2457,47063,Hamblen County,TN,37711,KTRI
2458,47065,Hamilton County,TN,37341,KCHA
2459,47067,Hancock County,TN,37765,KTRI
2460,47069,Hardeman County,TN,38075,KMKL
2461,47071,Hardin County,TN,38371,KMKL
2462,47073,Hawkins County,TN,37711,KTRI
2463,47075,Haywood County,TN,38063,KDYR
2464,47077,Henderson County,TN,38371,KMKL
2465,47079,Henry County,TN,38201,KPHT
2466,47081,Hickman County,TN,38454,KMRC
2467,47083,Houston County,TN,37175,KCKV
2468,47085,Humphreys County,TN,37061,KCKV
2469,47087,Jackson County,TN,38551,KSRB
2470,47089,Jefferson County,TN,37813,KTYS
2471,47091,Johnson County,TN,37683,KVJI
2472,47093,Knox County,TN,37909,KTYS
2473,47095,Lake County,TN,38080,KDYR
2474,47097,Lauderdale County,TN,38063,KDYR
2475,47099,Lawrence County,TN,38469,KMSL
2476,47101,Lewis County,TN,38474,KMRC
2477,47103,Lincoln County,TN,38488,KMDQ
2478,47105,Loudon County,TN,37885,KTYS
2479,47107,McMinn County,TN,37880,KCSV
2480,47109,McNairy County,TN,38379,KCRX
2481,47111,Macon County,TN,37074,KBNA
2482,47113,Madison County,TN,38006,KMKL
2483,47115,Marion County,TN,37365,KRNC
2484,47117,Marshall County,TN,37060,KSYI
2485,47119,Maury County,TN,38474,KMRC
2486,47121,Meigs County,TN,37880,KCSV
2487,47123,Monroe County,TN,37385,KRHP
2488,47125,Montgomery County,TN,37052,KCKV
2489,47127,Moore County,TN,37352,KBGF
2490,47129,Morgan County,TN,37872,KTYS
2491,47131,Obion County,TN,38271,KUCY
2492,47133,Overton County,TN,38580,KSRB
2493,47135,Perry County,TN,37033,KMRC
2494,47137,Pickett County,TN,38543,KSRB
2495,47139,Polk County,TN,37307,KCHA
2496,47141,Putnam County,TN,38506,KSRB
2497,47143,Rhea County,TN,37381,KCSV
2498,47145,Roane County,TN,37880,KCSV
2499,47147,Robertson County,TN,37073,KBNA
2500,47149,Rutherford County,TN,37060,KSYI
2501,47151,Scott County,TN,37755,KTYS
2502,47153,Sequatchie County,TN,37379,KCHA
2503,47155,Sevier County,TN,37865,KTYS
2504,47157,Shelby County,TN,38134,KMEM
2505,47159,Smith County,TN,37074,KBNA
2506,47161,Stewart County,TN,37175,KCKV
2507,47163,Sullivan County,TN,37659,KTRI
2508,47165,Sumner County,TN,37077,KBNA
2509,47167,Tipton County,TN,38069,KMKL
2510,47169,Trousdale County,TN,37074,KBNA
2511,47171,Unicoi County,TN,37657,KTRI
2512,47173,Union County,TN,37938,KTYS
2513,47175,Van Buren County,TN,37367,KCSV
2514,47177,Warren County,TN,37166,KRNC
2515,47179,Washington County,TN,37659,KTRI
2516,47181,Wayne County,TN,38463,KMSL
2517,47183,Weakley County,TN,38226,KUCY
2518,47185,White County,TN,38506,KSRB
2519,47187,Williamson County,TN,37060,KSYI
2520,47189,Wilson County,TN,37118,KMQY
2521,48001,Anderson County,TX,75779,KPSN
2522,48003,Andrews County,TX,79714,KMAF
2523,48005,Angelina County,TX,75915,KLFK
2524,48007,Aransas County,TX,78382,KRKP
2525,48009,Archer County,TX,76360,KFDR
2526,48011,Armstrong County,TX,79226,KPPA
2527,48013,Atascosa County,TX,78113,KPEZ
2528,48015,Austin County,TX,77833,KCLL
2529,48017,Bailey County,TX,79324,KCVN
2530,48019,Bandera County,TX,78023,KSAT
2531,48021,Bastrop County,TX,78942,KGYB
2532,48023,Baylor County,TX,76380,KLAW
2533,48025,Bee County,TX,78391,KBEA
2534,48027,Bell County,TX,76541,KGRK
2535,48029,Bexar County,TX,78023,KSAT
2536,48031,Blanco County,TX,78635,KSAT
2537,48033,Borden County,TX,79356,KLBB
2538,48035,Bosque County,TX,76633,KACT
2539,48037,Bowie County,TX,75501,KTXK
2540,48039,Brazoria County,TX,77422,KLBX
2541,48041,Brazos County,TX,77840,KCLL
2542,48043,Brewster County,TX,79830,KMRF
2543,48045,Briscoe County,TX,79257,KPVW
2544,48047,Brooks County,TX,78353,KBKS
2545,48049,Brown County,TX,76823,KBWD
2546,48051,Burleson County,TX,77878,KCLL
2547,48053,Burnet County,TX,76550,KLZZ
2548,48055,Caldwell County,TX,78959,KAUS
2549,48057,Calhoun County,TX,77979,KPKV
2550,48059,Callahan County,TX,79504,KABI
2551,48061,Cameron County,TX,78569,KHRL
2552,48063,Camp County,TX,75451,KOSA
2553,48065,Carson County,TX,79080,KPPA
2554,48067,Cass County,TX,75572,KTXK
2555,48069,Castro County,TX,79045,KHRX
2556,48071,Chambers County,TX,77597,KEFD
2557,48073,Cherokee County,TX,75759,KJSO
2558,48075,Childress County,TX,79230,KCDS
2559,48077,Clay County,TX,76305,KSPS
2560,48079,Cochran County,TX,79379,KLBB
2561,48081,Coke County,TX,76945,KSJT
2562,48083,Coleman County,TX,76873,KBBD
2563,48085,Collin County,TX,75098,KTKI
2564,48087,Collingsworth County,TX,79079,KHHF
2565,48089,Colorado County,TX,78933,KCLL
2566,48091,Comal County,TX,78132,KBAZ
2567,48093,Comanche County,TX,76436,KMNZ
2568,48095,Concho County,TX,76855,KSJT
2569,48097,Cooke County,TX,76252,KGLE
2570,48099,Coryell County,TX,76528,KGOP
2571,48101,Cottle County,TX,79223,KCDS
2572,48103,Crane County,TX,79731,KODO
2573,48105,Crockett County,TX,76943,KOZA
2574,48107,Crosby County,TX,79370,KSNK
2575,48109,Culberson County,TX,79847,KELP
2576,48111,Dallam County,TX,79022,KDHT
2577,48113,Dallas County,TX,75043,KHQZ
2578,48115,Dawson County,TX,79713,KBPG
2579,48117,Deaf Smith County,TX,79045,KHRX
2580,48119,Delta County,TX,75469,KGVT
2581,48121,Denton County,TX,75067,KDFW
2582,48123,DeWitt County,TX,77967,KVCT
2583,48125,Dickens County,TX,79256,KCDS
2584,48127,Dimmit County,TX,78827,KCZT
2585,48129,Donley County,TX,79065,KPPA
2586,48131,Duval County,TX,78357,KLRD
2587,48133,Eastland County,TX,76435,KMKN
2588,48135,Ector County,TX,79760,KODO
2589,48137,Edwards County,TX,78833,KECU
2590,48139,Ellis County,TX,75146,KLNC
2591,48141,El Paso County,TX,79836,KELP
2592,48143,Erath County,TX,76436,KMNZ
2593,48145,Falls County,TX,76629,KLHB
2594,48147,Fannin County,TX,75414,KGYI
2595,48149,Fayette County,TX,78942,KGYB
2596,48151,Fisher County,TX,79526,KSNK
2597,48153,Floyd County,TX,79231,KPVW
2598,48155,Foard County,TX,79227,KLAW
2599,48157,Fort Bend County,TX,77469,KSGR
2600,48159,Franklin County,TX,75457,KOSA
2601,48161,Freestone County,TX,75838,KLXY
2602,48163,Frio County,TX,78017,KCOT
2603,48165,Gaines County,TX,79359,KGNC
2604,48167,Galveston County,TX,77510,KGLS
2605,48169,Garza County,TX,79356,KLBB
2606,48171,Gillespie County,TX,78624,KSAT
2607,48173,Glasscock County,TX,79720,KBPG
2608,48175,Goliad County,TX,77960,KVCT
2609,48177,Gonzales County,TX,78959,KAUS
2610,48179,Gray County,TX,79079,KHHF
2611,48181,Grayson County,TX,75021,KGYI
2612,48183,Gregg County,TX,75605,KGGG
2613,48185,Grimes County,TX,77356,KCXO
2614,48187,Guadalupe County,TX,78132,KBAZ
2615,48189,Hale County,TX,79064,KPVW
2616,48191,Hall County,TX,79261,KCDS
2617,48193,Hamilton County,TX,76436,KMNZ
2618,48195,Hansford County,TX,79062,KBGD
2619,48197,Hardeman County,TX,79247,KLAW
2620,48199,Hardin County,TX,77585,KBPT
2621,48201,Harris County,TX,77007,KHOU
2622,48203,Harrison County,TX,75605,KGGG
2623,48205,Hartley County,TX,79018,KDUX
2624,48207,Haskell County,TX,79521,KABI
2625,48209,Hays County,TX,78132,KBAZ
2626,48211,Hemphill County,TX,79014,KPYX
2627,48213,Henderson County,TX,75803,KPSN
2628,48215,Hidalgo County,TX,78537,KMFE
2629,48217,Hill County,TX,76055,KINJ
2630,48219,Hockley County,TX,79358,KLBB
2631,48221,Hood County,TX,76035,KGDJ
2632,48223,Hopkins County,TX,75431,KSLR
2633,48225,Houston County,TX,75862,KUTS
2634,48227,Howard County,TX,79511,KBPG
2635,48229,Hudspeth County,TX,79851,MMCS
2636,48231,Hunt County,TX,75474,KGVT
2637,48233,Hutchinson County,TX,79080,KPPA
2638,48235,Irion County,TX,76941,KSJT
2639,48237,Jack County,TX,76449,KRPH
2640,48239,Jackson County,TX,77979,KPKV
2641,48241,Jasper County,TX,75933,KJAS
2642,48243,Jeff Davis County,TX,79734,KMRF
2643,48245,Jefferson County,TX,77702,KBPT
2644,48247,Jim Hogg County,TX,78582,KMFE
2645,48249,Jim Wells County,TX,78383,KRBO
2646,48251,Johnson County,TX,76059,KCPT
2647,48253,Jones County,TX,79536,KABI
2648,48255,Karnes County,TX,78113,KPEZ
2649,48257,Kaufman County,TX,75114,KHQZ
2650,48259,Kendall County,TX,78004,KSAT
2651,48261,Kenedy County,TX,78385,KBKS
2652,48263,Kent County,TX,79528,KSNK
2653,48265,Kerr County,TX,78055,KERV
2654,48267,Kimble County,TX,76859,KJCT
2655,48269,King County,TX,79236,KCDS
2656,48271,Kinney County,TX,78832,KDRT
2657,48273,Kleberg County,TX,78363,KNQI
2658,48275,Knox County,TX,79227,KLAW
2659,48277,Lamar County,TX,75421,KPRX
2660,48279,Lamb County,TX,79064,KPVW
2661,48281,Lampasas County,TX,76550,KLZZ
2662,48283,La Salle County,TX,78001,KCOT
2663,48285,Lavaca County,TX,77986,KAUS
2664,48287,Lee County,TX,78942,KGYB
2665,48289,Leon County,TX,75833,KPSN
2666,48291,Liberty County,TX,77371,KCXO
2667,48293,Limestone County,TX,75838,KLXY
2668,48295,Lipscomb County,TX,79005,KPYX
2669,48297,Live Oak County,TX,78102,KBEA
2670,48299,Llano County,TX,76885,KAQO
2671,48301,Loving County,TX,79754,KPEQ
2672,48303,Lubbock County,TX,79499,KLBB
2673,48305,Lynn County,TX,79356,KLBB
2674,48307,McCulloch County,TX,76852,KBBD
2675,48309,McLennan County,TX,76705,KACT
2676,48311,McMullen County,TX,78071,KBEA
2677,48313,Madison County,TX,77871,KLHB
2678,48315,Marion County,TX,75630,KJXI
2679,48317,Martin County,TX,79782,KMDD
2680,48319,Mason County,TX,76869,KAQO
2681,48321,Matagorda County,TX,77422,KLBX
2682,48323,Maverick County,TX,78852,KLBX
2683,48325,Medina County,TX,78023,KSAT
2684,48327,Menard County,TX,76859,KJCT
2685,48329,Midland County,TX,79708,KMAF
2686,48331,Milam County,TX,76569,KTPL
2687,48333,Mills County,TX,76864,KBWD
2688,48335,Mitchell County,TX,79512,KSNK
2689,48337,Montague County,TX,76225,KLUD
2690,48339,Montgomery County,TX,77381,KDWH
2691,48341,Moore County,TX,79018,KDUX
2692,48343,Morris County,TX,75638,KOSA
2693,48345,Motley County,TX,79256,KCDS
2694,48347,Nacogdoches County,TX,75788,KJSO
2695,48349,Navarro County,TX,75109,KCRS
2696,48351,Newton County,TX,75933,KJAS
2697,48353,Nolan County,TX,79532,KSNK
2698,48355,Nueces County,TX,78418,KNGP
2699,48357,Ochiltree County,TX,79070,KPYX
2700,48359,Oldham County,TX,79098,KHRX
2701,48361,Orange County,TX,77632,KORG
2702,48363,Palo Pinto County,TX,76449,KRPH
2703,48365,Panola County,TX,75639,KASL
2704,48367,Parker County,TX,76085,KNFW
2705,48369,Parmer County,TX,79035,KCVN
2706,48371,Pecos County,TX,79740,KMGN
2707,48373,Polk County,TX,77350,KLFK
2708,48375,Potter County,TX,79103,KAMA
2709,48377,Presidio County,TX,79845,MMCU
2710,48379,Rains County,TX,75472,KGVT
2711,48381,Randall County,TX,79103,KAMA
2712,48383,Reagan County,TX,79739,KMDD
2713,48385,Real County,TX,78833,KECU
2714,48387,Red River County,TX,75416,KPRX
2715,48389,Reeves County,TX,79718,KPEQ
2716,48391,Refugio County,TX,77990,KPKV
2717,48393,Roberts County,TX,79065,KPPA
2718,48395,Robertson County,TX,76629,KLHB
2719,48397,Rockwall County,TX,75098,KTKI
2720,48399,Runnels County,TX,76821,KCOM
2721,48401,Rusk County,TX,75669,KRFI
2722,48403,Sabine County,TX,75930,KJAS
2723,48405,San Augustine County,TX,75929,KLFK
2724,48407,San Jacinto County,TX,77371,KCXO
2725,48409,San Patricio County,TX,78335,KCRP
2726,48411,San Saba County,TX,76871,KBBD
2727,48413,Schleicher County,TX,76936,KSOA
2728,48415,Scurry County,TX,79512,KSNK
2729,48417,Shackelford County,TX,79504,KABI
2730,48419,Shelby County,TX,75973,KOCH
2731,48421,Sherman County,TX,79022,KDHT
2732,48423,Smith County,TX,75704,KTYR
2733,48425,Somervell County,TX,76043,KGDJ
2734,48427,Starr County,TX,78582,KMFE
2735,48429,Stephens County,TX,76424,KBKD
2736,48431,Sterling County,TX,76951,KBPG
2737,48433,Stonewall County,TX,79502,KSWW
2738,48435,Sutton County,TX,76874,KJCT
2739,48437,Swisher County,TX,79042,KHRX
2740,48439,Tarrant County,TX,76114,KNFW
2741,48441,Taylor County,TX,79536,KABI
2742,48443,Terrell County,TX,79735,KFST
2743,48445,Terry County,TX,79359,KGNC
2744,48447,Throckmorton County,TX,76372,KRPH
2745,48449,Titus County,TX,75493,KOSA
2746,48451,Tom Green County,TX,76939,KSJT
2747,48453,Travis County,TX,78641,KRYW
2748,48455,Trinity County,TX,75862,KUTS
2749,48457,Tyler County,TX,75936,KLFK
2750,48459,Upshur County,TX,75605,KGGG
2751,48461,Upton County,TX,79755,KMAF
2752,48463,Uvalde County,TX,78833,KECU
2753,48465,Val Verde County,TX,78842,KDRT
2754,48467,Van Zandt County,TX,75474,KGVT
2755,48469,Victoria County,TX,77979,KPKV
2756,48471,Walker County,TX,75862,KUTS
2757,48473,Waller County,TX,77466,KSGR
2758,48475,Ward County,TX,79777,KPEQ
2759,48477,Washington County,TX,77833,KCLL
2760,48479,Webb County,TX,78045,KLRD
2761,48481,Wharton County,TX,77488,KARM
2762,48483,Wheeler County,TX,79079,KHHF
2763,48485,Wichita County,TX,76301,KSPS
2764,48487,Wilbarger County,TX,76360,KFDR
2765,48489,Willacy County,TX,78569,KHRL
2766,48491,Williamson County,TX,78633,KGTU
2767,48493,Wilson County,TX,78113,KPEZ
2768,48495,Winkler County,TX,79789,KINK
2769,48497,Wise County,TX,76073,KXBP
2770,48499,Wood County,TX,75431,KSLR
2771,48501,Yoakum County,TX,79376,KGNC
2772,48503,Young County,TX,76424,KBKD
2773,48505,Zapata County,TX,78584,KAPY
2774,48507,Zavala County,TX,78061,KCOT
2775,49001,Beaver County,UT,84752,KCDC
2776,49003,Box Elder County,UT,84307,KLGU
2777,49005,Cache County,UT,84321,KLGU
2778,49007,Carbon County,UT,84501,KPUC
2779,49009,Daggett County,UT,84046,KRKS
2780,49011,Davis County,UT,84054,KSLC
2781,49013,Duchesne County,UT,84031,KPVU
2782,49015,Emery County,UT,84501,KPUC
2783,49017,Garfield County,UT,84716,KBCE
2784,49019,Grand County,UT,84515,KGJT
2785,49021,Iron County,UT,84781,KSGU
2786,49023,Juab County,UT,84639,KPVU
2787,49025,Kane County,UT,84758,KKNB
2788,49027,Millard County,UT,84635,KRIF
2789,49029,Morgan County,UT,84018,KEVW
2790,49031,Piute County,UT,84750,KRIF
2791,49033,Rich County,UT,84064,KEVW
2792,49035,Salt Lake County,UT,84070,KSLC
2793,49037,San Juan County,UT,84533,KPGA
2794,49039,Sanpete County,UT,84629,KPUC
2795,49041,Sevier County,UT,84739,KRIF
2796,49043,Summit County,UT,84033,KSLC
2797,49045,Tooele County,UT,84074,KSLC
2798,49047,Uintah County,UT,84079,KVEL
2799,49049,Utah County,UT,84043,KPVU
2800,49051,Wasatch County,UT,84604,KPVU
2801,49053,Washington County,UT,84779,KSGU
2802,49055,Wayne County,UT,84715,KRIF
2803,49057,Weber County,UT,84310,KOGD
2804,50001,Addison County,VT,5733,KRUT
2805,50003,Bennington County,VT,5255,KRUT
2806,50005,Caledonia County,VT,5680,KBTV
2807,50007,Chittenden County,VT,5403,KBTV
2808,50009,Essex County,VT,5858,KBTV
2809,50011,Franklin County,VT,5450,KBTV
2810,50013,Grand Isle County,VT,5486,KPBG
2811,50015,Lamoille County,VT,5442,KBTV
2812,50017,Orange County,VT,5061,KLEB
2813,50019,Orleans County,VT,5680,KBTV
2814,50021,Rutland County,VT,5733,KRUT
2815,50023,Washington County,VT,5602,KBTV
2816,50025,Windham County,VT,5342,KALB
2817,50027,Windsor County,VT,5089,KLEB
2818,51001,Accomack County,VA,23301,KMFV
2819,51003,Albemarle County,VA,22911,KCHO
2820,51005,Alleghany County,VA,24457,KHSP
2821,51007,Amelia County,VA,23083,KFVX
2822,51009,Amherst County,VA,22967,KLYH
2823,51011,Appomattox County,VA,24504,KLYH
2824,51013,Arlington County,VA,22205,KDCA
2825,51015,Augusta County,VA,22920,KSHD
2826,51017,Bath County,VA,24460,KHSP
2827,51019,Bedford County,VA,24104,KLYH
2828,51021,Bland County,VA,24084,KPSK
2829,51023,Botetourt County,VA,24012,KROA
2830,51025,Brunswick County,VA,23887,KAVC
2831,51027,Buchanan County,VA,24634,KJFZ
2832,51029,Buckingham County,VA,23936,KFVX
2833,51031,Campbell County,VA,24504,KLYH
2834,51033,Caroline County,VA,22427,KOFP
2835,51035,Carroll County,VA,24330,KHLX
2836,51036,Charles City County,VA,23030,KRIC
2837,51037,Charlotte County,VA,23937,KLYH
2838,51041,Chesterfield County,VA,23224,KRIC
2839,51043,Clarke County,VA,22630,KFRR
2840,51045,Craig County,VA,24128,KBCB
2841,51047,Culpeper County,VA,20186,KHWY
2842,51049,Cumberland County,VA,23936,KFVX
2843,51051,Dickenson County,VA,24237,KLNP
2844,51053,Dinwiddie County,VA,23833,KPTB
2845,51057,Essex County,VA,22438,KXSA
2846,51059,Fairfax County,VA,20171,KIAD
2847,51061,Fauquier County,VA,22406,KRMN
2848,51063,Floyd County,VA,24091,KBCB
2849,51065,Fluvanna County,VA,22963,KCHO
2850,51067,Franklin County,VA,24014,KROA
2851,51069,Frederick County,VA,22601,KOKV
2852,51071,Giles County,VA,24315,KBLF
2853,51073,Gloucester County,VA,23001,KPHF
2854,51075,Goochland County,VA,23065,KLKU
2855,51077,Grayson County,VA,24330,KHLX
2856,51079,Greene County,VA,22935,KCHO
2857,51081,Greensville County,VA,23887,KAVC
2858,51083,Halifax County,VA,24534,KLYH
2859,51085,Hanover County,VA,23059,KOFP
2860,51087,Henrico County,VA,23030,KRIC
2861,51089,Henry County,VA,24133,KMTV
2862,51091,Highland County,VA,24413,KEKN
2863,51093,Isle of Wight County,VA,23314,KPHF
2864,51095,James City County,VA,23185,KFYJ
2865,51097,King and Queen County,VA,23156,KFYJ
2866,51099,King George County,VA,22451,KDCA
2867,51101,King William County,VA,23086,KXSA
2868,51103,Lancaster County,VA,22523,KXSA
2869,51105,Lee County,VA,24219,KLNP
2870,51107,Loudoun County,VA,20160,KIAD
2871,51109,Louisa County,VA,23065,KLKU
2872,51111,Lunenburg County,VA,23944,KAVC
2873,51113,Madison County,VA,22709,KOMH
2874,51115,Mathews County,VA,23068,KFYJ
2875,51117,Mecklenburg County,VA,23919,KAVC
2876,51119,Middlesex County,VA,23071,KFYJ
2877,51121,Montgomery County,VA,24068,KROA
2878,51125,Nelson County,VA,22920,KSHD
2879,51127,New Kent County,VA,23140,KFYJ
2880,51131,Northampton County,VA,23307,KMFV
2881,51133,Northumberland County,VA,22460,KXSA
2882,51135,Nottoway County,VA,23083,KFVX
2883,51137,Orange County,VA,23093,KLKU
2884,51139,Page County,VA,22827,KSHD
2885,51141,Patrick County,VA,24133,KMTV
2886,51143,Pittsylvania County,VA,24069,KDAN
2887,51145,Powhatan County,VA,23113,KOFP
2888,51147,Prince Edward County,VA,23922,KFVX
2889,51149,Prince George County,VA,23803,KPTB
2890,51153,Prince William County,VA,20155,KHEF
2891,51155,Pulaski County,VA,24084,KPSK
2892,51157,Rappahannock County,VA,22630,KFRR
2893,51159,Richmond County,VA,22460,KXSA
2894,51161,Roanoke County,VA,24014,KROA
2895,51163,Rockbridge County,VA,24579,KLYH
2896,51165,Rockingham County,VA,22801,KSHD
2897,51167,Russell County,VA,24237,KLNP
2898,51169,Scott County,VA,24221,KTRI
2899,51171,Shenandoah County,VA,22645,KFRR
2900,51173,Smyth County,VA,24311,KMKJ
2901,51175,Southampton County,VA,23867,KEMV
2902,51177,Spotsylvania County,VA,22408,KEZF
2903,51179,Stafford County,VA,22406,KRMN
2904,51181,Surry County,VA,23846,KAKQ
2905,51183,Sussex County,VA,23867,KEMV
2906,51185,Tazewell County,VA,24630,KJFZ
2907,51187,Warren County,VA,22630,KFRR
2908,51191,Washington County,VA,24212,KTRI
2909,51193,Westmoreland County,VA,22572,KXSA
2910,51195,Wise County,VA,24219,KLNP
2911,51197,Wythe County,VA,24324,KPSK
2912,51199,York County,VA,23185,KFYJ
2913,51510,Alexandria city,VA,22305,KDCA
2914,51520,Bristol city,VA,24203,KTRI
2915,51530,Buena Vista city,VA,24416,KHSP
2916,51540,Charlottesville city,VA,22903,KCHO
2917,51550,Chesapeake city,VA,23323,KCPK
2918,51570,Colonial Heights city,VA,23834,KPTB
2919,51580,Covington city,VA,24426,KHSP
2920,51590,Danville city,VA,24540,KDAN
2921,51595,Emporia city,VA,23847,KEMV
2922,51600,Fairfax city,VA,22030,KIAD
2923,51610,Falls Church city,VA,22205,KDCA
2924,51620,Franklin city,VA,23851,KFKN
2925,51630,Fredericksburg city,VA,22408,KEZF
2926,51640,Galax city,VA,24333,KHLX
2927,51650,Hampton city,VA,23607,KLFI
2928,51660,Harrisonburg city,VA,22801,KSHD
2929,51670,Hopewell city,VA,23860,KPTB
2930,51678,Lexington city,VA,24450,KHSP
2931,51680,Lynchburg city,VA,24515,KLYH
2932,51683,Manassas city,VA,20110,KHEF
2933,51685,Manassas Park city,VA,20111,KHEF
2934,51690,Martinsville city,VA,24112,KMTV
2935,51700,Newport News city,VA,23606,KPHF
2936,51710,Norfolk city,VA,23505,KNGU
2937,51720,Norton city,VA,24273,KLNP
2938,51730,Petersburg city,VA,23803,KPTB
2939,51735,Poquoson city,VA,23662,KLFI
2940,51740,Portsmouth city,VA,23708,KNGU
2941,51750,Radford city,VA,24129,KPSK
2942,51760,Richmond city,VA,23222,KRIC
2943,51770,Roanoke city,VA,24014,KROA
2944,51775,Salem city,VA,24153,KROA
2945,51790,Staunton city,VA,24402,KSHD
2946,51800,Suffolk city,VA,23432,KSFQ
2947,51810,Virginia Beach city,VA,23453,KNTU
2948,51820,Waynesboro city,VA,22980,KSHD
2949,51830,Williamsburg city,VA,23185,KFYJ
2950,51840,Winchester city,VA,22601,KOKV
2951,53001,Adams County,WA,98857,KMWH
2952,53003,Asotin County,WA,99402,KLWS
2953,53005,Benton County,WA,99354,KRLD
2954,53007,Chelan County,WA,98828,KEAT
2955,53009,Clallam County,WA,98381,KEAT
2956,53011,Clark County,WA,98606,KPDX
2957,53013,Columbia County,WA,99328,KALW
2958,53015,Cowlitz County,WA,98601,KPDX
2959,53017,Douglas County,WA,98858,KEAT
2960,53019,Ferry County,WA,99121,KPSC
2961,53021,Franklin County,WA,99330,KPSC
2962,53023,Garfield County,WA,99328,KALW
2963,53025,Grant County,WA,98857,KMWH
2964,53027,Grays Harbor County,WA,98537,KSEA
2965,53029,Island County,WA,98249,KSEA
2966,53031,Jefferson County,WA,98320,KSEA
2967,53033,King County,WA,98102,KSEA
2968,53035,Kitsap County,WA,98359,KSEA
2969,53037,Kittitas County,WA,98828,KEAT
2970,53039,Klickitat County,WA,98623,KPDX
2971,53041,Lewis County,WA,98539,KSEA
2972,53043,Lincoln County,WA,99032,KGEG
2973,53045,Mason County,WA,98563,KSEA
2974,53047,Okanogan County,WA,98862,KSEA
2975,53049,Pacific County,WA,98614,KPDX
2976,53051,Pend Oreille County,WA,99006,KGEG
2977,53053,Pierce County,WA,98328,KSEA
2978,53055,San Juan County,WA,98286,KFHR
2979,53057,Skagit County,WA,98274,KBLI
2980,53059,Skamania County,WA,98671,KPDX
2981,53061,Snohomish County,WA,98270,KSEA
2982,53063,Spokane County,WA,99006,KGEG
2983,53065,Stevens County,WA,99006,KGEG
2984,53067,Thurston County,WA,98505,KSEA
2985,53069,Wahkiakum County,WA,98621,KPDX
2986,53071,Walla Walla County,WA,99329,KALW
2987,53073,Whatcom County,WA,98266,KALW
2988,53075,Whitman County,WA,99170,KGEG
2989,53077,Yakima County,WA,98903,KYKM
2990,54001,Barbour County,WV,26267,KCKB
2991,54003,Berkeley County,WV,25411,KHGR
2992,54005,Boone County,WV,25529,KCRW
2993,54007,Braxton County,WV,26412,KCKB
2994,54009,Brooke County,WV,26070,KPIT
2995,54011,Cabell County,WV,25504,KHTS
2996,54013,Calhoun County,WV,25235,KCRW
2997,54015,Clay County,WV,25235,KCRW
2998,54017,Doddridge County,WV,26321,KCKB
2999,54019,Fayette County,WV,26680,KLWB
3000,54021,Gilmer County,WV,26412,KCKB
3001,54023,Grant County,WV,26866,KSHD
3002,54025,Greenbrier County,WV,24977,KLWB
3003,54027,Hampshire County,WV,25434,KHGR
3004,54029,Hancock County,WV,26047,KPIT
3005,54031,Hardy County,WV,26838,KSHD
3006,54033,Harrison County,WV,26323,KCKB
3007,54035,Jackson County,WV,25252,KCRW
3008,54037,Jefferson County,WV,25414,KHGR
3009,54039,Kanawha County,WV,25071,KCRW
3010,54041,Lewis County,WV,26321,KCKB
3011,54043,Lincoln County,WV,25523,KHTS
3012,54045,Logan County,WV,25617,KCRW
3013,54047,McDowell County,WV,24862,KCRW
3014,54049,Marion County,WV,26563,KCKB
3015,54051,Marshall County,WV,26036,KPIT
3016,54053,Mason County,WV,25515,KHTS
3017,54055,Mercer County,WV,24701,KLWB
3018,54057,Mineral County,WV,26767,KJST
3019,54059,Mingo County,WV,25678,KCRW
3020,54061,Monongalia County,WV,26505,KMGW
3021,54063,Monroe County,WV,24963,KLWB
3022,54065,Morgan County,WV,25411,KHGR
3023,54067,Nicholas County,WV,26205,KLWB
3024,54069,Ohio County,WV,26070,KPIT
3025,54071,Pendleton County,WV,26807,KSHD
3026,54073,Pleasants County,WV,26170,KPKB
3027,54075,Pocahontas County,WV,24924,KLWB
3028,54077,Preston County,WV,26287,KCKB
3029,54079,Putnam County,WV,25312,KCRW
3030,54081,Raleigh County,WV,25140,KCRW
3031,54083,Randolph County,WV,26267,KCKB
3032,54085,Ritchie County,WV,26170,KPKB
3033,54087,Roane County,WV,25071,KCRW
3034,54089,Summers County,WV,24963,KLWB
3035,54091,Taylor County,WV,26330,KCKB
3036,54093,Tucker County,WV,26287,KCKB
3037,54095,Tyler County,WV,26170,KPKB
3038,54097,Upshur County,WV,26267,KCKB
3039,54099,Wayne County,WV,25504,KHTS
3040,54101,Webster County,WV,26217,KCKB
3041,54103,Wetzel County,WV,26033,KMGW
3042,54105,Wirt County,WV,25252,KCRW
3043,54107,Wood County,WV,26169,KPKB
3044,54109,Wyoming County,WV,24870,KCRW
3045,55001,Adams County,WI,53936,KMSN
3046,55003,Ashland County,WI,54559,KIWD
3047,55005,Barron County,WI,54004,KEAU
3048,55007,Bayfield County,WI,54891,KIWD
3049,55009,Brown County,WI,54324,KGRB
3050,55011,Buffalo County,WI,54622,KLSE
3051,55013,Burnett County,WI,54830,KDLH
3052,55015,Calumet County,WI,53088,KATW
3053,55017,Chippewa County,WI,54748,KEAU
3054,55019,Clark County,WI,54446,KCWA
3055,55021,Columbia County,WI,53932,KMSN
3056,55023,Crawford County,WI,54657,KLSE
3057,55025,Dane County,WI,53521,KMSN
3058,55027,Dodge County,WI,53027,KMKE
3059,55029,Door County,WI,54210,KESC
3060,55031,Douglas County,WI,54849,KDLH
3061,55033,Dunn County,WI,54721,KEAU
3062,55035,Eau Claire County,WI,54741,KEAU
3063,55037,Florence County,WI,54151,KIMT
3064,55039,Fond du Lac County,WI,54904,KATW
3065,55041,Forest County,WI,54465,KRHI
3066,55043,Grant County,WI,53813,KDBQ
3067,55045,Green County,WI,53521,KMSN
3068,55047,Green Lake County,WI,53949,KMSN
3069,55049,Iowa County,WI,53517,KMSN
3070,55051,Iron County,WI,54538,KRHI
3071,55053,Jackson County,WI,54741,KEAU
3072,55055,Jefferson County,WI,53563,KMSN
3073,55057,Juneau County,WI,53968,KLSE
3074,55059,Kenosha County,WI,53128,KMKE
3075,55061,Kewaunee County,WI,54205,KGRB
3076,55063,La Crosse County,WI,54667,KLSE
3077,55065,Lafayette County,WI,53516,KMSN
3078,55067,Langlade County,WI,54430,KRHI
3079,55069,Lincoln County,WI,54564,KRHI
3080,55071,Manitowoc County,WI,54126,KGRB
3081,55073,Marathon County,WI,54474,KCWA
3082,55075,Marinette County,WI,54157,KGRB
3083,55077,Marquette County,WI,53949,KMSN
3084,55078,Menominee County,WI,54135,KGRB
3085,55079,Milwaukee County,WI,53217,KMKE
3086,55081,Monroe County,WI,54618,KLSE
3087,55083,Oconto County,WI,54157,KGRB
3088,55085,Oneida County,WI,54538,KRHI
3089,55087,Outagamie County,WI,54914,KATW
3090,55089,Ozaukee County,WI,53080,KMKE
3091,55091,Pepin County,WI,54721,KEAU
3092,55093,Pierce County,WI,54721,KEAU
3093,55095,Polk County,WI,54004,KEAU
3094,55097,Portage County,WI,54482,KCWA
3095,55099,Price County,WI,54538,KRHI
3096,55101,Racine County,WI,53404,KMKE
3097,55103,Richland County,WI,53556,KMSN
3098,55105,Rock County,WI,53545,KMSN
3099,55107,Rusk County,WI,54526,KEAU
3100,55109,St. Croix County,WI,54028,KEAU
3101,55111,Sauk County,WI,53556,KMSN
3102,55113,Sawyer County,WI,54876,KEAU
3103,55115,Shawano County,WI,54166,KGRB
3104,55117,Sheboygan County,WI,53085,KATW
3105,55119,Taylor County,WI,54771,KEAU
3106,55121,Trempealeau County,WI,54770,KEAU
3107,55123,Vernon County,WI,53968,KLSE
3108,55125,Vilas County,WI,54538,KRHI
3109,55127,Walworth County,WI,53125,KRFD
3110,55129,Washburn County,WI,54830,KDLH
3111,55131,Washington County,WI,53080,KMKE
3112,55133,Waukesha County,WI,53186,KMKE
3113,55135,Waupaca County,WI,54486,KCWA
3114,55137,Waushara County,WI,54970,KATW
3115,55139,Winnebago County,WI,54904,KATW
3116,55141,Wood County,WI,54469,KCWA
3117,56001,Albany County,WY,82073,KLAR
3118,56003,Big Horn County,WY,82423,KCOD
3119,56005,Campbell County,WY,82701,KRAP
3120,56007,Carbon County,WY,82083,KLAR
3121,56009,Converse County,WY,82633,KCPR
3122,56011,Crook County,WY,82729,KGCC
3123,56013,Fremont County,WY,82520,KRIW
3124,56015,Goshen County,WY,82244,KBFF
3125,56017,Hot Springs County,WY,82443,KRIW
3126,56019,Johnson County,WY,82832,KGCC
3127,56021,Laramie County,WY,82009,KCYS
3128,56023,Lincoln County,WY,83127,KJAC
3129,56025,Natrona County,WY,82605,KCPR
3130,56027,Niobrara County,WY,82701,KRAP
3131,56029,Park County,WY,82190,KWYS
3132,56031,Platte County,WY,82214,KBFF
3133,56033,Sheridan County,WY,82832,KGCC
3134,56035,Sublette County,WY,82923,KRIW
3135,56037,Sweetwater County,WY,82901,KRKS
3136,56039,Teton County,WY,83002,KJAC
3137,56041,Uinta County,WY,82931,KOGD
3138,56043,Washakie County,WY,82442,KRIW
3139,56045,Weston County,WY,82701,KRAP
