FIPs,County,State,Zip_Code
1001,Autauga County,AL,36091
1003,Baldwin County,AL,36502
1005,Barbour County,AL,36017
1007,Bibb County,AL,35115
1009,Blount County,AL,35063
1011,Bullock County,AL,36029
1013,Butler County,AL,36071
1015,Calhoun County,AL,36205
1017,Chambers County,AL,36854
1019,Cherokee County,AL,35984
1021,Chilton County,AL,35115
1023,Choctaw County,AL,36915
1025,Clarke County,AL,36540
1027,Clay County,AL,36251
1029,Cleburne County,AL,36264
1031,Coffee County,AL,36323
1033,Colbert County,AL,35672
1035,Conecuh County,AL,36502
1037,Coosa County,AL,35151
1039,Covington County,AL,36476
1041,Crenshaw County,AL,36323
1043,Cullman County,AL,35619
1045,Dale County,AL,36360
1047,Dallas County,AL,36758
1049,DeKalb County,AL,35968
1051,Elmore County,AL,36024
1053,Escambia County,AL,36502
1055,Etowah County,AL,35901
1057,Fayette County,AL,35554
1059,Franklin County,AL,35585
1061,Geneva County,AL,36305
1063,Greene County,AL,35480
1065,Hale County,AL,36744
1067,Henry County,AL,36317
1069,Houston County,AL,36320
1071,Jackson County,AL,35751
1073,Jefferson County,AL,35022
1075,Lamar County,AL,35576
1077,Lauderdale County,AL,35614
1079,Lawrence County,AL,35619
1081,Lee County,AL,36874
1083,Limestone County,AL,35614
1085,Lowndes County,AL,36043
1087,Macon County,AL,36039
1089,Madison County,AL,35803
1091,Marengo County,AL,36722
1093,Marion County,AL,35554
1095,Marshall County,AL,35175
1097,Mobile County,AL,36571
1099,Monroe County,AL,36444
1101,Montgomery County,AL,36043
1103,Morgan County,AL,35175
1105,Perry County,AL,36786
1107,Pickens County,AL,35576
1109,Pike County,AL,36082
1111,Randolph County,AL,36264
1113,Russell County,AL,36874
1115,St. Clair County,AL,35135
1117,Shelby County,AL,35022
1119,Sumter County,AL,36925
1121,Talladega County,AL,35014
1123,Tallapoosa County,AL,36251
1125,Tuscaloosa County,AL,35184
1127,Walker County,AL,35130
1129,Washington County,AL,36529
1131,Wilcox County,AL,36722
1133,Winston County,AL,35541
2013,Aleutians East Borough,AK,99661
2016,Aleutians West Census Area,AK,99692
2020,Anchorage Municipality,AK,99523
2050,Bethel Census Area,AK,99614
2060,Bristol Bay Borough,AK,99670
2068,Denali Borough,AK,99744
2070,Dillingham Census Area,AK,99628
2090,Fairbanks North Star Borough,AK,99712
2100,Haines Borough,AK,99827
2105,Hoonah-Angoon Census Area,AK,99825
2110,Juneau City and Borough,AK,99801
2122,Kenai Peninsula Borough,AK,99672
2130,Ketchikan Gateway Borough,AK,99901
2150,Kodiak Island Borough,AK,99643
2164,Lake and Peninsula Borough,AK,99625
2170,Matanuska-Susitna Borough,AK,99654
2180,Nome Census Area,AK,99769
2185,North Slope Borough,AK,99747
2188,Northwest Arctic Borough,AK,99749
2195,Petersburg Census Area,AK,99836
2198,Prince of Wales-Hyder Census Area,AK,99923
2220,Sitka City and Borough,AK,99835
2230,Skagway Municipality,AK,99840
2240,Southeast Fairbanks Census Area,AK,99738
2261,Valdez-Cordova Census Area,AK,99588
2275,Wrangell City and Borough,AK,99903
2282,Yakutat City and Borough,AK,99689
2290,Yukon-Koyukuk Census Area,AK,99627
4001,Apache County,AZ,86556
4003,Cochise County,AZ,85617
4005,Coconino County,AZ,86002
4007,Gila County,AZ,85541
4009,Graham County,AZ,85543
4011,Greenlee County,AZ,85534
4012,La Paz County,AZ,85359
4013,Maricopa County,AZ,85040
4015,Mohave County,AZ,86442
4017,Navajo County,AZ,85942
4019,Pima County,AZ,85730
4021,Pinal County,AZ,85117
4023,Santa Cruz County,AZ,85640
4025,Yavapai County,AZ,86314
4027,Yuma County,AZ,85364
5001,Arkansas County,AR,72073
5003,Ashley County,AR,71663
5005,Baxter County,AR,72531
5007,Benton County,AR,72732
5009,Boone County,AR,72685
5011,Bradley County,AR,71651
5013,Calhoun County,AR,71701
5015,Carroll County,AR,72740
5017,Chicot County,AR,71653
5019,Clark County,AR,71728
5021,Clay County,AR,72430
5023,Cleburne County,AR,72153
5025,Cleveland County,AR,72057
5027,Columbia County,AR,71861
5029,Conway County,AR,72001
5031,Craighead County,AR,72421
5033,Crawford County,AR,72956
5035,Crittenden County,AR,72327
5037,Cross County,AR,72396
5039,Dallas County,AR,71725
5041,Desha County,AR,71662
5043,Drew County,AR,71677
5045,Faulkner County,AR,72039
5047,Franklin County,AR,72933
5049,Fulton County,AR,72542
5051,Garland County,AR,71933
5053,Grant County,AR,72057
5055,Greene County,AR,72436
5057,Hempstead County,AR,71862
5059,Hot Spring County,AR,71933
5061,Howard County,AR,71971
5063,Independence County,AR,72112
5065,Izard County,AR,72561
5067,Jackson County,AR,72112
5069,Jefferson County,AR,72073
5071,Johnson County,AR,72830
5073,Lafayette County,AR,71861
5075,Lawrence County,AR,72440
5077,Lee County,AR,72366
5079,Lincoln County,AR,71603
5081,Little River County,AR,71853
5083,Logan County,AR,72933
5085,Lonoke County,AR,72037
5087,Madison County,AR,72703
5089,Marion County,AR,72661
5091,Miller County,AR,71834
5093,Mississippi County,AR,72330
5095,Monroe County,AR,72021
5097,Montgomery County,AR,71933
5099,Nevada County,AR,71858
5101,Newton County,AR,72628
5103,Ouachita County,AR,71701
5105,Perry County,AR,72001
5107,Phillips County,AR,72366
5109,Pike County,AR,71971
5111,Poinsett County,AR,72421
5113,Polk County,AR,71944
5115,Pope County,AR,72801
5117,Prairie County,AR,72170
5119,Pulaski County,AR,72116
5121,Randolph County,AR,72413
5123,St. Francis County,AR,72021
5125,Saline County,AR,72019
5127,Scott County,AR,72944
5129,Searcy County,AR,72686
5131,Sebastian County,AR,72903
5133,Sevier County,AR,71832
5135,Sharp County,AR,72542
5137,Stone County,AR,72153
5139,Union County,AR,71730
5141,Van Buren County,AR,72013
5143,Washington County,AR,72703
5145,White County,AR,72010
5147,Woodruff County,AR,72112
5149,Yell County,AR,72857
6001,Alameda County,CA,94501
6003,Alpine County,CA,96120
6005,Amador County,CA,95666
6007,Butte County,CA,95917
6009,Calaveras County,CA,95228
6011,Colusa County,CA,95645
6013,Contra Costa County,CA,94509
6015,Del Norte County,CA,95538
6017,El Dorado County,CA,95666
6019,Fresno County,CA,93625
6021,Glenn County,CA,95951
6023,Humboldt County,CA,95540
6025,Imperial County,CA,92243
6027,Inyo County,CA,93549
6029,Kern County,CA,93304
6031,Kings County,CA,93239
6033,Lake County,CA,95457
6035,Lassen County,CA,96114
6037,Los Angeles County,CA,90013
6039,Madera County,CA,93639
6041,Marin County,CA,94979
6043,Mariposa County,CA,95369
6045,Mendocino County,CA,95490
6047,Merced County,CA,95340
6049,Modoc County,CA,96134
6051,Mono County,CA,93546
6053,Monterey County,CA,93426
6055,Napa County,CA,94574
6057,Nevada County,CA,96162
6059,Orange County,CA,90638
6061,Placer County,CA,95631
6063,Plumas County,CA,95983
6065,Riverside County,CA,92373
6067,Sacramento County,CA,95630
6069,San Benito County,CA,95004
6071,San Bernardino County,CA,92344
6073,San Diego County,CA,91901
6075,San Francisco County,CA,94109
6077,San Joaquin County,CA,95202
6079,San Luis Obispo County,CA,93420
6081,San Mateo County,CA,94404
6083,Santa Barbara County,CA,93105
6085,Santa Clara County,CA,94550
6087,Santa Cruz County,CA,95033
6089,Shasta County,CA,96001
6091,Sierra County,CA,96118
6093,Siskiyou County,CA,96134
6095,Solano County,CA,94590
6097,Sonoma County,CA,95448
6099,Stanislaus County,CA,94550
6101,Sutter County,CA,95645
6103,Tehama County,CA,96022
6105,Trinity County,CA,95595
6107,Tulare County,CA,93247
6109,Tuolumne County,CA,95311
6111,Ventura County,CA,91304
6113,Yolo County,CA,95616
6115,Yuba County,CA,95977
8001,Adams County,CO,80229
8003,Alamosa County,CO,81101
8005,Arapahoe County,CO,80013
8007,Archuleta County,CO,81137
8009,Baca County,CO,81029
8011,Bent County,CO,81057
8013,Boulder County,CO,80533
8014,Broomfield County,CO,80038
8015,Chaffee County,CO,81236
8017,Cheyenne County,CO,80825
8019,Clear Creek County,CO,80439
8021,Conejos County,CO,81120
8023,Costilla County,CO,81120
8025,Crowley County,CO,81039
8027,Custer County,CO,81252
8029,Delta County,CO,81410
8031,Denver County,CO,80110
8033,Dolores County,CO,81324
8035,Douglas County,CO,80104
8037,Eagle County,CO,81645
8039,Elbert County,CO,80832
8041,El Paso County,CO,80903
8043,Fremont County,CO,81240
8045,Garfield County,CO,81641
8047,Gilpin County,CO,80422
8049,Grand County,CO,80446
8051,Gunnison County,CO,81225
8053,Hinsdale County,CO,81235
8055,Huerfano County,CO,81040
8057,Jackson County,CO,80430
8059,Jefferson County,CO,80439
8061,Kiowa County,CO,81045
8063,Kit Carson County,CO,80834
8065,Lake County,CO,80461
8067,La Plata County,CO,81326
8069,Larimer County,CO,80549
8071,Las Animas County,CO,81039
8073,Lincoln County,CO,81076
8075,Logan County,CO,80741
8077,Mesa County,CO,81523
8079,Mineral County,CO,81154
8081,Moffat County,CO,81638
8083,Montezuma County,CO,81335
8085,Montrose County,CO,81402
8087,Morgan County,CO,80701
8089,Otero County,CO,81039
8091,Ouray County,CO,81432
8093,Park County,CO,80827
8095,Phillips County,CO,80731
8097,Pitkin County,CO,81654
8099,Prowers County,CO,81052
8101,Pueblo County,CO,81039
8103,Rio Blanco County,CO,81638
8105,Rio Grande County,CO,81135
8107,Routt County,CO,81638
8109,Saguache County,CO,81155
8111,San Juan County,CO,81432
8113,San Miguel County,CO,81435
8115,Sedgwick County,CO,80721
8117,Summit County,CO,80443
8119,Teller County,CO,80813
8121,Washington County,CO,80741
8123,Weld County,CO,80642
8125,Yuma County,CO,80758
9001,Fairfield County,CT,6484
9003,Hartford County,CT,6040
9005,Litchfield County,CT,6021
9007,Middlesex County,CT,6073
9009,New Haven County,CT,6422
9011,New London County,CT,6231
9013,Tolland County,CT,6066
9015,Windham County,CT,6277
10001,Kent County,DE,19977
10003,New Castle County,DE,19711
10005,Sussex County,DE,19958
11001,District of Columbia,DC,20001
12001,Alachua County,FL,32601
12003,Baker County,FL,32234
12005,Bay County,FL,32405
12007,Bradford County,FL,32091
12009,Brevard County,FL,32901
12011,Broward County,FL,33019
12013,Calhoun County,FL,32420
12015,Charlotte County,FL,34223
12017,Citrus County,FL,34449
12019,Clay County,FL,32050
12021,Collier County,FL,34119
12023,Columbia County,FL,32038
12027,DeSoto County,FL,34268
12029,Dixie County,FL,32008
12031,Duval County,FL,32233
12033,Escambia County,FL,32506
12035,Flagler County,FL,32145
12037,Franklin County,FL,32320
12039,Gadsden County,FL,32324
12041,Gilchrist County,FL,32008
12043,Glades County,FL,33944
12045,Gulf County,FL,32456
12047,Hamilton County,FL,32052
12049,Hardee County,FL,33841
12051,Hendry County,FL,33975
12053,Hernando County,FL,34601
12055,Highlands County,FL,33843
12057,Hillsborough County,FL,33511
12059,Holmes County,FL,32455
12061,Indian River County,FL,32963
12063,Jackson County,FL,32443
12065,Jefferson County,FL,32309
12067,Lafayette County,FL,32008
12069,Lake County,FL,32195
12071,Lee County,FL,33907
12073,Leon County,FL,32305
12075,Levy County,FL,34449
12077,Liberty County,FL,32334
12079,Madison County,FL,32350
12081,Manatee County,FL,34208
12083,Marion County,FL,32195
12085,Martin County,FL,33478
12086,Miami-Dade County,FL,33015
12087,Monroe County,FL,33040
12089,Nassau County,FL,32046
12091,Okaloosa County,FL,32547
12093,Okeechobee County,FL,34972
12095,Orange County,FL,32710
12097,Osceola County,FL,34746
12099,Palm Beach County,FL,33403
12101,Pasco County,FL,34653
12103,Pinellas County,FL,33701
12105,Polk County,FL,33547
12107,Putnam County,FL,32131
12109,St. Johns County,FL,32131
12111,St. Lucie County,FL,34951
12113,Santa Rosa County,FL,32571
12115,Sarasota County,FL,34223
12117,Seminole County,FL,32701
12119,Sumter County,FL,34731
12121,Suwannee County,FL,32038
12123,Taylor County,FL,32357
12125,Union County,FL,32058
12127,Volusia County,FL,32170
12129,Wakulla County,FL,32326
12131,Walton County,FL,32455
12133,Washington County,FL,32428
13001,Appling County,GA,31557
13003,Atkinson County,GA,31552
13005,Bacon County,GA,31551
13007,Baker County,GA,39841
13009,Baldwin County,GA,31033
13011,Banks County,GA,30511
13013,Barrow County,GA,30548
13015,Bartow County,GA,30123
13017,Ben Hill County,GA,31001
13019,Berrien County,GA,31622
13021,Bibb County,GA,31211
13023,Bleckley County,GA,31036
13025,Brantley County,GA,31543
13027,Brooks County,GA,31625
13029,Bryan County,GA,31302
13031,Bulloch County,GA,31308
13033,Burke County,GA,30426
13035,Butts County,GA,30223
13037,Calhoun County,GA,39840
13039,Camden County,GA,31548
13043,Candler County,GA,30420
13045,Carroll County,GA,30179
13047,Catoosa County,GA,30707
13049,Charlton County,GA,31537
13051,Chatham County,GA,31302
13053,Chattahoochee County,GA,31905
13055,Chattooga County,GA,30105
13057,Cherokee County,GA,30534
13059,Clarke County,GA,30604
13061,Clay County,GA,39854
13063,Clayton County,GA,30236
13065,Clinch County,GA,31642
13067,Cobb County,GA,30068
13069,Coffee County,GA,31532
13071,Colquitt County,GA,31738
13073,Columbia County,GA,30824
13075,Cook County,GA,31647
13077,Coweta County,GA,30271
13079,Crawford County,GA,31016
13081,Crisp County,GA,31072
13083,Dade County,GA,30752
13085,Dawson County,GA,30534
13087,Decatur County,GA,39834
13089,DeKalb County,GA,30032
13091,Dodge County,GA,31011
13093,Dooly County,GA,31072
13095,Dougherty County,GA,31791
13097,Douglas County,GA,30134
13099,Early County,GA,39841
13101,Echols County,GA,31636
13103,Effingham County,GA,31302
13105,Elbert County,GA,30635
13107,Emanuel County,GA,30457
13109,Evans County,GA,30423
13111,Fannin County,GA,30541
13113,Fayette County,GA,30269
13115,Floyd County,GA,30124
13117,Forsyth County,GA,30534
13119,Franklin County,GA,30520
13121,Fulton County,GA,30076
13123,Gilmer County,GA,30534
13125,Glascock County,GA,30810
13127,Glynn County,GA,31543
13129,Gordon County,GA,30701
13131,Grady County,GA,39834
13133,Greene County,GA,30677
13135,Gwinnett County,GA,30043
13137,Habersham County,GA,30511
13139,Hall County,GA,30518
13141,Hancock County,GA,30678
13143,Haralson County,GA,30179
13145,Harris County,GA,31811
13147,Hart County,GA,30520
13149,Heard County,GA,30108
13151,Henry County,GA,30236
13153,Houston County,GA,31025
13155,Irwin County,GA,31733
13157,Jackson County,GA,30548
13159,Jasper County,GA,30014
13161,Jeff Davis County,GA,31532
13163,Jefferson County,GA,30810
13165,Jenkins County,GA,30442
13167,Johnson County,GA,31002
13169,Jones County,GA,31211
13171,Lamar County,GA,31016
13173,Lanier County,GA,31605
13175,Laurens County,GA,31002
13177,Lee County,GA,31787
13179,Liberty County,GA,31316
13181,Lincoln County,GA,30817
13183,Long County,GA,31316
13185,Lowndes County,GA,31636
13187,Lumpkin County,GA,30534
13189,McDuffie County,GA,30824
13191,McIntosh County,GA,31319
13193,Macon County,GA,31711
13195,Madison County,GA,30565
13197,Marion County,GA,31801
13199,Meriwether County,GA,30241
13201,Miller County,GA,39841
13205,Mitchell County,GA,31744
13207,Monroe County,GA,31016
13209,Montgomery County,GA,30457
13211,Morgan County,GA,30625
13213,Murray County,GA,30711
13215,Muscogee County,GA,31801
13217,Newton County,GA,30014
13219,Oconee County,GA,30638
13221,Oglethorpe County,GA,30630
13223,Paulding County,GA,30134
13225,Peach County,GA,31076
13227,Pickens County,GA,30534
13229,Pierce County,GA,31551
13231,Pike County,GA,30206
13233,Polk County,GA,30124
13235,Pulaski County,GA,31036
13237,Putnam County,GA,30625
13239,Quitman County,GA,39854
13241,Rabun County,GA,30568
13243,Randolph County,GA,39840
13245,Richmond County,GA,30912
13247,Rockdale County,GA,30016
13249,Schley County,GA,31711
13251,Screven County,GA,30424
13253,Seminole County,GA,39825
13255,Spalding County,GA,30223
13257,Stephens County,GA,30598
13259,Stewart County,GA,39854
13261,Sumter County,GA,31711
13263,Talbot County,GA,31801
13265,Taliaferro County,GA,30673
13267,Tattnall County,GA,30420
13269,Taylor County,GA,31076
13271,Telfair County,GA,31037
13273,Terrell County,GA,31721
13275,Thomas County,GA,31738
13277,Tift County,GA,31733
13279,Toombs County,GA,30436
13281,Towns County,GA,30582
13283,Treutlen County,GA,30457
13285,Troup County,GA,30241
13287,Turner County,GA,31714
13289,Twiggs County,GA,31031
13291,Union County,GA,30514
13293,Upson County,GA,31016
13295,Walker County,GA,30752
13297,Walton County,GA,30014
13299,Ware County,GA,31552
13301,Warren County,GA,30824
13303,Washington County,GA,31096
13305,Wayne County,GA,31543
13307,Webster County,GA,31825
13309,Wheeler County,GA,30411
13311,White County,GA,30527
13313,Whitfield County,GA,30722
13315,Wilcox County,GA,31072
13317,Wilkes County,GA,30817
13319,Wilkinson County,GA,31021
13321,Worth County,GA,31791
15001,Hawaii County,HI,96740
15003,Honolulu County,HI,96792
15005,Kalawao County,HI,96742
15007,Kauai County,HI,96754
15009,Maui County,HI,96748
16001,Ada County,ID,83642
16003,Adams County,ID,83638
16005,Bannock County,ID,83205
16007,Bear Lake County,ID,83238
16009,Benewah County,ID,83830
16011,Bingham County,ID,83236
16013,Blaine County,ID,83354
16015,Boise County,ID,83637
16017,Bonner County,ID,83822
16019,Bonneville County,ID,83442
16021,Boundary County,ID,83805
16023,Butte County,ID,83244
16025,Camas County,ID,83322
16027,Canyon County,ID,83686
16029,Caribou County,ID,83217
16031,Cassia County,ID,83318
16033,Clark County,ID,83423
16035,Clearwater County,ID,83544
16037,Custer County,ID,83253
16039,Elmore County,ID,83648
16041,Franklin County,ID,83237
16043,Fremont County,ID,83425
16045,Gem County,ID,83629
16047,Gooding County,ID,83330
16049,Idaho County,ID,83549
16051,Jefferson County,ID,83434
16053,Jerome County,ID,83325
16055,Kootenai County,ID,83810
16057,Latah County,ID,83844
16059,Lemhi County,ID,83253
16061,Lewis County,ID,83555
16063,Lincoln County,ID,83330
16065,Madison County,ID,83434
16067,Minidoka County,ID,83343
16069,Nez Perce County,ID,83555
16071,Oneida County,ID,83252
16073,Owyhee County,ID,83639
16075,Payette County,ID,83619
16077,Power County,ID,83204
16079,Shoshone County,ID,83830
16081,Teton County,ID,83424
16083,Twin Falls County,ID,83303
16085,Valley County,ID,83638
16087,Washington County,ID,83632
17001,Adams County,IL,62301
17003,Alexander County,IL,62914
17005,Bond County,IL,62249
17007,Boone County,IL,61114
17009,Brown County,IL,62375
17011,Bureau County,IL,61560
17013,Calhoun County,IL,62047
17015,Carroll County,IL,61053
17017,Cass County,IL,62627
17019,Champaign County,IL,61864
17021,Christian County,IL,62545
17023,Clark County,IL,62478
17025,Clay County,IL,62448
17027,Clinton County,IL,62249
17029,Coles County,IL,62447
17031,Cook County,IL,60067
17033,Crawford County,IL,62466
17035,Cumberland County,IL,62447
17037,DeKalb County,IL,60152
17039,De Witt County,IL,61735
17041,Douglas County,IL,61872
17043,DuPage County,IL,60517
17045,Edgar County,IL,61933
17047,Edwards County,IL,62815
17049,Effingham County,IL,62479
17051,Fayette County,IL,62011
17053,Ford County,IL,60921
17055,Franklin County,IL,62822
17057,Fulton County,IL,61531
17059,Gallatin County,IL,62821
17061,Greene County,IL,62027
17063,Grundy County,IL,60424
17065,Hamilton County,IL,62828
17067,Hancock County,IL,62379
17069,Hardin County,IL,62947
17071,Henderson County,IL,61418
17073,Henry County,IL,61254
17075,Iroquois County,IL,60912
17077,Jackson County,IL,62272
17079,Jasper County,IL,62448
17081,Jefferson County,IL,62864
17083,Jersey County,IL,62035
17085,Jo Daviess County,IL,61085
17087,Johnson County,IL,62972
17089,Kane County,IL,60136
17091,Kankakee County,IL,60424
17093,Kendall County,IL,60544
17095,Knox County,IL,61412
17097,Lake County,IL,60051
17099,LaSalle County,IL,61360
17101,Lawrence County,IL,62439
17103,Lee County,IL,60553
17105,Livingston County,IL,60921
17107,Logan County,IL,62634
17109,McDonough County,IL,61440
17111,McHenry County,IL,60051
17113,McLean County,IL,61723
17115,Macon County,IL,62573
17117,Macoupin County,IL,62069
17119,Madison County,IL,62035
17121,Marion County,IL,62885
17123,Marshall County,IL,61523
17125,Mason County,IL,61546
17127,Massac County,IL,62960
17129,Menard County,IL,62625
17131,Mercer County,IL,61412
17133,Monroe County,IL,62278
17135,Montgomery County,IL,62069
17137,Morgan County,IL,62621
17139,Moultrie County,IL,61937
17141,Ogle County,IL,61047
17143,Peoria County,IL,61523
17145,Perry County,IL,62268
17147,Piatt County,IL,61936
17149,Pike County,IL,62314
17151,Pope County,IL,62960
17153,Pulaski County,IL,62956
17155,Putnam County,IL,61560
17157,Randolph County,IL,62278
17159,Richland County,IL,62448
17161,Rock Island County,IL,61282
17163,St. Clair County,IL,62223
17165,Saline County,IL,62972
17167,Sangamon County,IL,62545
17169,Schuyler County,IL,62624
17171,Scott County,IL,62621
17173,Shelby County,IL,62465
17175,Stark County,IL,61449
17177,Stephenson County,IL,61047
17179,Tazewell County,IL,61546
17181,Union County,IL,62952
17183,Vermilion County,IL,61841
17185,Wabash County,IL,62410
17187,Warren County,IL,61412
17189,Washington County,IL,62268
17191,Wayne County,IL,62837
17193,White County,IL,62821
17195,Whiteside County,IL,61254
17197,Will County,IL,60403
17199,Williamson County,IL,62918
17201,Winnebago County,IL,61047
17203,Woodford County,IL,61744
18001,Adams County,IN,46780
18003,Allen County,IN,46725
18005,Bartholomew County,IN,47274
18007,Benton County,IN,47944
18009,Blackford County,IN,47359
18011,Boone County,IN,46147
18013,Brown County,IN,47274
18015,Carroll County,IN,46915
18017,Cass County,IN,46998
18019,Clark County,IN,47119
18021,Clay County,IN,47802
18023,Clinton County,IN,46039
18025,Crawford County,IN,47175
18027,Daviess County,IN,47553
18029,Dearborn County,IN,47001
18031,Decatur County,IN,46156
18033,DeKalb County,IN,46747
18035,Delaware County,IN,46012
18037,Dubois County,IN,47523
18039,Elkhart County,IN,46514
18041,Fayette County,IN,47331
18043,Floyd County,IN,47164
18045,Fountain County,IN,47958
18047,Franklin County,IN,47060
18049,Fulton County,IN,46910
18051,Gibson County,IN,47633
18053,Grant County,IN,46933
18055,Greene County,IN,47441
18057,Hamilton County,IN,46268
18059,Hancock County,IN,46229
18061,Harrison County,IN,47164
18063,Hendricks County,IN,46158
18065,Henry County,IN,46056
18067,Howard County,IN,46902
18069,Huntington County,IN,46725
18071,Jackson County,IN,47229
18073,Jasper County,IN,46380
18075,Jay County,IN,47390
18077,Jefferson County,IN,47224
18079,Jennings County,IN,47229
18081,Johnson County,IN,46106
18083,Knox County,IN,47596
18085,Kosciusko County,IN,46504
18087,LaGrange County,IN,46746
18089,Lake County,IN,46311
18091,LaPorte County,IN,46391
18093,Lawrence County,IN,47108
18095,Madison County,IN,46040
18097,Marion County,IN,46201
18099,Marshall County,IN,46504
18101,Martin County,IN,47633
18103,Miami County,IN,46910
18105,Monroe County,IN,47408
18107,Montgomery County,IN,47990
18109,Morgan County,IN,46158
18111,Newton County,IN,46310
18113,Noble County,IN,46725
18115,Ohio County,IN,47001
18117,Orange County,IN,47108
18119,Owen County,IN,46166
18121,Parke County,IN,46135
18123,Perry County,IN,47588
18125,Pike County,IN,47660
18127,Porter County,IN,46301
18129,Posey County,IN,47620
18131,Pulaski County,IN,47960
18133,Putnam County,IN,47840
18135,Randolph County,IN,47355
18137,Ripley County,IN,47224
18139,Rush County,IN,46156
18141,St. Joseph County,IN,46613
18143,Scott County,IN,47141
18145,Shelby County,IN,47240
18147,Spencer County,IN,47523
18149,Starke County,IN,46374
18151,Steuben County,IN,46737
18153,Sullivan County,IN,47850
18155,Switzerland County,IN,47224
18157,Tippecanoe County,IN,47901
18159,Tipton County,IN,46902
18161,Union County,IN,47331
18163,Vanderburgh County,IN,47633
18165,Vermillion County,IN,47854
18167,Vigo County,IN,47802
18169,Wabash County,IN,46919
18171,Warren County,IN,47991
18173,Warrick County,IN,47660
18175,Washington County,IN,47108
18177,Wayne County,IN,47346
18179,Wells County,IN,46798
18181,White County,IN,47950
18183,Whitley County,IN,46725
19001,Adair County,IA,50002
19003,Adams County,IA,50857
19005,Allamakee County,IA,52170
19007,Appanoose County,IA,52574
19009,Audubon County,IA,50117
19011,Benton County,IA,50651
19013,Black Hawk County,IA,50701
19015,Boone County,IA,50220
19017,Bremer County,IA,50622
19019,Buchanan County,IA,50651
19021,Buena Vista County,IA,50568
19023,Butler County,IA,50433
19025,Calhoun County,IA,50579
19027,Carroll County,IA,51466
19029,Cass County,IA,51532
19031,Cedar County,IA,52253
19033,Cerro Gordo County,IA,50458
19035,Cherokee County,IA,51047
19037,Chickasaw County,IA,52132
19039,Clarke County,IA,50222
19041,Clay County,IA,51047
19043,Clayton County,IA,52035
19045,Clinton County,IA,52069
19047,Crawford County,IA,51006
19049,Dallas County,IA,50063
19051,Davis County,IA,52560
19053,Decatur County,IA,50108
19055,Delaware County,IA,52065
19057,Des Moines County,IA,52640
19059,Dickinson County,IA,51347
19061,Dubuque County,IA,52033
19063,Emmet County,IA,51365
19065,Fayette County,IA,50655
19067,Floyd County,IA,50458
19069,Franklin County,IA,50071
19071,Fremont County,IA,51647
19073,Greene County,IA,50220
19075,Grundy County,IA,50638
19077,Guthrie County,IA,50002
19079,Hamilton County,IA,50236
19081,Hancock County,IA,50447
19083,Hardin County,IA,50206
19085,Harrison County,IA,51550
19087,Henry County,IA,52656
19089,Howard County,IA,50628
19091,Humboldt County,IA,50519
19093,Ida County,IA,51006
19095,Iowa County,IA,52361
19097,Jackson County,IA,52069
19099,Jasper County,IA,50170
19101,Jefferson County,IA,52641
19103,Johnson County,IA,52240
19105,Jones County,IA,52033
19107,Keokuk County,IA,50268
19109,Kossuth County,IA,50480
19111,Lee County,IA,52656
19113,Linn County,IA,52213
19115,Louisa County,IA,52659
19117,Lucas County,IA,50060
19119,Lyon County,IA,51201
19121,Madison County,IA,50222
19123,Mahaska County,IA,50268
19125,Marion County,IA,50170
19127,Marshall County,IA,50206
19129,Mills County,IA,51551
19131,Mitchell County,IA,50458
19133,Monona County,IA,51572
19135,Monroe County,IA,52553
19137,Montgomery County,IA,50857
19139,Muscatine County,IA,52720
19141,O'Brien County,IA,51201
19143,Osceola County,IA,51201
19145,Page County,IA,51647
19147,Palo Alto County,IA,50546
19149,Plymouth County,IA,51109
19151,Pocahontas County,IA,50568
19153,Polk County,IA,50109
19155,Pottawattamie County,IA,51525
19157,Poweshiek County,IA,52339
19159,Ringgold County,IA,50861
19161,Sac County,IA,50568
19163,Scott County,IA,52748
19165,Shelby County,IA,51578
19167,Sioux County,IA,51201
19169,Story County,IA,50201
19171,Tama County,IA,50638
19173,Taylor County,IA,50857
19175,Union County,IA,50861
19177,Van Buren County,IA,52570
19179,Wapello County,IA,52553
19181,Warren County,IA,50125
19183,Washington County,IA,52247
19185,Wayne County,IA,50060
19187,Webster County,IA,50530
19189,Winnebago County,IA,50465
19191,Winneshiek County,IA,52132
19193,Woodbury County,IA,51006
19195,Worth County,IA,50440
19197,Wright County,IA,50071
20001,Allen County,KS,66749
20003,Anderson County,KS,66014
20005,Atchison County,KS,66058
20007,Barber County,KS,67104
20009,Barton County,KS,67665
20011,Bourbon County,KS,66738
20013,Brown County,KS,66094
20015,Butler County,KS,67042
20017,Chase County,KS,66869
20019,Chautauqua County,KS,67344
20021,Cherokee County,KS,67336
20023,Cheyenne County,KS,67741
20025,Clark County,KS,67834
20027,Clay County,KS,67410
20029,Cloud County,KS,66935
20031,Coffey County,KS,66783
20033,Comanche County,KS,67029
20035,Cowley County,KS,67005
20037,Crawford County,KS,66712
20039,Decatur County,KS,67749
20041,Dickinson County,KS,66441
20043,Doniphan County,KS,66094
20045,Douglas County,KS,66049
20047,Edwards County,KS,67054
20049,Elk County,KS,67344
20051,Ellis County,KS,67640
20053,Ellsworth County,KS,67423
20055,Finney County,KS,67851
20057,Ford County,KS,67834
20059,Franklin County,KS,66033
20061,Geary County,KS,66441
20063,Gove County,KS,67748
20065,Graham County,KS,67625
20067,Grant County,KS,67855
20069,Gray County,KS,67844
20071,Greeley County,KS,67879
20073,Greenwood County,KS,66870
20075,Hamilton County,KS,67857
20077,Harper County,KS,67009
20079,Harvey County,KS,67117
20081,Haskell County,KS,67880
20083,Hodgeman County,KS,67854
20085,Jackson County,KS,66058
20087,Jefferson County,KS,66086
20089,Jewell County,KS,66939
20091,Johnson County,KS,66083
20093,Kearny County,KS,67838
20095,Kingman County,KS,67025
20097,Kiowa County,KS,67054
20099,Labette County,KS,67336
20101,Lane County,KS,67839
20103,Leavenworth County,KS,66086
20105,Lincoln County,KS,67455
20107,Linn County,KS,66014
20109,Logan County,KS,67748
20111,Lyon County,KS,66868
20113,McPherson County,KS,67448
20115,Marion County,KS,66869
20117,Marshall County,KS,66406
20119,Meade County,KS,67869
20121,Miami County,KS,66083
20123,Mitchell County,KS,67485
20125,Montgomery County,KS,67344
20127,Morris County,KS,66873
20129,Morton County,KS,67954
20131,Nemaha County,KS,66521
20133,Neosho County,KS,67341
20135,Ness County,KS,67518
20137,Norton County,KS,67629
20139,Osage County,KS,66414
20141,Osborne County,KS,67473
20143,Ottawa County,KS,66901
20145,Pawnee County,KS,67575
20147,Phillips County,KS,67644
20149,Pottawatomie County,KS,66547
20151,Pratt County,KS,67035
20153,Rawlins County,KS,67749
20155,Reno County,KS,67025
20157,Republic County,KS,66935
20159,Rice County,KS,67573
20161,Riley County,KS,66442
20163,Rooks County,KS,67659
20165,Rush County,KS,67575
20167,Russell County,KS,67665
20169,Saline County,KS,67448
20171,Scott County,KS,67851
20173,Sedgwick County,KS,67025
20175,Seward County,KS,67951
20177,Shawnee County,KS,66414
20179,Sheridan County,KS,67757
20181,Sherman County,KS,67732
20183,Smith County,KS,66967
20185,Stafford County,KS,67526
20187,Stanton County,KS,67855
20189,Stevens County,KS,67951
20191,Sumner County,KS,67026
20193,Thomas County,KS,67748
20195,Trego County,KS,67656
20197,Wabaunsee County,KS,66431
20199,Wallace County,KS,67861
20201,Washington County,KS,66943
20203,Wichita County,KS,67861
20205,Wilson County,KS,66736
20207,Woodson County,KS,66749
20209,Wyandotte County,KS,66115
21001,Adair County,KY,42129
21003,Allen County,KY,42133
21005,Anderson County,KY,40046
21007,Ballard County,KY,42024
21009,Barren County,KY,42133
21011,Bath County,KY,40358
21013,Bell County,KY,40958
21015,Boone County,KY,41048
21017,Bourbon County,KY,40311
21019,Boyd County,KY,41102
21021,Boyle County,KY,40468
21023,Bracken County,KY,41043
21025,Breathitt County,KY,41339
21027,Breckinridge County,KY,40146
21029,Bullitt County,KY,40229
21031,Butler County,KY,42101
21033,Caldwell County,KY,42211
21035,Calloway County,KY,42048
21037,Campbell County,KY,41074
21039,Carlisle County,KY,42039
21041,Carroll County,KY,40075
21043,Carter County,KY,41121
21045,Casey County,KY,40437
21047,Christian County,KY,42215
21049,Clark County,KY,40353
21051,Clay County,KY,40914
21053,Clinton County,KY,42602
21055,Crittenden County,KY,42038
21057,Cumberland County,KY,42129
21059,Daviess County,KY,42348
21061,Edmonson County,KY,42101
21063,Elliott County,KY,41171
21065,Estill County,KY,40312
21067,Fayette County,KY,40503
21069,Fleming County,KY,41056
21071,Floyd County,KY,41642
21073,Franklin County,KY,40621
21075,Fulton County,KY,42041
21077,Gallatin County,KY,41045
21079,Garrard County,KY,40403
21081,Grant County,KY,41097
21083,Graves County,KY,42054
21085,Grayson County,KY,42726
21087,Green County,KY,42716
21089,Greenup County,KY,41102
21091,Hancock County,KY,42348
21093,Hardin County,KY,40051
21095,Harlan County,KY,40927
21097,Harrison County,KY,40311
21099,Hart County,KY,42729
21101,Henderson County,KY,42419
21103,Henry County,KY,40019
21105,Hickman County,KY,42041
21107,Hopkins County,KY,42445
21109,Jackson County,KY,40481
21111,Jefferson County,KY,40269
21113,Jessamine County,KY,40383
21115,Johnson County,KY,41255
21117,Kenton County,KY,41017
21119,Knott County,KY,41339
21121,Knox County,KY,40903
21123,Larue County,KY,40051
21125,Laurel County,KY,40740
21127,Lawrence County,KY,41124
21129,Lee County,KY,41339
21131,Leslie County,KY,40858
21133,Letcher County,KY,41833
21135,Lewis County,KY,41056
21137,Lincoln County,KY,40437
21139,Livingston County,KY,42081
21141,Logan County,KY,42265
21143,Lyon County,KY,42038
21145,McCracken County,KY,42001
21147,McCreary County,KY,40769
21149,McLean County,KY,42352
21151,Madison County,KY,40403
21153,Magoffin County,KY,41464
21155,Marion County,KY,40037
21157,Marshall County,KY,42048
21159,Martin County,KY,41267
21161,Mason County,KY,41044
21163,Meade County,KY,40146
21165,Menifee County,KY,40346
21167,Mercer County,KY,40468
21169,Metcalfe County,KY,42166
21171,Monroe County,KY,42140
21173,Montgomery County,KY,40353
21175,Morgan County,KY,41421
21177,Muhlenberg County,KY,42367
21179,Nelson County,KY,40051
21181,Nicholas County,KY,40311
21183,Ohio County,KY,42354
21185,Oldham County,KY,40241
21187,Owen County,KY,41046
21189,Owsley County,KY,41311
21191,Pendleton County,KY,41097
21193,Perry County,KY,41339
21195,Pike County,KY,41519
21197,Powell County,KY,40376
21199,Pulaski County,KY,40409
21201,Robertson County,KY,41031
21203,Rockcastle County,KY,40403
21205,Rowan County,KY,40317
21207,Russell County,KY,42642
21209,Scott County,KY,40370
21211,Shelby County,KY,40019
21213,Simpson County,KY,42104
21215,Spencer County,KY,40046
21217,Taylor County,KY,42716
21219,Todd County,KY,42265
21221,Trigg County,KY,42038
21223,Trimble County,KY,40006
21225,Union County,KY,42459
21227,Warren County,KY,42101
21229,Washington County,KY,40468
21231,Wayne County,KY,42642
21233,Webster County,KY,42437
21235,Whitley County,KY,40769
21237,Wolfe County,KY,41311
21239,Woodford County,KY,40383
22001,Acadia Parish,LA,70543
22003,Allen Parish,LA,70640
22005,Ascension Parish,LA,70346
22007,Assumption Parish,LA,70346
22009,Avoyelles Parish,LA,71362
22011,Beauregard Parish,LA,70653
22013,Bienville Parish,LA,71070
22015,Bossier Parish,LA,71006
22017,Caddo Parish,LA,71103
22019,Calcasieu Parish,LA,70605
22021,Caldwell Parish,LA,71465
22023,Cameron Parish,LA,70630
22025,Catahoula Parish,LA,71340
22027,Claiborne Parish,LA,71256
22029,Concordia Parish,LA,71373
22031,De Soto Parish,LA,71063
22033,East Baton Rouge Parish,LA,70805
22035,East Carroll Parish,LA,71254
22037,East Feliciana Parish,LA,70748
22039,Evangeline Parish,LA,70580
22041,Franklin Parish,LA,71269
22043,Grant Parish,LA,71360
22045,Iberia Parish,LA,70560
22047,Iberville Parish,LA,70346
22049,Jackson Parish,LA,71238
22051,Jefferson Parish,LA,70058
22053,Jefferson Davis Parish,LA,70591
22055,Lafayette Parish,LA,70517
22057,Lafourche Parish,LA,70374
22059,La Salle Parish,LA,71479
22061,Lincoln Parish,LA,71275
22063,Livingston Parish,LA,70706
22065,Madison Parish,LA,71233
22067,Morehouse Parish,LA,71280
22069,Natchitoches Parish,LA,71070
22071,Orleans Parish,LA,70121
22073,Ouachita Parish,LA,71202
22075,Plaquemines Parish,LA,70041
22077,Pointe Coupee Parish,LA,70749
22079,Rapides Parish,LA,71438
22081,Red River Parish,LA,71115
22083,Richland Parish,LA,71269
22085,Sabine Parish,LA,71429
22087,St. Bernard Parish,LA,70092
22089,St. Charles Parish,LA,70087
22091,St. Helena Parish,LA,70706
22093,St. James Parish,LA,70346
22095,St. John the Baptist Parish,LA,70084
22097,St. Landry Parish,LA,71362
22099,St. Martin Parish,LA,70517
22101,St. Mary Parish,LA,70540
22103,St. Tammany Parish,LA,70420
22105,Tangipahoa Parish,LA,70454
22107,Tensas Parish,LA,71334
22109,Terrebonne Parish,LA,70360
22111,Union Parish,LA,71280
22113,Vermilion Parish,LA,70560
22115,Vernon Parish,LA,71429
22117,Washington Parish,LA,70444
22119,Webster Parish,LA,71075
22121,West Baton Rouge Parish,LA,70773
22123,West Carroll Parish,LA,71263
22125,West Feliciana Parish,LA,70748
22127,Winn Parish,LA,71070
23001,Androscoggin County,ME,4212
23003,Aroostook County,ME,4487
23005,Cumberland County,ME,4062
23007,Franklin County,ME,4984
23009,Hancock County,ME,4616
23011,Kennebec County,ME,4345
23013,Knox County,ME,4856
23015,Lincoln County,ME,4539
23017,Oxford County,ME,4220
23019,Penobscot County,ME,4487
23021,Piscataquis County,ME,4426
23023,Sagadahoc County,ME,4345
23025,Somerset County,ME,4942
23027,Waldo County,ME,4438
23029,Washington County,ME,4619
23031,York County,ME,3901
24001,Allegany County,MD,21529
24003,Anne Arundel County,MD,20779
24005,Baltimore County,MD,21043
24009,Calvert County,MD,20678
24011,Caroline County,MD,21636
24013,Carroll County,MD,21757
24015,Cecil County,MD,21914
24017,Charles County,MD,20693
24019,Dorchester County,MD,21613
24021,Frederick County,MD,20842
24023,Garrett County,MD,21531
24025,Harford County,MD,21014
24027,Howard County,MD,21043
24029,Kent County,MD,21645
24031,Montgomery County,MD,20815
24033,Prince George's County,MD,20705
24035,Queen Anne's County,MD,21619
24037,St. Mary's County,MD,20634
24039,Somerset County,MD,21817
24041,Talbot County,MD,21601
24043,Washington County,MD,21783
24045,Wicomico County,MD,21802
24047,Worcester County,MD,21872
24510,Baltimore city,MD,21202
25001,Barnstable County,MA,2642
25003,Berkshire County,MA,1026
25005,Bristol County,MA,2762
25007,Dukes County,MA,2535
25009,Essex County,MA,1810
25011,Franklin County,MA,1376
25013,Hampden County,MA,1085
25015,Hampshire County,MA,1026
25017,Middlesex County,MA,1462
25019,Nantucket County,MA,2584
25021,Norfolk County,MA,2026
25023,Plymouth County,MA,2738
25025,Suffolk County,MA,2026
25027,Worcester County,MA,1436
26001,Alcona County,MI,48728
26003,Alger County,MI,49891
26005,Allegan County,MI,49080
26007,Alpena County,MI,49744
26009,Antrim County,MI,49729
26011,Arenac County,MI,48650
26013,Baraga County,MI,49946
26015,Barry County,MI,48849
26017,Bay County,MI,48642
26019,Benzie County,MI,49617
26021,Berrien County,MI,49120
26023,Branch County,MI,49040
26025,Calhoun County,MI,49224
26027,Cass County,MI,49031
26029,Charlevoix County,MI,49729
26031,Cheboygan County,MI,49769
26033,Chippewa County,MI,49783
26035,Clare County,MI,48632
26037,Clinton County,MI,48840
26039,Crawford County,MI,48653
26041,Delta County,MI,49837
26043,Dickinson County,MI,49801
26045,Eaton County,MI,48849
26047,Emmet County,MI,49769
26049,Genesee County,MI,48462
26051,Gladwin County,MI,48624
26053,Gogebic County,MI,49938
26055,Grand Traverse County,MI,49686
26057,Gratiot County,MI,48811
26059,Hillsdale County,MI,49262
26061,Houghton County,MI,49931
26063,Huron County,MI,48413
26065,Ingham County,MI,49285
26067,Ionia County,MI,48849
26069,Iosco County,MI,48750
26071,Iron County,MI,49967
26073,Isabella County,MI,48632
26075,Jackson County,MI,49224
26077,Kalamazoo County,MI,49004
26079,Kalkaska County,MI,49690
26081,Kent County,MI,49323
26083,Keweenaw County,MI,49901
26085,Lake County,MI,49677
26087,Lapeer County,MI,48014
26089,Leelanau County,MI,49650
26091,Lenawee County,MI,49267
26093,Livingston County,MI,48137
26095,Luce County,MI,49853
26097,Mackinac County,MI,49762
26099,Macomb County,MI,48021
26101,Manistee County,MI,49638
26103,Marquette County,MI,49814
26105,Mason County,MI,49449
26107,Mecosta County,MI,49310
26109,Menominee County,MI,49847
26111,Midland County,MI,48642
26113,Missaukee County,MI,49651
26115,Monroe County,MI,49267
26117,Montcalm County,MI,48888
26119,Montmorency County,MI,49709
26121,Muskegon County,MI,49437
26123,Newaygo County,MI,49329
26125,Oakland County,MI,48178
26127,Oceana County,MI,49437
26129,Ogemaw County,MI,48624
26131,Ontonagon County,MI,49948
26133,Osceola County,MI,48632
26135,Oscoda County,MI,48728
26137,Otsego County,MI,49797
26139,Ottawa County,MI,49323
26141,Presque Isle County,MI,49759
26143,Roscommon County,MI,48629
26145,Saginaw County,MI,48420
26147,St. Clair County,MI,48022
26149,St. Joseph County,MI,49040
26151,Sanilac County,MI,48427
26153,Schoolcraft County,MI,49817
26155,Shiawassee County,MI,48476
26157,Tuscola County,MI,48420
26159,Van Buren County,MI,49043
26161,Washtenaw County,MI,48137
26163,Wayne County,MI,48124
26165,Wexford County,MI,49618
27001,Aitkin County,MN,55798
27003,Anoka County,MN,55014
27005,Becker County,MN,56570
27007,Beltrami County,MN,56678
27009,Benton County,MN,56379
27011,Big Stone County,MN,56219
27013,Blue Earth County,MN,56090
27015,Brown County,MN,55333
27017,Carlton County,MN,55798
27019,Carver County,MN,55331
27021,Cass County,MN,56636
27023,Chippewa County,MN,56295
27025,Chisago County,MN,55069
27027,Clay County,MN,56584
27029,Clearwater County,MN,56678
27031,Cook County,MN,55612
27033,Cottonwood County,MN,56180
27035,Crow Wing County,MN,56364
27037,Dakota County,MN,55306
27039,Dodge County,MN,55944
27041,Douglas County,MN,56343
27043,Faribault County,MN,56098
27045,Fillmore County,MN,55975
27047,Freeborn County,MN,56016
27049,Goodhue County,MN,55992
27051,Grant County,MN,56531
27053,Hennepin County,MN,55107
27055,Houston County,MN,55931
27057,Hubbard County,MN,56678
27059,Isanti County,MN,56353
27061,Itasca County,MN,55771
27063,Jackson County,MN,56159
27065,Kanabec County,MN,56353
27067,Kandiyohi County,MN,56312
27069,Kittson County,MN,56755
27071,Koochiching County,MN,55771
27073,Lac qui Parle County,MN,56223
27075,Lake County,MN,55614
27077,Lake of the Woods County,MN,56711
27079,Le Sueur County,MN,56096
27081,Lincoln County,MN,56264
27083,Lyon County,MN,56264
27085,McLeod County,MN,55312
27087,Mahnomen County,MN,56651
27089,Marshall County,MN,56727
27091,Martin County,MN,56098
27093,Meeker County,MN,55353
27095,Mille Lacs County,MN,56353
27097,Morrison County,MN,56353
27099,Mower County,MN,55926
27101,Murray County,MN,56180
27103,Nicollet County,MN,56054
27105,Nobles County,MN,56158
27107,Norman County,MN,56584
27109,Olmsted County,MN,55906
27111,Otter Tail County,MN,56527
27113,Pennington County,MN,56748
27115,Pine County,MN,55063
27117,Pipestone County,MN,56170
27119,Polk County,MN,56721
27121,Pope County,MN,56226
27123,Ramsey County,MN,55106
27125,Red Lake County,MN,56742
27127,Redwood County,MN,56180
27129,Renville County,MN,55310
27131,Rice County,MN,56096
27133,Rock County,MN,56158
27135,Roseau County,MN,56726
27137,St. Louis County,MN,55765
27139,Scott County,MN,55337
27141,Sherburne County,MN,56379
27143,Sibley County,MN,55312
27145,Stearns County,MN,55353
27147,Steele County,MN,55060
27149,Stevens County,MN,56323
27151,Swift County,MN,56226
27153,Todd County,MN,56481
27155,Traverse County,MN,56219
27157,Wabasha County,MN,55906
27159,Wadena County,MN,56481
27161,Waseca County,MN,56096
27163,Washington County,MN,55071
27165,Watonwan County,MN,56159
27167,Wilkin County,MN,56565
27169,Winona County,MN,55952
27171,Wright County,MN,55363
27173,Yellow Medicine County,MN,56264
28001,Adams County,MS,39121
28003,Alcorn County,MS,38846
28005,Amite County,MS,39638
28007,Attala County,MS,39051
28009,Benton County,MS,38635
28011,Bolivar County,MS,38769
28013,Calhoun County,MS,38951
28015,Carroll County,MS,38954
28017,Chickasaw County,MS,38868
28019,Choctaw County,MS,39752
28021,Claiborne County,MS,39144
28023,Clarke County,MS,39363
28025,Clay County,MS,39741
28027,Coahoma County,MS,38626
28029,Copiah County,MS,39191
28031,Covington County,MS,39119
28033,DeSoto County,MS,38686
28035,Forrest County,MS,39403
28037,Franklin County,MS,39647
28039,George County,MS,39456
28041,Greene County,MS,39456
28043,Grenada County,MS,38925
28045,Hancock County,MS,39556
28047,Harrison County,MS,39560
28049,Hinds County,MS,39066
28051,Holmes County,MS,38954
28053,Humphreys County,MS,38753
28055,Issaquena County,MS,39159
28057,Itawamba County,MS,38849
28059,Jackson County,MS,39553
28061,Jasper County,MS,39443
28063,Jefferson County,MS,39069
28065,Jefferson Davis County,MS,39119
28067,Jones County,MS,39443
28069,Kemper County,MS,39320
28071,Lafayette County,MS,38619
28073,Lamar County,MS,39401
28075,Lauderdale County,MS,39320
28077,Lawrence County,MS,39191
28079,Leake County,MS,39051
28081,Lee County,MS,38849
28083,Leflore County,MS,38954
28085,Lincoln County,MS,39647
28087,Lowndes County,MS,39705
28089,Madison County,MS,39051
28091,Marion County,MS,39667
28093,Marshall County,MS,38635
28095,Monroe County,MS,38848
28097,Montgomery County,MS,39747
28099,Neshoba County,MS,39051
28101,Newton County,MS,39365
28103,Noxubee County,MS,39361
28105,Oktibbeha County,MS,39752
28107,Panola County,MS,38927
28109,Pearl River County,MS,39426
28111,Perry County,MS,39456
28113,Pike County,MS,39652
28115,Pontotoc County,MS,38868
28117,Prentiss County,MS,38873
28119,Quitman County,MS,38646
28121,Rankin County,MS,39218
28123,Scott County,MS,39365
28125,Sharkey County,MS,38721
28127,Simpson County,MS,39082
28129,Smith County,MS,39116
28131,Stone County,MS,39561
28133,Sunflower County,MS,38753
28135,Tallahatchie County,MS,38927
28137,Tate County,MS,38635
28139,Tippah County,MS,38674
28141,Tishomingo County,MS,38852
28143,Tunica County,MS,38626
28145,Union County,MS,38849
28147,Walthall County,MS,39652
28149,Warren County,MS,39181
28151,Washington County,MS,38721
28153,Wayne County,MS,39443
28155,Webster County,MS,39752
28157,Wilkinson County,MS,39638
28159,Winston County,MS,39350
28161,Yalobusha County,MS,38927
28163,Yazoo County,MS,39162
29001,Adair County,MO,63501
29003,Andrew County,MO,64455
29005,Atchison County,MO,64491
29007,Audrain County,MO,65231
29009,Barry County,MO,65656
29011,Barton County,MO,64855
29013,Bates County,MO,64780
29015,Benton County,MO,65338
29017,Bollinger County,MO,63787
29019,Boone County,MO,65202
29021,Buchanan County,MO,64439
29023,Butler County,MO,63962
29025,Caldwell County,MO,64465
29027,Callaway County,MO,65202
29029,Camden County,MO,65536
29031,Cape Girardeau County,MO,63732
29033,Carroll County,MO,64643
29035,Carter County,MO,63965
29037,Cass County,MO,64078
29039,Cedar County,MO,65601
29041,Chariton County,MO,64676
29043,Christian County,MO,65714
29045,Clark County,MO,63445
29047,Clay County,MO,64116
29049,Clinton County,MO,64465
29051,Cole County,MO,65105
29053,Cooper County,MO,65233
29055,Crawford County,MO,65559
29057,Dade County,MO,65601
29059,Dallas County,MO,65536
29061,Daviess County,MO,64689
29063,DeKalb County,MO,64422
29065,Dent County,MO,63638
29067,Douglas County,MO,65720
29069,Dunklin County,MO,63857
29071,Franklin County,MO,63055
29073,Gasconade County,MO,65559
29075,Gentry County,MO,64441
29077,Greene County,MO,65890
29079,Grundy County,MO,64641
29081,Harrison County,MO,64458
29083,Henry County,MO,64740
29085,Hickory County,MO,65668
29087,Holt County,MO,64466
29089,Howard County,MO,65279
29091,Howell County,MO,65793
29093,Iron County,MO,63624
29095,Jackson County,MO,64137
29097,Jasper County,MO,64855
29099,Jefferson County,MO,63051
29101,Johnson County,MO,64076
29103,Knox County,MO,63530
29105,Laclede County,MO,65536
29107,Lafayette County,MO,64076
29109,Lawrence County,MO,64873
29111,Lewis County,MO,63447
29113,Lincoln County,MO,63381
29115,Linn County,MO,64653
29117,Livingston County,MO,64643
29119,McDonald County,MO,64850
29121,Macon County,MO,63552
29123,Madison County,MO,63620
29125,Maries County,MO,65559
29127,Marion County,MO,63456
29129,Mercer County,MO,64673
29131,Miller County,MO,65452
29133,Mississippi County,MO,63845
29135,Moniteau County,MO,65011
29137,Monroe County,MO,65260
29139,Montgomery County,MO,63381
29141,Morgan County,MO,65011
29143,New Madrid County,MO,63867
29145,Newton County,MO,64850
29147,Nodaway County,MO,64461
29149,Oregon County,MO,65606
29151,Osage County,MO,65035
29153,Ozark County,MO,65626
29155,Pemiscot County,MO,63857
29157,Perry County,MO,63746
29159,Pettis County,MO,65340
29161,Phelps County,MO,65559
29163,Pike County,MO,63339
29165,Platte County,MO,64439
29167,Polk County,MO,65622
29169,Pulaski County,MO,65473
29171,Putnam County,MO,63560
29173,Ralls County,MO,63456
29175,Randolph County,MO,65260
29177,Ray County,MO,64671
29179,Reynolds County,MO,63638
29181,Ripley County,MO,63955
29183,St. Charles County,MO,63385
29185,St. Clair County,MO,64780
29186,Ste. Genevieve County,MO,63627
29187,St. Francois County,MO,63624
29189,St. Louis County,MO,63074
29195,Saline County,MO,65340
29197,Schuyler County,MO,63535
29199,Scotland County,MO,63543
29201,Scott County,MO,63735
29203,Shannon County,MO,65438
29205,Shelby County,MO,63450
29207,Stoddard County,MO,63735
29209,Stone County,MO,65714
29211,Sullivan County,MO,64641
29213,Taney County,MO,65615
29215,Texas County,MO,65793
29217,Vernon County,MO,64767
29219,Warren County,MO,63381
29221,Washington County,MO,63624
29223,Wayne County,MO,63638
29225,Webster County,MO,65706
29227,Worth County,MO,64486
29229,Wright County,MO,65470
29510,St. Louis city,MO,63105
30001,Beaverhead County,MT,59739
30003,Big Horn County,MT,59101
30005,Blaine County,MT,59526
30007,Broadwater County,MT,59635
30009,Carbon County,MT,59008
30011,Carter County,MT,59311
30013,Cascade County,MT,59405
30015,Chouteau County,MT,59460
30017,Custer County,MT,59301
30019,Daniels County,MT,59253
30021,Dawson County,MT,59339
30023,Deer Lodge County,MT,59701
30025,Fallon County,MT,59344
30027,Fergus County,MT,59462
30029,Flathead County,MT,59917
30031,Gallatin County,MT,59086
30033,Garfield County,MT,59337
30035,Glacier County,MT,59417
30037,Golden Valley County,MT,59072
30039,Granite County,MT,59858
30041,Hill County,MT,59520
30043,Jefferson County,MT,59635
30045,Judith Basin County,MT,59462
30047,Lake County,MT,59931
30049,Lewis and Clark County,MT,59635
30051,Liberty County,MT,59545
30053,Lincoln County,MT,59917
30055,McCone County,MT,59315
30057,Madison County,MT,59721
30059,Meagher County,MT,59086
30061,Mineral County,MT,59830
30063,Missoula County,MT,59801
30065,Musselshell County,MT,59072
30067,Park County,MT,59047
30069,Petroleum County,MT,59084
30071,Phillips County,MT,59538
30073,Pondera County,MT,59425
30075,Powder River County,MT,59314
30077,Powell County,MT,59854
30079,Prairie County,MT,59339
30081,Ravalli County,MT,59840
30083,Richland County,MT,59221
30085,Roosevelt County,MT,59212
30087,Rosebud County,MT,59323
30089,Sanders County,MT,59821
30091,Sheridan County,MT,59252
30093,Silver Bow County,MT,59701
30095,Stillwater County,MT,59011
30097,Sweet Grass County,MT,59011
30099,Teton County,MT,59422
30101,Toole County,MT,59466
30103,Treasure County,MT,59038
30105,Valley County,MT,59248
30107,Wheatland County,MT,59078
30109,Wibaux County,MT,59353
30111,Yellowstone County,MT,59101
31001,Adams County,NE,68955
31003,Antelope County,NE,68781
31005,Arthur County,NE,69121
31007,Banner County,NE,69156
31009,Blaine County,NE,68833
31011,Boone County,NE,68781
31013,Box Butte County,NE,69301
31015,Boyd County,NE,68746
31017,Brown County,NE,68714
31019,Buffalo County,NE,68847
31021,Burt County,NE,68029
31023,Butler County,NE,68036
31025,Cass County,NE,68349
31027,Cedar County,NE,68745
31029,Chase County,NE,69027
31031,Cherry County,NE,69343
31033,Cheyenne County,NE,69156
31035,Clay County,NE,68436
31037,Colfax County,NE,68601
31039,Cuming County,NE,68047
31041,Custer County,NE,68825
31043,Dakota County,NE,68030
31045,Dawes County,NE,69348
31047,Dawson County,NE,69029
31049,Deuel County,NE,69129
31051,Dixon County,NE,68745
31053,Dodge County,NE,68063
31055,Douglas County,NE,68118
31057,Dundy County,NE,69037
31059,Fillmore County,NE,68436
31061,Franklin County,NE,68972
31063,Frontier County,NE,69029
31065,Furnas County,NE,68922
31067,Gage County,NE,68309
31069,Garden County,NE,69129
31071,Garfield County,NE,68725
31073,Gosper County,NE,68922
31075,Grant County,NE,69350
31077,Greeley County,NE,68835
31079,Hall County,NE,68955
31081,Hamilton County,NE,68654
31083,Harlan County,NE,68977
31085,Hayes County,NE,69038
31087,Hitchcock County,NE,69038
31089,Holt County,NE,68766
31091,Hooker County,NE,69152
31093,Howard County,NE,68873
31095,Jefferson County,NE,68352
31097,Johnson County,NE,68301
31099,Kearney County,NE,68847
31101,Keith County,NE,69121
31103,Keya Paha County,NE,68753
31105,Kimball County,NE,69156
31107,Knox County,NE,68760
31109,Lancaster County,NE,68503
31111,Lincoln County,NE,69029
31113,Logan County,NE,69120
31115,Loup County,NE,68879
31117,McPherson County,NE,69101
31119,Madison County,NE,68702
31121,Merrick County,NE,68826
31123,Morrill County,NE,69301
31125,Nance County,NE,68864
31127,Nemaha County,NE,68305
31129,Nuckolls County,NE,68957
31131,Otoe County,NE,68410
31133,Pawnee County,NE,68458
31135,Perkins County,NE,69169
31137,Phelps County,NE,68845
31139,Pierce County,NE,68781
31141,Platte County,NE,68601
31143,Polk County,NE,68601
31145,Red Willow County,NE,69024
31147,Richardson County,NE,68431
31149,Rock County,NE,68759
31151,Saline County,NE,68464
31153,Sarpy County,NE,68059
31155,Saunders County,NE,68050
31157,Scotts Bluff County,NE,69358
31159,Seward County,NE,68428
31161,Sheridan County,NE,69343
31163,Sherman County,NE,68844
31165,Sioux County,NE,69358
31167,Stanton County,NE,68779
31169,Thayer County,NE,68943
31171,Thomas County,NE,69166
31173,Thurston County,NE,68039
31175,Valley County,NE,68815
31177,Washington County,NE,68029
31179,Wayne County,NE,68745
31181,Webster County,NE,68957
31183,Wheeler County,NE,68665
31185,York County,NE,68654
32001,Churchill County,NV,89407
32003,Clark County,NV,89014
32005,Douglas County,NV,89444
32007,Elko County,NV,89821
32009,Esmeralda County,NV,89013
32011,Eureka County,NV,89821
32013,Humboldt County,NV,89426
32015,Lander County,NV,89820
32017,Lincoln County,NV,89042
32019,Lyon County,NV,89444
32021,Mineral County,NV,89415
32023,Nye County,NV,89041
32027,Pershing County,NV,89445
32029,Storey County,NV,89434
32031,Washoe County,NV,89431
32033,White Pine County,NV,89318
32510,Carson City,NV,89705
33001,Belknap County,NH,3253
33003,Carroll County,NH,3838
33005,Cheshire County,NH,3431
33007,Coos County,NH,3593
33009,Grafton County,NH,3245
33011,Hillsborough County,NH,3033
33013,Merrimack County,NH,3303
33015,Rockingham County,NH,3044
33017,Strafford County,NH,3825
33019,Sullivan County,NH,3748
34001,Atlantic County,NJ,8225
34003,Bergen County,NJ,7010
34005,Burlington County,NJ,8036
34007,Camden County,NJ,8012
34009,Cape May County,NJ,8223
34011,Cumberland County,NJ,8353
34013,Essex County,NJ,7040
34015,Gloucester County,NJ,8012
34017,Hudson County,NJ,7303
34019,Hunterdon County,NJ,8833
34021,Mercer County,NJ,8512
34023,Middlesex County,NJ,8902
34025,Monmouth County,NJ,7727
34027,Morris County,NJ,7927
34029,Ocean County,NJ,8734
34031,Passaic County,NJ,7013
34033,Salem County,NJ,8079
34035,Somerset County,NJ,7060
34037,Sussex County,NJ,7871
34039,Union County,NJ,7036
34041,Warren County,NJ,7880
35001,Bernalillo County,NM,87110
35003,Catron County,NM,87827
35005,Chaves County,NM,88253
35006,Cibola County,NM,87020
35007,Colfax County,NM,87747
35009,Curry County,NM,88124
35011,De Baca County,NM,88119
35013,Dona Ana County,NM,88081
35015,Eddy County,NM,88210
35017,Grant County,NM,88043
35019,Guadalupe County,NM,88431
35021,Harding County,NM,87746
35023,Hidalgo County,NM,88056
35025,Lea County,NM,88267
35027,Lincoln County,NM,88348
35028,Los Alamos County,NM,87547
35029,Luna County,NM,88030
35031,McKinley County,NM,87020
35033,Mora County,NM,87713
35035,Otero County,NM,88081
35037,Quay County,NM,88124
35039,Rio Arriba County,NM,87528
35041,Roosevelt County,NM,88115
35043,Sandoval County,NM,87041
35045,San Juan County,NM,87402
35047,San Miguel County,NM,87565
35049,Santa Fe County,NM,87035
35051,Sierra County,NM,87901
35053,Socorro County,NM,87823
35055,Taos County,NM,87514
35057,Torrance County,NM,87035
35059,Union County,NM,88414
35061,Valencia County,NM,87031
36001,Albany County,NY,12087
36003,Allegany County,NY,14717
36005,Bronx County,NY,10459
36007,Broome County,NY,13746
36009,Cattaraugus County,NY,14738
36011,Cayuga County,NY,13074
36013,Chautauqua County,NY,14048
36015,Chemung County,NY,14824
36017,Chenango County,NY,13746
36019,Clinton County,NY,12981
36021,Columbia County,NY,12037
36023,Cortland County,NY,13053
36025,Delaware County,NY,12455
36027,Dutchess County,NY,12533
36029,Erie County,NY,14052
36031,Essex County,NY,12883
36033,Franklin County,NY,12916
36035,Fulton County,NY,12095
36037,Genesee County,NY,14036
36039,Greene County,NY,12413
36041,Hamilton County,NY,13353
36043,Herkimer County,NY,13329
36045,Jefferson County,NY,13145
36047,Kings County,NY,11202
36049,Lewis County,NY,13473
36051,Livingston County,NY,14525
36053,Madison County,NY,13035
36055,Monroe County,NY,14464
36057,Montgomery County,NY,12095
36059,Nassau County,NY,11001
36061,New York County,NY,10025
36063,Niagara County,NY,14109
36065,Oneida County,NY,13483
36067,Onondaga County,NY,13035
36069,Ontario County,NY,14512
36071,Orange County,NY,10924
36073,Orleans County,NY,14464
36075,Oswego County,NY,13036
36077,Otsego County,NY,12155
36079,Putnam County,NY,12533
36081,Queens County,NY,11001
36083,Rensselaer County,NY,12169
36085,Richmond County,NY,10301
36087,Rockland County,NY,10901
36089,St. Lawrence County,NY,13676
36091,Saratoga County,NY,12828
36093,Schenectady County,NY,12305
36095,Schoharie County,NY,12175
36097,Schuyler County,NY,14824
36099,Seneca County,NY,14433
36101,Steuben County,NY,14823
36103,Suffolk County,NY,11729
36105,Sullivan County,NY,12566
36107,Tioga County,NY,13850
36109,Tompkins County,NY,13053
36111,Ulster County,NY,12455
36113,Warren County,NY,12856
36115,Washington County,NY,12828
36117,Wayne County,NY,13143
36119,Westchester County,NY,10511
36121,Wyoming County,NY,14052
36123,Yates County,NY,14857
37001,Alamance County,NC,27201
37003,Alexander County,NC,28636
37005,Alleghany County,NC,28644
37007,Anson County,NC,28007
37009,Ashe County,NC,28644
37011,Avery County,NC,28622
37013,Beaufort County,NC,27806
37015,Bertie County,NC,27957
37017,Bladen County,NC,28320
37019,Brunswick County,NC,28422
37021,Buncombe County,NC,28701
37023,Burke County,NC,28602
37025,Cabarrus County,NC,28026
37027,Caldwell County,NC,28624
37029,Camden County,NC,27973
37031,Carteret County,NC,28511
37033,Caswell County,NC,27315
37035,Catawba County,NC,28602
37037,Chatham County,NC,27349
37039,Cherokee County,NC,28901
37041,Chowan County,NC,27946
37043,Clay County,NC,28734
37045,Cleveland County,NC,28073
37047,Columbus County,NC,28320
37049,Craven County,NC,28530
37051,Cumberland County,NC,28307
37053,Currituck County,NC,27973
37055,Dare County,NC,27949
37057,Davidson County,NC,27360
37059,Davie County,NC,27014
37061,Duplin County,NC,28458
37063,Durham County,NC,27704
37065,Edgecombe County,NC,27809
37067,Forsyth County,NC,27009
37069,Franklin County,NC,27525
37071,Gaston County,NC,28092
37073,Gates County,NC,27938
37075,Graham County,NC,28702
37077,Granville County,NC,27525
37079,Greene County,NC,28530
37081,Guilford County,NC,27407
37083,Halifax County,NC,27886
37085,Harnett County,NC,28326
37087,Haywood County,NC,28715
37089,Henderson County,NC,28766
37091,Hertford County,NC,27897
37093,Hoke County,NC,28371
37095,Hyde County,NC,27860
37097,Iredell County,NC,28677
37099,Jackson County,NC,28719
37101,Johnston County,NC,27542
37103,Jones County,NC,28501
37105,Lee County,NC,28326
37107,Lenoir County,NC,28530
37109,Lincoln County,NC,28092
37111,McDowell County,NC,28167
37113,Macon County,NC,28713
37115,Madison County,NC,28701
37117,Martin County,NC,27861
37119,Mecklenburg County,NC,28031
37121,Mitchell County,NC,28714
37123,Montgomery County,NC,28338
37125,Moore County,NC,28326
37127,Nash County,NC,27809
37129,New Hanover County,NC,28409
37131,Northampton County,NC,27831
37133,Onslow County,NC,28541
37135,Orange County,NC,27278
37137,Pamlico County,NC,28560
37139,Pasquotank County,NC,27906
37141,Pender County,NC,28445
37143,Perquimans County,NC,27985
37145,Person County,NC,27343
37147,Pitt County,NC,27886
37149,Polk County,NC,28139
37151,Randolph County,NC,27360
37153,Richmond County,NC,28338
37155,Robeson County,NC,28359
37157,Rockingham County,NC,27048
37159,Rowan County,NC,28147
37161,Rutherford County,NC,28167
37163,Sampson County,NC,28334
37165,Scotland County,NC,28352
37167,Stanly County,NC,28009
37169,Stokes County,NC,27009
37171,Surry County,NC,27043
37173,Swain County,NC,28713
37175,Transylvania County,NC,28708
37177,Tyrrell County,NC,27826
37179,Union County,NC,28108
37181,Vance County,NC,27537
37183,Wake County,NC,27512
37185,Warren County,NC,27537
37187,Washington County,NC,27860
37189,Watauga County,NC,28622
37191,Wayne County,NC,27542
37193,Wilkes County,NC,28635
37195,Wilson County,NC,27542
37197,Yadkin County,NC,27011
37199,Yancey County,NC,28714
38001,Adams County,ND,58639
38003,Barnes County,ND,58479
38005,Benson County,ND,58374
38007,Billings County,ND,58622
38009,Bottineau County,ND,58750
38011,Bowman County,ND,58643
38013,Burke County,ND,58737
38015,Burleigh County,ND,58504
38017,Cass County,ND,58103
38019,Cavalier County,ND,58239
38021,Dickey County,ND,58040
38023,Divide County,ND,58845
38025,Dunn County,ND,58601
38027,Eddy County,ND,58374
38029,Emmons County,ND,58504
38031,Foster County,ND,58443
38033,Golden Valley County,ND,58632
38035,Grand Forks County,ND,58261
38037,Grant County,ND,58638
38039,Griggs County,ND,58212
38041,Hettinger County,ND,58647
38043,Kidder County,ND,58488
38045,LaMoure County,ND,58472
38047,Logan County,ND,58440
38049,McHenry County,ND,58768
38051,McIntosh County,ND,58440
38053,McKenzie County,ND,58757
38055,McLean County,ND,58779
38057,Mercer County,ND,58638
38059,Morton County,ND,58638
38061,Mountrail County,ND,58771
38063,Nelson County,ND,58259
38065,Oliver County,ND,58530
38067,Pembina County,ND,58282
38069,Pierce County,ND,58384
38071,Ramsey County,ND,58327
38073,Ransom County,ND,58057
38075,Renville County,ND,58750
38077,Richland County,ND,58041
38079,Rolette County,ND,58367
38081,Sargent County,ND,58040
38083,Sheridan County,ND,58444
38085,Sioux County,ND,58529
38087,Slope County,ND,58643
38089,Stark County,ND,58601
38091,Steele County,ND,58274
38093,Stutsman County,ND,58401
38095,Towner County,ND,58367
38097,Traill County,ND,58045
38099,Walsh County,ND,58259
38101,Ward County,ND,58779
38103,Wells County,ND,58374
38105,Williams County,ND,58801
39001,Adams County,OH,45660
39003,Allen County,OH,45801
39005,Ashland County,OH,44843
39007,Ashtabula County,OH,44048
39009,Athens County,OH,45701
39011,Auglaize County,OH,45801
39013,Belmont County,OH,43906
39015,Brown County,OH,45119
39017,Butler County,OH,45005
39019,Carroll County,OH,44657
39021,Champaign County,OH,43047
39023,Clark County,OH,45501
39025,Clermont County,OH,45153
39027,Clinton County,OH,45177
39029,Columbiana County,OH,44657
39031,Coshocton County,OH,43845
39033,Crawford County,OH,44827
39035,Cuyahoga County,OH,44026
39037,Darke County,OH,45358
39039,Defiance County,OH,43506
39041,Delaware County,OH,43035
39043,Erie County,OH,44824
39045,Fairfield County,OH,43076
39047,Fayette County,OH,43145
39049,Franklin County,OH,43064
39051,Fulton County,OH,43533
39053,Gallia County,OH,45623
39055,Geauga County,OH,44026
39057,Greene County,OH,45440
39059,Guernsey County,OH,43772
39061,Hamilton County,OH,45013
39063,Hancock County,OH,45810
39065,Hardin County,OH,45810
39067,Harrison County,OH,44695
39069,Henry County,OH,43527
39071,Highland County,OH,45660
39073,Hocking County,OH,45654
39075,Holmes County,OH,44660
39077,Huron County,OH,44847
39079,Jackson County,OH,45601
39081,Jefferson County,OH,43917
39083,Knox County,OH,43080
39085,Lake County,OH,44041
39087,Lawrence County,OH,45623
39089,Licking County,OH,43076
39091,Logan County,OH,43331
39093,Lorain County,OH,44275
39095,Lucas County,OH,43612
39097,Madison County,OH,43064
39099,Mahoning County,OH,44512
39101,Marion County,OH,45843
39103,Medina County,OH,44275
39105,Meigs County,OH,45723
39107,Mercer County,OH,45865
39109,Miami County,OH,45371
39111,Monroe County,OH,43793
39113,Montgomery County,OH,45005
39115,Morgan County,OH,43787
39117,Morrow County,OH,43050
39119,Muskingum County,OH,43746
39121,Noble County,OH,43772
39123,Ottawa County,OH,43416
39125,Paulding County,OH,45832
39127,Perry County,OH,43076
39129,Pickaway County,OH,43137
39131,Pike County,OH,45660
39133,Portage County,OH,44272
39135,Preble County,OH,45003
39137,Putnam County,OH,45830
39139,Richland County,OH,44827
39141,Ross County,OH,45601
39143,Sandusky County,OH,44824
39145,Scioto County,OH,45660
39147,Seneca County,OH,44853
39149,Shelby County,OH,45865
39151,Stark County,OH,44216
39153,Summit County,OH,44304
39155,Trumbull County,OH,44410
39157,Tuscarawas County,OH,44622
39159,Union County,OH,43064
39161,Van Wert County,OH,45832
39163,Vinton County,OH,45654
39165,Warren County,OH,45005
39167,Washington County,OH,43787
39169,Wayne County,OH,44216
39171,Williams County,OH,43506
39173,Wood County,OH,43460
39175,Wyandot County,OH,45843
40001,Adair County,OK,74964
40003,Alfalfa County,OK,73716
40005,Atoka County,OK,74553
40007,Beaver County,OK,73950
40009,Beckham County,OK,73644
40011,Blaine County,OK,73763
40013,Bryan County,OK,74702
40015,Caddo County,OK,73017
40017,Canadian County,OK,73014
40019,Carter County,OK,73443
40021,Cherokee County,OK,74359
40023,Choctaw County,OK,74735
40025,Cimarron County,OK,73947
40027,Cleveland County,OK,73129
40029,Coal County,OK,74534
40031,Comanche County,OK,73017
40033,Cotton County,OK,73531
40035,Craig County,OK,74349
40037,Creek County,OK,74010
40039,Custer County,OK,73096
40041,Delaware County,OK,74964
40043,Dewey County,OK,73859
40045,Ellis County,OK,73840
40047,Garfield County,OK,73761
40049,Garvin County,OK,73098
40051,Grady County,OK,73010
40053,Grant County,OK,73761
40055,Greer County,OK,73547
40057,Harmon County,OK,73554
40059,Harper County,OK,73851
40061,Haskell County,OK,74462
40063,Hughes County,OK,74570
40065,Jackson County,OK,73532
40067,Jefferson County,OK,73520
40069,Johnston County,OK,74748
40071,Kay County,OK,74653
40073,Kingfisher County,OK,73750
40075,Kiowa County,OK,73651
40077,Latimer County,OK,74547
40079,Le Flore County,OK,74956
40081,Lincoln County,OK,74834
40083,Logan County,OK,73073
40085,Love County,OK,73430
40087,McClain County,OK,73010
40089,McCurtain County,OK,74957
40091,McIntosh County,OK,74428
40093,Major County,OK,73760
40095,Marshall County,OK,73447
40097,Mayes County,OK,74036
40099,Murray County,OK,73098
40101,Muskogee County,OK,74403
40103,Noble County,OK,73073
40105,Nowata County,OK,74027
40107,Okfuskee County,OK,74010
40109,Oklahoma County,OK,73012
40111,Okmulgee County,OK,74421
40113,Osage County,OK,74103
40115,Ottawa County,OK,74370
40117,Pawnee County,OK,74045
40119,Payne County,OK,74045
40121,Pittsburg County,OK,74442
40123,Pontotoc County,OK,74572
40125,Pottawatomie County,OK,74801
40127,Pushmataha County,OK,74735
40129,Roger Mills County,OK,73660
40131,Rogers County,OK,74036
40133,Seminole County,OK,74849
40135,Sequoyah County,OK,74955
40137,Stephens County,OK,73529
40139,Texas County,OK,73951
40141,Tillman County,OK,73570
40143,Tulsa County,OK,74066
40145,Wagoner County,OK,74403
40147,Washington County,OK,74029
40149,Washita County,OK,73632
40151,Woods County,OK,73716
40153,Woodward County,OK,73841
41001,Baker County,OR,97883
41003,Benton County,OR,97330
41005,Clackamas County,OR,97140
41007,Clatsop County,OR,97146
41009,Columbia County,OR,97053
41011,Coos County,OR,97466
41013,Crook County,OR,97753
41015,Curry County,OR,97406
41017,Deschutes County,OR,97709
41019,Douglas County,OR,97473
41021,Gilliam County,OR,97843
41023,Grant County,OR,97865
41025,Harney County,OR,97710
41027,Hood River County,OR,97044
41029,Jackson County,OR,97526
41031,Jefferson County,OR,97761
41033,Josephine County,OR,97526
41035,Klamath County,OR,97603
41037,Lake County,OR,97640
41039,Lane County,OR,97413
41041,Lincoln County,OR,97394
41043,Linn County,OR,97346
41045,Malheur County,OR,97906
41047,Marion County,OR,97137
41049,Morrow County,OR,97843
41051,Multnomah County,OR,97205
41053,Polk County,OR,97338
41055,Sherman County,OR,97039
41057,Tillamook County,OR,97112
41059,Umatilla County,OR,97875
41061,Union County,OR,97883
41063,Wallowa County,OR,97857
41065,Wasco County,OR,97021
41067,Washington County,OR,97005
41069,Wheeler County,OR,97750
41071,Yamhill County,OR,97114
42001,Adams County,PA,17320
42003,Allegheny County,PA,15034
42005,Armstrong County,PA,15690
42007,Beaver County,PA,15061
42009,Bedford County,PA,16655
42011,Berks County,PA,18092
42013,Blair County,PA,16637
42015,Bradford County,PA,18616
42017,Bucks County,PA,18930
42019,Butler County,PA,16001
42021,Cambria County,PA,15906
42023,Cameron County,PA,15832
42025,Carbon County,PA,18211
42027,Centre County,PA,16820
42029,Chester County,PA,19355
42031,Clarion County,PA,16028
42033,Clearfield County,PA,15801
42035,Clinton County,PA,17764
42037,Columbia County,PA,17814
42039,Crawford County,PA,16134
42041,Cumberland County,PA,17007
42043,Dauphin County,PA,17033
42045,Delaware County,PA,19064
42047,Elk County,PA,15821
42049,Erie County,PA,16435
42051,Fayette County,PA,15442
42053,Forest County,PA,15828
42055,Franklin County,PA,17214
42057,Fulton County,PA,17211
42059,Greene County,PA,15334
42061,Huntingdon County,PA,16647
42063,Indiana County,PA,15734
42065,Jefferson County,PA,15801
42067,Juniata County,PA,17059
42069,Lackawanna County,PA,18446
42071,Lancaster County,PA,17033
42073,Lawrence County,PA,16051
42075,Lebanon County,PA,17033
42077,Lehigh County,PA,18032
42079,Luzerne County,PA,18644
42081,Lycoming County,PA,17754
42083,McKean County,PA,16749
42085,Mercer County,PA,16127
42087,Mifflin County,PA,17059
42089,Monroe County,PA,18301
42091,Montgomery County,PA,19006
42093,Montour County,PA,17756
42095,Northampton County,PA,18014
42097,Northumberland County,PA,17867
42099,Perry County,PA,17074
42101,Philadelphia County,PA,19006
42103,Pike County,PA,18337
42105,Potter County,PA,16941
42107,Schuylkill County,PA,17959
42109,Snyder County,PA,17843
42111,Somerset County,PA,15501
42113,Sullivan County,PA,18629
42115,Susquehanna County,PA,18446
42117,Tioga County,PA,16912
42119,Union County,PA,17870
42121,Venango County,PA,16127
42123,Warren County,PA,16313
42125,Washington County,PA,15301
42127,Wayne County,PA,18405
42129,Westmoreland County,PA,15501
42131,Wyoming County,PA,18446
42133,York County,PA,17403
44001,Bristol County,RI,2806
44003,Kent County,RI,2887
44005,Newport County,RI,2801
44007,Providence County,RI,2828
44009,Washington County,RI,2808
45001,Abbeville County,SC,29627
45003,Aiken County,SC,29801
45005,Allendale County,SC,29827
45007,Anderson County,SC,29627
45009,Bamberg County,SC,29817
45011,Barnwell County,SC,29817
45013,Beaufort County,SC,29915
45015,Berkeley County,SC,29431
45017,Calhoun County,SC,29118
45019,Charleston County,SC,29455
45021,Cherokee County,SC,29702
45023,Chester County,SC,29714
45025,Chesterfield County,SC,29720
45027,Clarendon County,SC,29111
45029,Colleton County,SC,29474
45031,Darlington County,SC,29501
45033,Dillon County,SC,29574
45035,Dorchester County,SC,29437
45037,Edgefield County,SC,29841
45039,Fairfield County,SC,29065
45041,Florence County,SC,29162
45043,Georgetown County,SC,29585
45045,Greenville County,SC,29609
45047,Greenwood County,SC,29649
45049,Hampton County,SC,29922
45051,Horry County,SC,29569
45053,Jasper County,SC,29922
45055,Kershaw County,SC,29010
45057,Lancaster County,SC,29720
45059,Laurens County,SC,29325
45061,Lee County,SC,29010
45063,Lexington County,SC,29054
45065,McCormick County,SC,29620
45067,Marion County,SC,29574
45069,Marlboro County,SC,29570
45071,Newberry County,SC,29145
45073,Oconee County,SC,29676
45075,Orangeburg County,SC,29118
45077,Pickens County,SC,29671
45079,Richland County,SC,29202
45081,Saluda County,SC,29129
45083,Spartanburg County,SC,29306
45085,Sumter County,SC,29168
45087,Union County,SC,29031
45089,Williamsburg County,SC,29111
45091,York County,SC,29702
46003,Aurora County,SD,57369
46005,Beadle County,SD,57312
46007,Bennett County,SD,57574
46009,Bon Homme County,SD,57063
46011,Brookings County,SD,57234
46013,Brown County,SD,57451
46015,Brule County,SD,57370
46017,Buffalo County,SD,57370
46019,Butte County,SD,57760
46021,Campbell County,SD,57437
46023,Charles Mix County,SD,57313
46025,Clark County,SD,57434
46027,Clay County,SD,57069
46029,Codington County,SD,57235
46031,Corson County,SD,57642
46033,Custer County,SD,57738
46035,Davison County,SD,57328
46037,Day County,SD,57235
46039,Deuel County,SD,57234
46041,Dewey County,SD,57652
46043,Douglas County,SD,57344
46045,Edmunds County,SD,57451
46047,Fall River County,SD,57722
46049,Faulk County,SD,57460
46051,Grant County,SD,57252
46053,Gregory County,SD,57529
46055,Haakon County,SD,57552
46057,Hamlin County,SD,57234
46059,Hand County,SD,57476
46061,Hanson County,SD,57319
46063,Harding County,SD,57760
46065,Hughes County,SD,57501
46067,Hutchinson County,SD,57319
46069,Hyde County,SD,57540
46071,Jackson County,SD,57577
46073,Jerauld County,SD,57312
46075,Jones County,SD,57531
46077,Kingsbury County,SD,57231
46079,Lake County,SD,57048
46081,Lawrence County,SD,57779
46083,Lincoln County,SD,57032
46085,Lyman County,SD,57576
46087,McCook County,SD,57048
46089,McPherson County,SD,57428
46091,Marshall County,SD,57247
46093,Meade County,SD,57787
46095,Mellette County,SD,57579
46097,Miner County,SD,57058
46099,Minnehaha County,SD,57048
46101,Moody County,SD,57017
46103,Pennington County,SD,57703
46105,Perkins County,SD,57640
46107,Potter County,SD,57450
46109,Roberts County,SD,57252
46111,Sanborn County,SD,57312
46115,Spink County,SD,57460
46117,Stanley County,SD,57532
46119,Sully County,SD,57442
46121,Todd County,SD,57580
46123,Tripp County,SD,57580
46125,Turner County,SD,57053
46127,Union County,SD,57025
46129,Walworth County,SD,57428
46135,Yankton County,SD,57070
46137,Ziebach County,SD,57623
47001,Anderson County,TN,37938
47003,Bedford County,TN,37060
47005,Benton County,TN,38318
47007,Bledsoe County,TN,37379
47009,Blount County,TN,37865
47011,Bradley County,TN,37353
47013,Campbell County,TN,37756
47015,Cannon County,TN,37118
47017,Carroll County,TN,38220
47019,Carter County,TN,37658
47021,Cheatham County,TN,37062
47023,Chester County,TN,38371
47025,Claiborne County,TN,37851
47027,Clay County,TN,38551
47029,Cocke County,TN,37722
47031,Coffee County,TN,37355
47033,Crockett County,TN,38006
47035,Cumberland County,TN,37381
47037,Davidson County,TN,37211
47039,Decatur County,TN,38371
47041,DeKalb County,TN,37166
47043,Dickson County,TN,37052
47045,Dyer County,TN,38024
47047,Fayette County,TN,38017
47049,Fentress County,TN,38589
47051,Franklin County,TN,37352
47053,Gibson County,TN,38220
47055,Giles County,TN,38474
47057,Grainger County,TN,37848
47059,Greene County,TN,37711
47061,Grundy County,TN,37365
47063,Hamblen County,TN,37711
47065,Hamilton County,TN,37341
47067,Hancock County,TN,37765
47069,Hardeman County,TN,38075
47071,Hardin County,TN,38371
47073,Hawkins County,TN,37711
47075,Haywood County,TN,38063
47077,Henderson County,TN,38371
47079,Henry County,TN,38201
47081,Hickman County,TN,38454
47083,Houston County,TN,37175
47085,Humphreys County,TN,37061
47087,Jackson County,TN,38551
47089,Jefferson County,TN,37813
47091,Johnson County,TN,37683
47093,Knox County,TN,37909
47095,Lake County,TN,38080
47097,Lauderdale County,TN,38063
47099,Lawrence County,TN,38469
47101,Lewis County,TN,38474
47103,Lincoln County,TN,38488
47105,Loudon County,TN,37885
47107,McMinn County,TN,37880
47109,McNairy County,TN,38379
47111,Macon County,TN,37074
47113,Madison County,TN,38006
47115,Marion County,TN,37365
47117,Marshall County,TN,37060
47119,Maury County,TN,38474
47121,Meigs County,TN,37880
47123,Monroe County,TN,37385
47125,Montgomery County,TN,37052
47127,Moore County,TN,37352
47129,Morgan County,TN,37872
47131,Obion County,TN,38271
47133,Overton County,TN,38580
47135,Perry County,TN,37033
47137,Pickett County,TN,38543
47139,Polk County,TN,37307
47141,Putnam County,TN,38506
47143,Rhea County,TN,37381
47145,Roane County,TN,37880
47147,Robertson County,TN,37073
47149,Rutherford County,TN,37060
47151,Scott County,TN,37755
47153,Sequatchie County,TN,37379
47155,Sevier County,TN,37865
47157,Shelby County,TN,38134
47159,Smith County,TN,37074
47161,Stewart County,TN,37175
47163,Sullivan County,TN,37659
47165,Sumner County,TN,37077
47167,Tipton County,TN,38069
47169,Trousdale County,TN,37074
47171,Unicoi County,TN,37657
47173,Union County,TN,37938
47175,Van Buren County,TN,37367
47177,Warren County,TN,37166
47179,Washington County,TN,37659
47181,Wayne County,TN,38463
47183,Weakley County,TN,38226
47185,White County,TN,38506
47187,Williamson County,TN,37060
47189,Wilson County,TN,37118
48001,Anderson County,TX,75779
48003,Andrews County,TX,79714
48005,Angelina County,TX,75915
48007,Aransas County,TX,78382
48009,Archer County,TX,76360
48011,Armstrong County,TX,79226
48013,Atascosa County,TX,78113
48015,Austin County,TX,77833
48017,Bailey County,TX,79324
48019,Bandera County,TX,78023
48021,Bastrop County,TX,78942
48023,Baylor County,TX,76380
48025,Bee County,TX,78391
48027,Bell County,TX,76541
48029,Bexar County,TX,78023
48031,Blanco County,TX,78635
48033,Borden County,TX,79356
48035,Bosque County,TX,76633
48037,Bowie County,TX,75501
48039,Brazoria County,TX,77422
48041,Brazos County,TX,77840
48043,Brewster County,TX,79830
48045,Briscoe County,TX,79257
48047,Brooks County,TX,78353
48049,Brown County,TX,76823
48051,Burleson County,TX,77878
48053,Burnet County,TX,76550
48055,Caldwell County,TX,78959
48057,Calhoun County,TX,77979
48059,Callahan County,TX,79504
48061,Cameron County,TX,78569
48063,Camp County,TX,75451
48065,Carson County,TX,79080
48067,Cass County,TX,75572
48069,Castro County,TX,79045
48071,Chambers County,TX,77597
48073,Cherokee County,TX,75759
48075,Childress County,TX,79230
48077,Clay County,TX,76305
48079,Cochran County,TX,79379
48081,Coke County,TX,76945
48083,Coleman County,TX,76873
48085,Collin County,TX,75098
48087,Collingsworth County,TX,79079
48089,Colorado County,TX,78933
48091,Comal County,TX,78132
48093,Comanche County,TX,76436
48095,Concho County,TX,76855
48097,Cooke County,TX,76252
48099,Coryell County,TX,76528
48101,Cottle County,TX,79223
48103,Crane County,TX,79731
48105,Crockett County,TX,76943
48107,Crosby County,TX,79370
48109,Culberson County,TX,79847
48111,Dallam County,TX,79022
48113,Dallas County,TX,75043
48115,Dawson County,TX,79713
48117,Deaf Smith County,TX,79045
48119,Delta County,TX,75469
48121,Denton County,TX,75067
48123,DeWitt County,TX,77967
48125,Dickens County,TX,79256
48127,Dimmit County,TX,78827
48129,Donley County,TX,79065
48131,Duval County,TX,78357
48133,Eastland County,TX,76435
48135,Ector County,TX,79760
48137,Edwards County,TX,78833
48139,Ellis County,TX,75146
48141,El Paso County,TX,79836
48143,Erath County,TX,76436
48145,Falls County,TX,76629
48147,Fannin County,TX,75414
48149,Fayette County,TX,78942
48151,Fisher County,TX,79526
48153,Floyd County,TX,79231
48155,Foard County,TX,79227
48157,Fort Bend County,TX,77469
48159,Franklin County,TX,75457
48161,Freestone County,TX,75838
48163,Frio County,TX,78017
48165,Gaines County,TX,79359
48167,Galveston County,TX,77510
48169,Garza County,TX,79356
48171,Gillespie County,TX,78624
48173,Glasscock County,TX,79720
48175,Goliad County,TX,77960
48177,Gonzales County,TX,78959
48179,Gray County,TX,79079
48181,Grayson County,TX,75021
48183,Gregg County,TX,75605
48185,Grimes County,TX,77356
48187,Guadalupe County,TX,78132
48189,Hale County,TX,79064
48191,Hall County,TX,79261
48193,Hamilton County,TX,76436
48195,Hansford County,TX,79062
48197,Hardeman County,TX,79247
48199,Hardin County,TX,77585
48201,Harris County,TX,77007
48203,Harrison County,TX,75605
48205,Hartley County,TX,79018
48207,Haskell County,TX,79521
48209,Hays County,TX,78132
48211,Hemphill County,TX,79014
48213,Henderson County,TX,75803
48215,Hidalgo County,TX,78537
48217,Hill County,TX,76055
48219,Hockley County,TX,79358
48221,Hood County,TX,76035
48223,Hopkins County,TX,75431
48225,Houston County,TX,75862
48227,Howard County,TX,79511
48229,Hudspeth County,TX,79851
48231,Hunt County,TX,75474
48233,Hutchinson County,TX,79080
48235,Irion County,TX,76941
48237,Jack County,TX,76449
48239,Jackson County,TX,77979
48241,Jasper County,TX,75933
48243,Jeff Davis County,TX,79734
48245,Jefferson County,TX,77702
48247,Jim Hogg County,TX,78582
48249,Jim Wells County,TX,78383
48251,Johnson County,TX,76059
48253,Jones County,TX,79536
48255,Karnes County,TX,78113
48257,Kaufman County,TX,75114
48259,Kendall County,TX,78004
48261,Kenedy County,TX,78385
48263,Kent County,TX,79528
48265,Kerr County,TX,78055
48267,Kimble County,TX,76859
48269,King County,TX,79236
48271,Kinney County,TX,78832
48273,Kleberg County,TX,78363
48275,Knox County,TX,79227
48277,Lamar County,TX,75421
48279,Lamb County,TX,79064
48281,Lampasas County,TX,76550
48283,La Salle County,TX,78001
48285,Lavaca County,TX,77986
48287,Lee County,TX,78942
48289,Leon County,TX,75833
48291,Liberty County,TX,77371
48293,Limestone County,TX,75838
48295,Lipscomb County,TX,79005
48297,Live Oak County,TX,78102
48299,Llano County,TX,76885
48301,Loving County,TX,79754
48303,Lubbock County,TX,79499
48305,Lynn County,TX,79356
48307,McCulloch County,TX,76852
48309,McLennan County,TX,76705
48311,McMullen County,TX,78071
48313,Madison County,TX,77871
48315,Marion County,TX,75630
48317,Martin County,TX,79782
48319,Mason County,TX,76869
48321,Matagorda County,TX,77422
48323,Maverick County,TX,78852
48325,Medina County,TX,78023
48327,Menard County,TX,76859
48329,Midland County,TX,79708
48331,Milam County,TX,76569
48333,Mills County,TX,76864
48335,Mitchell County,TX,79512
48337,Montague County,TX,76225
48339,Montgomery County,TX,77381
48341,Moore County,TX,79018
48343,Morris County,TX,75638
48345,Motley County,TX,79256
48347,Nacogdoches County,TX,75788
48349,Navarro County,TX,75109
48351,Newton County,TX,75933
48353,Nolan County,TX,79532
48355,Nueces County,TX,78418
48357,Ochiltree County,TX,79070
48359,Oldham County,TX,79098
48361,Orange County,TX,77632
48363,Palo Pinto County,TX,76449
48365,Panola County,TX,75639
48367,Parker County,TX,76085
48369,Parmer County,TX,79035
48371,Pecos County,TX,79740
48373,Polk County,TX,77350
48375,Potter County,TX,79103
48377,Presidio County,TX,79845
48379,Rains County,TX,75472
48381,Randall County,TX,79103
48383,Reagan County,TX,79739
48385,Real County,TX,78833
48387,Red River County,TX,75416
48389,Reeves County,TX,79718
48391,Refugio County,TX,77990
48393,Roberts County,TX,79065
48395,Robertson County,TX,76629
48397,Rockwall County,TX,75098
48399,Runnels County,TX,76821
48401,Rusk County,TX,75669
48403,Sabine County,TX,75930
48405,San Augustine County,TX,75929
48407,San Jacinto County,TX,77371
48409,San Patricio County,TX,78335
48411,San Saba County,TX,76871
48413,Schleicher County,TX,76936
48415,Scurry County,TX,79512
48417,Shackelford County,TX,79504
48419,Shelby County,TX,75973
48421,Sherman County,TX,79022
48423,Smith County,TX,75704
48425,Somervell County,TX,76043
48427,Starr County,TX,78582
48429,Stephens County,TX,76424
48431,Sterling County,TX,76951
48433,Stonewall County,TX,79502
48435,Sutton County,TX,76874
48437,Swisher County,TX,79042
48439,Tarrant County,TX,76114
48441,Taylor County,TX,79536
48443,Terrell County,TX,79735
48445,Terry County,TX,79359
48447,Throckmorton County,TX,76372
48449,Titus County,TX,75493
48451,Tom Green County,TX,76939
48453,Travis County,TX,78641
48455,Trinity County,TX,75862
48457,Tyler County,TX,75936
48459,Upshur County,TX,75605
48461,Upton County,TX,79755
48463,Uvalde County,TX,78833
48465,Val Verde County,TX,78842
48467,Van Zandt County,TX,75474
48469,Victoria County,TX,77979
48471,Walker County,TX,75862
48473,Waller County,TX,77466
48475,Ward County,TX,79777
48477,Washington County,TX,77833
48479,Webb County,TX,78045
48481,Wharton County,TX,77488
48483,Wheeler County,TX,79079
48485,Wichita County,TX,76301
48487,Wilbarger County,TX,76360
48489,Willacy County,TX,78569
48491,Williamson County,TX,78633
48493,Wilson County,TX,78113
48495,Winkler County,TX,79789
48497,Wise County,TX,76073
48499,Wood County,TX,75431
48501,Yoakum County,TX,79376
48503,Young County,TX,76424
48505,Zapata County,TX,78584
48507,Zavala County,TX,78061
49001,Beaver County,UT,84752
49003,Box Elder County,UT,84307
49005,Cache County,UT,84321
49007,Carbon County,UT,84501
49009,Daggett County,UT,84046
49011,Davis County,UT,84054
49013,Duchesne County,UT,84031
49015,Emery County,UT,84501
49017,Garfield County,UT,84716
49019,Grand County,UT,84515
49021,Iron County,UT,84781
49023,Juab County,UT,84639
49025,Kane County,UT,84758
49027,Millard County,UT,84635
49029,Morgan County,UT,84018
49031,Piute County,UT,84750
49033,Rich County,UT,84064
49035,Salt Lake County,UT,84070
49037,San Juan County,UT,84533
49039,Sanpete County,UT,84629
49041,Sevier County,UT,84739
49043,Summit County,UT,84033
49045,Tooele County,UT,84074
49047,Uintah County,UT,84079
49049,Utah County,UT,84043
49051,Wasatch County,UT,84604
49053,Washington County,UT,84779
49055,Wayne County,UT,84715
49057,Weber County,UT,84310
50001,Addison County,VT,5733
50003,Bennington County,VT,5255
50005,Caledonia County,VT,5680
50007,Chittenden County,VT,5403
50009,Essex County,VT,5858
50011,Franklin County,VT,5450
50013,Grand Isle County,VT,5486
50015,Lamoille County,VT,5442
50017,Orange County,VT,5061
50019,Orleans County,VT,5680
50021,Rutland County,VT,5733
50023,Washington County,VT,5602
50025,Windham County,VT,5342
50027,Windsor County,VT,5089
51001,Accomack County,VA,23301
51003,Albemarle County,VA,22911
51005,Alleghany County,VA,24457
51007,Amelia County,VA,23083
51009,Amherst County,VA,22967
51011,Appomattox County,VA,24504
51013,Arlington County,VA,22205
51015,Augusta County,VA,22920
51017,Bath County,VA,24460
51019,Bedford County,VA,24104
51021,Bland County,VA,24084
51023,Botetourt County,VA,24012
51025,Brunswick County,VA,23887
51027,Buchanan County,VA,24634
51029,Buckingham County,VA,23936
51031,Campbell County,VA,24504
51033,Caroline County,VA,22427
51035,Carroll County,VA,24330
51036,Charles City County,VA,23030
51037,Charlotte County,VA,23937
51041,Chesterfield County,VA,23224
51043,Clarke County,VA,22630
51045,Craig County,VA,24128
51047,Culpeper County,VA,20186
51049,Cumberland County,VA,23936
51051,Dickenson County,VA,24237
51053,Dinwiddie County,VA,23833
51057,Essex County,VA,22438
51059,Fairfax County,VA,20171
51061,Fauquier County,VA,22406
51063,Floyd County,VA,24091
51065,Fluvanna County,VA,22963
51067,Franklin County,VA,24014
51069,Frederick County,VA,22601
51071,Giles County,VA,24315
51073,Gloucester County,VA,23001
51075,Goochland County,VA,23065
51077,Grayson County,VA,24330
51079,Greene County,VA,22935
51081,Greensville County,VA,23887
51083,Halifax County,VA,24534
51085,Hanover County,VA,23059
51087,Henrico County,VA,23030
51089,Henry County,VA,24133
51091,Highland County,VA,24413
51093,Isle of Wight County,VA,23314
51095,James City County,VA,23185
51097,King and Queen County,VA,23156
51099,King George County,VA,22451
51101,King William County,VA,23086
51103,Lancaster County,VA,22523
51105,Lee County,VA,24219
51107,Loudoun County,VA,20160
51109,Louisa County,VA,23065
51111,Lunenburg County,VA,23944
51113,Madison County,VA,22709
51115,Mathews County,VA,23068
51117,Mecklenburg County,VA,23919
51119,Middlesex County,VA,23071
51121,Montgomery County,VA,24068
51125,Nelson County,VA,22920
51127,New Kent County,VA,23140
51131,Northampton County,VA,23307
51133,Northumberland County,VA,22460
51135,Nottoway County,VA,23083
51137,Orange County,VA,23093
51139,Page County,VA,22827
51141,Patrick County,VA,24133
51143,Pittsylvania County,VA,24069
51145,Powhatan County,VA,23113
51147,Prince Edward County,VA,23922
51149,Prince George County,VA,23803
51153,Prince William County,VA,20155
51155,Pulaski County,VA,24084
51157,Rappahannock County,VA,22630
51159,Richmond County,VA,22460
51161,Roanoke County,VA,24014
51163,Rockbridge County,VA,24579
51165,Rockingham County,VA,22801
51167,Russell County,VA,24237
51169,Scott County,VA,24221
51171,Shenandoah County,VA,22645
51173,Smyth County,VA,24311
51175,Southampton County,VA,23867
51177,Spotsylvania County,VA,22408
51179,Stafford County,VA,22406
51181,Surry County,VA,23846
51183,Sussex County,VA,23867
51185,Tazewell County,VA,24630
51187,Warren County,VA,22630
51191,Washington County,VA,24212
51193,Westmoreland County,VA,22572
51195,Wise County,VA,24219
51197,Wythe County,VA,24324
51199,York County,VA,23185
51510,Alexandria city,VA,22305
51520,Bristol city,VA,24203
51530,Buena Vista city,VA,24416
51540,Charlottesville city,VA,22903
51550,Chesapeake city,VA,23323
51570,Colonial Heights city,VA,23834
51580,Covington city,VA,24426
51590,Danville city,VA,24540
51595,Emporia city,VA,23847
51600,Fairfax city,VA,22030
51610,Falls Church city,VA,22205
51620,Franklin city,VA,23851
51630,Fredericksburg city,VA,22408
51640,Galax city,VA,24333
51650,Hampton city,VA,23607
51660,Harrisonburg city,VA,22801
51670,Hopewell city,VA,23860
51678,Lexington city,VA,24450
51680,Lynchburg city,VA,24515
51683,Manassas city,VA,20110
51685,Manassas Park city,VA,20111
51690,Martinsville city,VA,24112
51700,Newport News city,VA,23606
51710,Norfolk city,VA,23505
51720,Norton city,VA,24273
51730,Petersburg city,VA,23803
51735,Poquoson city,VA,23662
51740,Portsmouth city,VA,23708
51750,Radford city,VA,24129
51760,Richmond city,VA,23222
51770,Roanoke city,VA,24014
51775,Salem city,VA,24153
51790,Staunton city,VA,24402
51800,Suffolk city,VA,23432
51810,Virginia Beach city,VA,23453
51820,Waynesboro city,VA,22980
51830,Williamsburg city,VA,23185
51840,Winchester city,VA,22601
53001,Adams County,WA,98857
53003,Asotin County,WA,99402
53005,Benton County,WA,99354
53007,Chelan County,WA,98828
53009,Clallam County,WA,98381
53011,Clark County,WA,98606
53013,Columbia County,WA,99328
53015,Cowlitz County,WA,98601
53017,Douglas County,WA,98858
53019,Ferry County,WA,99121
53021,Franklin County,WA,99330
53023,Garfield County,WA,99328
53025,Grant County,WA,98857
53027,Grays Harbor County,WA,98537
53029,Island County,WA,98249
53031,Jefferson County,WA,98320
53033,King County,WA,98102
53035,Kitsap County,WA,98359
53037,Kittitas County,WA,98828
53039,Klickitat County,WA,98623
53041,Lewis County,WA,98539
53043,Lincoln County,WA,99032
53045,Mason County,WA,98563
53047,Okanogan County,WA,98862
53049,Pacific County,WA,98614
53051,Pend Oreille County,WA,99006
53053,Pierce County,WA,98328
53055,San Juan County,WA,98286
53057,Skagit County,WA,98274
53059,Skamania County,WA,98671
53061,Snohomish County,WA,98270
53063,Spokane County,WA,99006
53065,Stevens County,WA,99006
53067,Thurston County,WA,98505
53069,Wahkiakum County,WA,98621
53071,Walla Walla County,WA,99329
53073,Whatcom County,WA,98266
53075,Whitman County,WA,99170
53077,Yakima County,WA,98903
54001,Barbour County,WV,26267
54003,Berkeley County,WV,25411
54005,Boone County,WV,25529
54007,Braxton County,WV,26412
54009,Brooke County,WV,26070
54011,Cabell County,WV,25504
54013,Calhoun County,WV,25235
54015,Clay County,WV,25235
54017,Doddridge County,WV,26321
54019,Fayette County,WV,26680
54021,Gilmer County,WV,26412
54023,Grant County,WV,26866
54025,Greenbrier County,WV,24977
54027,Hampshire County,WV,25434
54029,Hancock County,WV,26047
54031,Hardy County,WV,26838
54033,Harrison County,WV,26323
54035,Jackson County,WV,25252
54037,Jefferson County,WV,25414
54039,Kanawha County,WV,25071
54041,Lewis County,WV,26321
54043,Lincoln County,WV,25523
54045,Logan County,WV,25617
54047,McDowell County,WV,24862
54049,Marion County,WV,26563
54051,Marshall County,WV,26036
54053,Mason County,WV,25515
54055,Mercer County,WV,24701
54057,Mineral County,WV,26767
54059,Mingo County,WV,25678
54061,Monongalia County,WV,26505
54063,Monroe County,WV,24963
54065,Morgan County,WV,25411
54067,Nicholas County,WV,26205
54069,Ohio County,WV,26070
54071,Pendleton County,WV,26807
54073,Pleasants County,WV,26170
54075,Pocahontas County,WV,24924
54077,Preston County,WV,26287
54079,Putnam County,WV,25312
54081,Raleigh County,WV,25140
54083,Randolph County,WV,26267
54085,Ritchie County,WV,26170
54087,Roane County,WV,25071
54089,Summers County,WV,24963
54091,Taylor County,WV,26330
54093,Tucker County,WV,26287
54095,Tyler County,WV,26170
54097,Upshur County,WV,26267
54099,Wayne County,WV,25504
54101,Webster County,WV,26217
54103,Wetzel County,WV,26033
54105,Wirt County,WV,25252
54107,Wood County,WV,26169
54109,Wyoming County,WV,24870
55001,Adams County,WI,53936
55003,Ashland County,WI,54559
55005,Barron County,WI,54004
55007,Bayfield County,WI,54891
55009,Brown County,WI,54324
55011,Buffalo County,WI,54622
55013,Burnett County,WI,54830
55015,Calumet County,WI,53088
55017,Chippewa County,WI,54748
55019,Clark County,WI,54446
55021,Columbia County,WI,53932
55023,Crawford County,WI,54657
55025,Dane County,WI,53521
55027,Dodge County,WI,53027
55029,Door County,WI,54210
55031,Douglas County,WI,54849
55033,Dunn County,WI,54721
55035,Eau Claire County,WI,54741
55037,Florence County,WI,54151
55039,Fond du Lac County,WI,54904
55041,Forest County,WI,54465
55043,Grant County,WI,53813
55045,Green County,WI,53521
55047,Green Lake County,WI,53949
55049,Iowa County,WI,53517
55051,Iron County,WI,54538
55053,Jackson County,WI,54741
55055,Jefferson County,WI,53563
55057,Juneau County,WI,53968
55059,Kenosha County,WI,53128
55061,Kewaunee County,WI,54205
55063,La Crosse County,WI,54667
55065,Lafayette County,WI,53516
55067,Langlade County,WI,54430
55069,Lincoln County,WI,54564
55071,Manitowoc County,WI,54126
55073,Marathon County,WI,54474
55075,Marinette County,WI,54157
55077,Marquette County,WI,53949
55078,Menominee County,WI,54135
55079,Milwaukee County,WI,53217
55081,Monroe County,WI,54618
55083,Oconto County,WI,54157
55085,Oneida County,WI,54538
55087,Outagamie County,WI,54914
55089,Ozaukee County,WI,53080
55091,Pepin County,WI,54721
55093,Pierce County,WI,54721
55095,Polk County,WI,54004
55097,Portage County,WI,54482
55099,Price County,WI,54538
55101,Racine County,WI,53404
55103,Richland County,WI,53556
55105,Rock County,WI,53545
55107,Rusk County,WI,54526
55109,St. Croix County,WI,54028
55111,Sauk County,WI,53556
55113,Sawyer County,WI,54876
55115,Shawano County,WI,54166
55117,Sheboygan County,WI,53085
55119,Taylor County,WI,54771
55121,Trempealeau County,WI,54770
55123,Vernon County,WI,53968
55125,Vilas County,WI,54538
55127,Walworth County,WI,53125
55129,Washburn County,WI,54830
55131,Washington County,WI,53080
55133,Waukesha County,WI,53186
55135,Waupaca County,WI,54486
55137,Waushara County,WI,54970
55139,Winnebago County,WI,54904
55141,Wood County,WI,54469
56001,Albany County,WY,82073
56003,Big Horn County,WY,82423
56005,Campbell County,WY,82701
56007,Carbon County,WY,82083
56009,Converse County,WY,82633
56011,Crook County,WY,82729
56013,Fremont County,WY,82520
56015,Goshen County,WY,82244
56017,Hot Springs County,WY,82443
56019,Johnson County,WY,82832
56021,Laramie County,WY,82009
56023,Lincoln County,WY,83127
56025,Natrona County,WY,82605
56027,Niobrara County,WY,82701
56029,Park County,WY,82190
56031,Platte County,WY,82214
56033,Sheridan County,WY,82832
56035,Sublette County,WY,82923
56037,Sweetwater County,WY,82901
56039,Teton County,WY,83002
56041,Uinta County,WY,82931
56043,Washakie County,WY,82442
56045,Weston County,WY,82701
66010,Guam,GU,96910
72001,Adjuntas Municipio,PR,601
72003,Aguada Municipio,PR,602
72005,Aguadilla Municipio,PR,603
72007,Aguas Buenas Municipio,PR,725
72009,Aibonito Municipio,PR,705
72011,Anasco Municipio,PR,677
72013,Arecibo Municipio,PR,652
72015,Arroyo Municipio,PR,714
72017,Barceloneta Municipio,PR,617
72019,Barranquitas Municipio,PR,794
72021,Bayamon Municipio,PR,782
72023,Cabo Rojo Municipio,PR,622
72025,Caguas Municipio,PR,725
72027,Camuy Municipio,PR,627
72029,Canovanas Municipio,PR,777
72031,Carolina Municipio,PR,985
72033,Catano Municipio,PR,977
72035,Cayey Municipio,PR,736
72037,Ceiba Municipio,PR,735
72039,Ciales Municipio,PR,638
72041,Cidra Municipio,PR,725
72043,Coamo Municipio,PR,769
72045,Comerio Municipio,PR,782
72047,Corozal Municipio,PR,783
72049,Culebra Municipio,PR,775
72051,Dorado Municipio,PR,646
72053,Fajardo Municipio,PR,735
72054,Florida Municipio,PR,617
72055,Guanica Municipio,PR,653
72057,Guayama Municipio,PR,714
72059,Guayanilla Municipio,PR,624
72061,Guaynabo Municipio,PR,934
72063,Gurabo Municipio,PR,725
72065,Hatillo Municipio,PR,659
72067,Hormigueros Municipio,PR,660
72069,Humacao Municipio,PR,791
72071,Isabela Municipio,PR,603
72073,Jayuya Municipio,PR,664
72075,Juana Diaz Municipio,PR,766
72077,Juncos Municipio,PR,777
72079,Lajas Municipio,PR,683
72081,Lares Municipio,PR,669
72083,Las Marias Municipio,PR,670
72085,Las Piedras Municipio,PR,771
72087,Loiza Municipio,PR,772
72089,Luquillo Municipio,PR,773
72091,Manati Municipio,PR,674
72093,Maricao Municipio,PR,606
72095,Maunabo Municipio,PR,707
72097,Mayaguez Municipio,PR,682
72099,Moca Municipio,PR,676
72101,Morovis Municipio,PR,674
72103,Naguabo Municipio,PR,718
72105,Naranjito Municipio,PR,719
72107,Orocovis Municipio,PR,720
72109,Patillas Municipio,PR,723
72111,Penuelas Municipio,PR,624
72113,Ponce Municipio,PR,731
72115,Quebradillas Municipio,PR,678
72117,Rincon Municipio,PR,677
72119,Rio Grande Municipio,PR,721
72121,Sabana Grande Municipio,PR,698
72123,Salinas Municipio,PR,757
72125,San German Municipio,PR,683
72127,San Juan Municipio,PR,725
72129,San Lorenzo Municipio,PR,725
72131,San Sebastian Municipio,PR,685
72133,Santa Isabel Municipio,PR,757
72135,Toa Alta Municipio,PR,646
72137,Toa Baja Municipio,PR,951
72139,Trujillo Alto Municipio,PR,917
72141,Utuado Municipio,PR,641
72143,Vega Alta Municipio,PR,646
72145,Vega Baja Municipio,PR,674
72147,Vieques Municipio,PR,765
72149,Villalba Municipio,PR,766
72151,Yabucoa Municipio,PR,767
72153,Yauco Municipio,PR,606
78010,St. Croix Island,VI,820
78020,St. John Island,VI,830
78030,St. Thomas Island,VI,802
